{"type":"FeatureCollection","name":"Córdoba · POIs servicios OSM","_source":"OpenStreetMap via Overpass","features":[{"type":"Feature","properties":{"cat":"salud"},"geometry":{"type":"Point","coordinates":[-4.7811255,37.8881171]}},{"type":"Feature","properties":{"cat":"salud"},"geometry":{"type":"Point","coordinates":[-4.7795981,37.8893616]}},{"type":"Feature","properties":{"cat":"salud"},"geometry":{"type":"Point","coordinates":[-4.7730948,37.8830956]}},{"type":"Feature","properties":{"cat":"salud"},"geometry":{"type":"Point","coordinates":[-4.7517027,37.8974671]}},{"type":"Feature","properties":{"cat":"salud"},"geometry":{"type":"Point","coordinates":[-4.806394,37.8862508]}},{"type":"Feature","properties":{"cat":"salud"},"geometry":{"type":"Point","coordinates":[-4.7772708,37.8972056]}},{"type":"Feature","properties":{"cat":"salud"},"geometry":{"type":"Point","coordinates":[-4.7845905,37.8827163]}},{"type":"Feature","properties":{"cat":"salud"},"geometry":{"type":"Point","coordinates":[-4.7939729,37.873672]}},{"type":"Feature","properties":{"cat":"salud"},"geometry":{"type":"Point","coordinates":[-4.7800317,37.8682922]}},{"type":"Feature","properties":{"cat":"salud"},"geometry":{"type":"Point","coordinates":[-4.7601397,37.8837399]}},{"type":"Feature","properties":{"cat":"salud"},"geometry":{"type":"Point","coordinates":[-4.7598231,37.8807966]}},{"type":"Feature","properties":{"cat":"salud"},"geometry":{"type":"Point","coordinates":[-4.7685842,37.8858244]}},{"type":"Feature","properties":{"cat":"salud"},"geometry":{"type":"Point","coordinates":[-4.7593126,37.8983652]}},{"type":"Feature","properties":{"cat":"salud"},"geometry":{"type":"Point","coordinates":[-4.7639115,37.8946761]}},{"type":"Feature","properties":{"cat":"salud"},"geometry":{"type":"Point","coordinates":[-4.7622936,37.8940962]}},{"type":"Feature","properties":{"cat":"salud"},"geometry":{"type":"Point","coordinates":[-4.7846265,37.8979235]}},{"type":"Feature","properties":{"cat":"salud"},"geometry":{"type":"Point","coordinates":[-4.7828379,37.8970763]}},{"type":"Feature","properties":{"cat":"salud"},"geometry":{"type":"Point","coordinates":[-4.7932993,37.8812855]}},{"type":"Feature","properties":{"cat":"salud"},"geometry":{"type":"Point","coordinates":[-4.7930506,37.8838761]}},{"type":"Feature","properties":{"cat":"salud"},"geometry":{"type":"Point","coordinates":[-4.7941825,37.8855611]}},{"type":"Feature","properties":{"cat":"salud"},"geometry":{"type":"Point","coordinates":[-4.7911252,37.8851087]}},{"type":"Feature","properties":{"cat":"salud"},"geometry":{"type":"Point","coordinates":[-4.7864041,37.885396]}},{"type":"Feature","properties":{"cat":"salud"},"geometry":{"type":"Point","coordinates":[-4.7871336,37.8882199]}},{"type":"Feature","properties":{"cat":"salud"},"geometry":{"type":"Point","coordinates":[-4.7872302,37.8912469]}},{"type":"Feature","properties":{"cat":"salud"},"geometry":{"type":"Point","coordinates":[-4.7827032,37.8964795]}},{"type":"Feature","properties":{"cat":"salud"},"geometry":{"type":"Point","coordinates":[-4.7598257,37.8931886]}},{"type":"Feature","properties":{"cat":"salud"},"geometry":{"type":"Point","coordinates":[-4.7776825,37.8913159]}},{"type":"Feature","properties":{"cat":"salud"},"geometry":{"type":"Point","coordinates":[-4.7838753,37.8849079]}},{"type":"Feature","properties":{"cat":"salud"},"geometry":{"type":"Point","coordinates":[-4.8150493,37.8846675]}},{"type":"Feature","properties":{"cat":"salud"},"geometry":{"type":"Point","coordinates":[-4.7642599,37.8930616]}},{"type":"Feature","properties":{"cat":"salud"},"geometry":{"type":"Point","coordinates":[-4.7632763,37.8910055]}},{"type":"Feature","properties":{"cat":"salud"},"geometry":{"type":"Point","coordinates":[-4.7749027,37.8805989]}},{"type":"Feature","properties":{"cat":"salud"},"geometry":{"type":"Point","coordinates":[-4.7800807,37.8845422]}},{"type":"Feature","properties":{"cat":"salud"},"geometry":{"type":"Point","coordinates":[-4.784288,37.8864744]}},{"type":"Feature","properties":{"cat":"salud"},"geometry":{"type":"Point","coordinates":[-4.7813808,37.8910598]}},{"type":"Feature","properties":{"cat":"salud"},"geometry":{"type":"Point","coordinates":[-4.779014,37.8853938]}},{"type":"Feature","properties":{"cat":"salud"},"geometry":{"type":"Point","coordinates":[-4.782119,37.8931273]}},{"type":"Feature","properties":{"cat":"salud"},"geometry":{"type":"Point","coordinates":[-4.7719296,37.8702804]}},{"type":"Feature","properties":{"cat":"salud"},"geometry":{"type":"Point","coordinates":[-4.7738706,37.8720318]}},{"type":"Feature","properties":{"cat":"salud"},"geometry":{"type":"Point","coordinates":[-4.77388,37.8745774]}},{"type":"Feature","properties":{"cat":"salud"},"geometry":{"type":"Point","coordinates":[-4.7530126,37.8873395]}},{"type":"Feature","properties":{"cat":"salud"},"geometry":{"type":"Point","coordinates":[-4.7803137,37.8861734]}},{"type":"Feature","properties":{"cat":"salud"},"geometry":{"type":"Point","coordinates":[-4.7710567,37.8842147]}},{"type":"Feature","properties":{"cat":"salud"},"geometry":{"type":"Point","coordinates":[-4.7953686,37.8781731]}},{"type":"Feature","properties":{"cat":"salud"},"geometry":{"type":"Point","coordinates":[-4.7987697,37.8801229]}},{"type":"Feature","properties":{"cat":"salud"},"geometry":{"type":"Point","coordinates":[-4.8019351,37.8723309]}},{"type":"Feature","properties":{"cat":"salud"},"geometry":{"type":"Point","coordinates":[-4.7715073,37.8866845]}},{"type":"Feature","properties":{"cat":"salud"},"geometry":{"type":"Point","coordinates":[-4.7909861,37.887001]}},{"type":"Feature","properties":{"cat":"salud"},"geometry":{"type":"Point","coordinates":[-4.7938469,37.882432]}},{"type":"Feature","properties":{"cat":"salud"},"geometry":{"type":"Point","coordinates":[-4.7918966,37.8782249]}},{"type":"Feature","properties":{"cat":"salud"},"geometry":{"type":"Point","coordinates":[-4.7872941,37.8756435]}},{"type":"Feature","properties":{"cat":"salud"},"geometry":{"type":"Point","coordinates":[-4.7977405,37.8896756]}},{"type":"Feature","properties":{"cat":"salud"},"geometry":{"type":"Point","coordinates":[-4.7990609,37.8887645]}},{"type":"Feature","properties":{"cat":"salud"},"geometry":{"type":"Point","coordinates":[-4.7798339,37.8826158]}},{"type":"Feature","properties":{"cat":"salud"},"geometry":{"type":"Point","coordinates":[-4.7889739,37.8825243]}},{"type":"Feature","properties":{"cat":"salud"},"geometry":{"type":"Point","coordinates":[-4.7792274,37.8971261]}},{"type":"Feature","properties":{"cat":"salud"},"geometry":{"type":"Point","coordinates":[-4.7498037,37.8878691]}},{"type":"Feature","properties":{"cat":"salud"},"geometry":{"type":"Point","coordinates":[-4.7918504,37.8828017]}},{"type":"Feature","properties":{"cat":"salud"},"geometry":{"type":"Point","coordinates":[-4.7874185,37.8808083]}},{"type":"Feature","properties":{"cat":"salud"},"geometry":{"type":"Point","coordinates":[-4.7791051,37.898139]}},{"type":"Feature","properties":{"cat":"salud"},"geometry":{"type":"Point","coordinates":[-4.7600135,37.8905718]}},{"type":"Feature","properties":{"cat":"salud"},"geometry":{"type":"Point","coordinates":[-4.7812446,37.899205]}},{"type":"Feature","properties":{"cat":"salud"},"geometry":{"type":"Point","coordinates":[-4.7711381,37.8947461]}},{"type":"Feature","properties":{"cat":"salud"},"geometry":{"type":"Point","coordinates":[-4.7680266,37.8818208]}},{"type":"Feature","properties":{"cat":"salud"},"geometry":{"type":"Point","coordinates":[-4.7986529,37.8738367]}},{"type":"Feature","properties":{"cat":"salud"},"geometry":{"type":"Point","coordinates":[-4.7971666,37.8672468]}},{"type":"Feature","properties":{"cat":"salud"},"geometry":{"type":"Point","coordinates":[-4.7974572,37.8674069]}},{"type":"Feature","properties":{"cat":"salud"},"geometry":{"type":"Point","coordinates":[-4.7805357,37.8985887]}},{"type":"Feature","properties":{"cat":"salud"},"geometry":{"type":"Point","coordinates":[-4.7851471,37.8778453]}},{"type":"Feature","properties":{"cat":"salud"},"geometry":{"type":"Point","coordinates":[-4.7868846,37.883254]}},{"type":"Feature","properties":{"cat":"salud"},"geometry":{"type":"Point","coordinates":[-4.7841898,37.8792986]}},{"type":"Feature","properties":{"cat":"salud"},"geometry":{"type":"Point","coordinates":[-4.7846827,37.8798017]}},{"type":"Feature","properties":{"cat":"salud"},"geometry":{"type":"Point","coordinates":[-4.7748113,37.8827087]}},{"type":"Feature","properties":{"cat":"salud"},"geometry":{"type":"Point","coordinates":[-4.7766323,37.8932221]}},{"type":"Feature","properties":{"cat":"salud"},"geometry":{"type":"Point","coordinates":[-4.7641152,37.889357]}},{"type":"Feature","properties":{"cat":"salud"},"geometry":{"type":"Point","coordinates":[-4.7790376,37.8842782]}},{"type":"Feature","properties":{"cat":"salud"},"geometry":{"type":"Point","coordinates":[-4.7798479,37.8841917]}},{"type":"Feature","properties":{"cat":"salud"},"geometry":{"type":"Point","coordinates":[-4.7726319,37.8887148]}},{"type":"Feature","properties":{"cat":"salud"},"geometry":{"type":"Point","coordinates":[-4.7710623,37.8930631]}},{"type":"Feature","properties":{"cat":"salud"},"geometry":{"type":"Point","coordinates":[-4.7804077,37.8858371]}},{"type":"Feature","properties":{"cat":"salud"},"geometry":{"type":"Point","coordinates":[-4.7849476,37.8778357]}},{"type":"Feature","properties":{"cat":"salud"},"geometry":{"type":"Point","coordinates":[-4.7751934,37.8803942]}},{"type":"Feature","properties":{"cat":"salud"},"geometry":{"type":"Point","coordinates":[-4.784615,37.8757655]}},{"type":"Feature","properties":{"cat":"salud"},"geometry":{"type":"Point","coordinates":[-4.7827018,37.8777216]}},{"type":"Feature","properties":{"cat":"salud"},"geometry":{"type":"Point","coordinates":[-4.7774334,37.884509]}},{"type":"Feature","properties":{"cat":"salud"},"geometry":{"type":"Point","coordinates":[-4.7845886,37.8896471]}},{"type":"Feature","properties":{"cat":"salud"},"geometry":{"type":"Point","coordinates":[-4.7844744,37.8890707]}},{"type":"Feature","properties":{"cat":"salud"},"geometry":{"type":"Point","coordinates":[-4.7837703,37.8900276]}},{"type":"Feature","properties":{"cat":"salud"},"geometry":{"type":"Point","coordinates":[-4.7825545,37.8905842]}},{"type":"Feature","properties":{"cat":"salud"},"geometry":{"type":"Point","coordinates":[-4.782275,37.8906059]}},{"type":"Feature","properties":{"cat":"salud"},"geometry":{"type":"Point","coordinates":[-4.7821525,37.8904282]}},{"type":"Feature","properties":{"cat":"salud"},"geometry":{"type":"Point","coordinates":[-4.7827392,37.8904793]}},{"type":"Feature","properties":{"cat":"salud"},"geometry":{"type":"Point","coordinates":[-4.7828825,37.8884695]}},{"type":"Feature","properties":{"cat":"salud"},"geometry":{"type":"Point","coordinates":[-4.7804157,37.8961628]}},{"type":"Feature","properties":{"cat":"salud"},"geometry":{"type":"Point","coordinates":[-4.7846319,37.8827096]}},{"type":"Feature","properties":{"cat":"salud"},"geometry":{"type":"Point","coordinates":[-4.7829596,37.8890716]}},{"type":"Feature","properties":{"cat":"salud"},"geometry":{"type":"Point","coordinates":[-4.7819279,37.8899074]}},{"type":"Feature","properties":{"cat":"salud"},"geometry":{"type":"Point","coordinates":[-4.7815004,37.8892074]}},{"type":"Feature","properties":{"cat":"salud"},"geometry":{"type":"Point","coordinates":[-4.7717072,37.8910523]}},{"type":"Feature","properties":{"cat":"salud"},"geometry":{"type":"Point","coordinates":[-4.7748215,37.8946735]}},{"type":"Feature","properties":{"cat":"salud"},"geometry":{"type":"Point","coordinates":[-4.7739838,37.8951676]}},{"type":"Feature","properties":{"cat":"salud"},"geometry":{"type":"Point","coordinates":[-4.7750981,37.892008]}},{"type":"Feature","properties":{"cat":"salud"},"geometry":{"type":"Point","coordinates":[-4.7712228,37.8943955]}},{"type":"Feature","properties":{"cat":"salud"},"geometry":{"type":"Point","coordinates":[-4.7659108,37.8902167]}},{"type":"Feature","properties":{"cat":"salud"},"geometry":{"type":"Point","coordinates":[-4.790136,37.8844093]}},{"type":"Feature","properties":{"cat":"salud"},"geometry":{"type":"Point","coordinates":[-4.7722623,37.8863524]}},{"type":"Feature","properties":{"cat":"salud"},"geometry":{"type":"Point","coordinates":[-4.7757191,37.8843795]}},{"type":"Feature","properties":{"cat":"salud"},"geometry":{"type":"Point","coordinates":[-4.7650939,37.886321]}},{"type":"Feature","properties":{"cat":"salud"},"geometry":{"type":"Point","coordinates":[-4.7723193,37.8826419]}},{"type":"Feature","properties":{"cat":"salud"},"geometry":{"type":"Point","coordinates":[-4.7839074,37.8866686]}},{"type":"Feature","properties":{"cat":"salud"},"geometry":{"type":"Point","coordinates":[-4.7770576,37.8891156]}},{"type":"Feature","properties":{"cat":"salud"},"geometry":{"type":"Point","coordinates":[-4.7776514,37.8908262]}},{"type":"Feature","properties":{"cat":"salud"},"geometry":{"type":"Point","coordinates":[-4.7838438,37.8836545]}},{"type":"Feature","properties":{"cat":"salud"},"geometry":{"type":"Point","coordinates":[-4.7809464,37.88372]}},{"type":"Feature","properties":{"cat":"salud"},"geometry":{"type":"Point","coordinates":[-4.7649559,37.8925208]}},{"type":"Feature","properties":{"cat":"salud"},"geometry":{"type":"Point","coordinates":[-4.7766313,37.8925578]}},{"type":"Feature","properties":{"cat":"salud"},"geometry":{"type":"Point","coordinates":[-4.7772126,37.8926109]}},{"type":"Feature","properties":{"cat":"salud"},"geometry":{"type":"Point","coordinates":[-4.7759131,37.892593]}},{"type":"Feature","properties":{"cat":"salud"},"geometry":{"type":"Point","coordinates":[-4.7917227,37.8688256]}},{"type":"Feature","properties":{"cat":"salud"},"geometry":{"type":"Point","coordinates":[-4.7971923,37.8685051]}},{"type":"Feature","properties":{"cat":"salud"},"geometry":{"type":"Point","coordinates":[-4.7958344,37.8813203]}},{"type":"Feature","properties":{"cat":"salud"},"geometry":{"type":"Point","coordinates":[-4.7845096,37.880178]}},{"type":"Feature","properties":{"cat":"salud"},"geometry":{"type":"Point","coordinates":[-4.7838785,37.8939304]}},{"type":"Feature","properties":{"cat":"salud"},"geometry":{"type":"Point","coordinates":[-4.7928673,37.9042346]}},{"type":"Feature","properties":{"cat":"salud"},"geometry":{"type":"Point","coordinates":[-4.7811636,37.8909118]}},{"type":"Feature","properties":{"cat":"salud"},"geometry":{"type":"Point","coordinates":[-4.8153872,37.879505]}},{"type":"Feature","properties":{"cat":"salud"},"geometry":{"type":"Point","coordinates":[-4.7512828,37.8875942]}},{"type":"Feature","properties":{"cat":"salud"},"geometry":{"type":"Point","coordinates":[-4.7588747,37.8843126]}},{"type":"Feature","properties":{"cat":"salud"},"geometry":{"type":"Point","coordinates":[-4.7514056,37.892117]}},{"type":"Feature","properties":{"cat":"salud"},"geometry":{"type":"Point","coordinates":[-4.7947958,37.9036771]}},{"type":"Feature","properties":{"cat":"salud"},"geometry":{"type":"Point","coordinates":[-4.7978125,37.8871531]}},{"type":"Feature","properties":{"cat":"educacion"},"geometry":{"type":"Point","coordinates":[-4.7839814,37.8815134]}},{"type":"Feature","properties":{"cat":"educacion"},"geometry":{"type":"Point","coordinates":[-4.7924656,37.8889205]}},{"type":"Feature","properties":{"cat":"educacion"},"geometry":{"type":"Point","coordinates":[-4.7853298,37.8965044]}},{"type":"Feature","properties":{"cat":"educacion"},"geometry":{"type":"Point","coordinates":[-4.780969,37.8944175]}},{"type":"Feature","properties":{"cat":"educacion"},"geometry":{"type":"Point","coordinates":[-4.7859236,37.891913]}},{"type":"Feature","properties":{"cat":"educacion"},"geometry":{"type":"Point","coordinates":[-4.7995869,37.8954154]}},{"type":"Feature","properties":{"cat":"educacion"},"geometry":{"type":"Point","coordinates":[-4.7748438,37.8824198]}},{"type":"Feature","properties":{"cat":"educacion"},"geometry":{"type":"Point","coordinates":[-4.7686325,37.8819642]}},{"type":"Feature","properties":{"cat":"educacion"},"geometry":{"type":"Point","coordinates":[-4.76793,37.8812383]}},{"type":"Feature","properties":{"cat":"educacion"},"geometry":{"type":"Point","coordinates":[-4.7568082,37.887137]}},{"type":"Feature","properties":{"cat":"educacion"},"geometry":{"type":"Point","coordinates":[-4.7872659,37.8796991]}},{"type":"Feature","properties":{"cat":"educacion"},"geometry":{"type":"Point","coordinates":[-4.7912844,37.8790442]}},{"type":"Feature","properties":{"cat":"educacion"},"geometry":{"type":"Point","coordinates":[-4.7906675,37.8794411]}},{"type":"Feature","properties":{"cat":"educacion"},"geometry":{"type":"Point","coordinates":[-4.7808408,37.88326]}},{"type":"Feature","properties":{"cat":"educacion"},"geometry":{"type":"Point","coordinates":[-4.7957104,37.8846253]}},{"type":"Feature","properties":{"cat":"educacion"},"geometry":{"type":"Point","coordinates":[-4.7794189,37.891598]}},{"type":"Feature","properties":{"cat":"educacion"},"geometry":{"type":"Point","coordinates":[-4.7876737,37.8811879]}},{"type":"Feature","properties":{"cat":"educacion"},"geometry":{"type":"Point","coordinates":[-4.7944447,37.8852516]}},{"type":"Feature","properties":{"cat":"educacion"},"geometry":{"type":"Point","coordinates":[-4.7798395,37.8988546]}},{"type":"Feature","properties":{"cat":"educacion"},"geometry":{"type":"Point","coordinates":[-4.7798516,37.8985918]}},{"type":"Feature","properties":{"cat":"educacion"},"geometry":{"type":"Point","coordinates":[-4.7826828,37.8830035]}},{"type":"Feature","properties":{"cat":"educacion"},"geometry":{"type":"Point","coordinates":[-4.7952731,37.879338]}},{"type":"Feature","properties":{"cat":"educacion"},"geometry":{"type":"Point","coordinates":[-4.7779272,37.900738]}},{"type":"Feature","properties":{"cat":"educacion"},"geometry":{"type":"Point","coordinates":[-4.7777312,37.9004154]}},{"type":"Feature","properties":{"cat":"educacion"},"geometry":{"type":"Point","coordinates":[-4.7990008,37.8924112]}},{"type":"Feature","properties":{"cat":"educacion"},"geometry":{"type":"Point","coordinates":[-4.7807863,37.8846238]}},{"type":"Feature","properties":{"cat":"educacion"},"geometry":{"type":"Point","coordinates":[-4.780481,37.8813879]}},{"type":"Feature","properties":{"cat":"educacion"},"geometry":{"type":"Point","coordinates":[-4.7805018,37.8809634]}},{"type":"Feature","properties":{"cat":"educacion"},"geometry":{"type":"Point","coordinates":[-4.7793289,37.8813549]}},{"type":"Feature","properties":{"cat":"educacion"},"geometry":{"type":"Point","coordinates":[-4.7694484,37.8860822]}},{"type":"Feature","properties":{"cat":"educacion"},"geometry":{"type":"Point","coordinates":[-4.7929545,37.8723373]}},{"type":"Feature","properties":{"cat":"educacion"},"geometry":{"type":"Point","coordinates":[-4.7668237,37.8870736]}},{"type":"Feature","properties":{"cat":"educacion"},"geometry":{"type":"Point","coordinates":[-4.7756724,37.8925934]}},{"type":"Feature","properties":{"cat":"educacion"},"geometry":{"type":"Point","coordinates":[-4.7796749,37.8828802]}},{"type":"Feature","properties":{"cat":"educacion"},"geometry":{"type":"Point","coordinates":[-4.7778309,37.884253]}},{"type":"Feature","properties":{"cat":"educacion"},"geometry":{"type":"Point","coordinates":[-4.7779748,37.8839054]}},{"type":"Feature","properties":{"cat":"educacion"},"geometry":{"type":"Point","coordinates":[-4.7807099,37.8874429]}},{"type":"Feature","properties":{"cat":"educacion"},"geometry":{"type":"Point","coordinates":[-4.779717,37.888685]}},{"type":"Feature","properties":{"cat":"educacion"},"geometry":{"type":"Point","coordinates":[-4.7845437,37.8784899]}},{"type":"Feature","properties":{"cat":"educacion"},"geometry":{"type":"Point","coordinates":[-4.7564598,37.8933591]}},{"type":"Feature","properties":{"cat":"educacion"},"geometry":{"type":"Point","coordinates":[-4.8077843,37.9003528]}},{"type":"Feature","properties":{"cat":"educacion"},"geometry":{"type":"Point","coordinates":[-4.7833899,37.8893442]}},{"type":"Feature","properties":{"cat":"educacion"},"geometry":{"type":"Point","coordinates":[-4.7827349,37.8902376]}},{"type":"Feature","properties":{"cat":"educacion"},"geometry":{"type":"Point","coordinates":[-4.7846717,37.8889071]}},{"type":"Feature","properties":{"cat":"educacion"},"geometry":{"type":"Point","coordinates":[-4.7845513,37.887661]}},{"type":"Feature","properties":{"cat":"educacion"},"geometry":{"type":"Point","coordinates":[-4.784188,37.8881476]}},{"type":"Feature","properties":{"cat":"educacion"},"geometry":{"type":"Point","coordinates":[-4.7777004,37.8945545]}},{"type":"Feature","properties":{"cat":"educacion"},"geometry":{"type":"Point","coordinates":[-4.7752678,37.8933964]}},{"type":"Feature","properties":{"cat":"educacion"},"geometry":{"type":"Point","coordinates":[-4.774937,37.8944534]}},{"type":"Feature","properties":{"cat":"educacion"},"geometry":{"type":"Point","coordinates":[-4.7751925,37.8938282]}},{"type":"Feature","properties":{"cat":"educacion"},"geometry":{"type":"Point","coordinates":[-4.8022597,37.891056]}},{"type":"Feature","properties":{"cat":"educacion"},"geometry":{"type":"Point","coordinates":[-4.8077801,37.9003405]}},{"type":"Feature","properties":{"cat":"educacion"},"geometry":{"type":"Point","coordinates":[-4.7898214,37.8832423]}},{"type":"Feature","properties":{"cat":"educacion"},"geometry":{"type":"Point","coordinates":[-4.761236,37.8923963]}},{"type":"Feature","properties":{"cat":"educacion"},"geometry":{"type":"Point","coordinates":[-4.7726084,37.8862467]}},{"type":"Feature","properties":{"cat":"educacion"},"geometry":{"type":"Point","coordinates":[-4.7586129,37.9012331]}},{"type":"Feature","properties":{"cat":"educacion"},"geometry":{"type":"Point","coordinates":[-4.7844446,37.8854746]}},{"type":"Feature","properties":{"cat":"educacion"},"geometry":{"type":"Point","coordinates":[-4.7809074,37.8893023]}},{"type":"Feature","properties":{"cat":"educacion"},"geometry":{"type":"Point","coordinates":[-4.7775488,37.8905074]}},{"type":"Feature","properties":{"cat":"educacion"},"geometry":{"type":"Point","coordinates":[-4.7829003,37.8825264]}},{"type":"Feature","properties":{"cat":"educacion"},"geometry":{"type":"Point","coordinates":[-4.7830436,37.8824003]}},{"type":"Feature","properties":{"cat":"educacion"},"geometry":{"type":"Point","coordinates":[-4.7821992,37.8818796]}},{"type":"Feature","properties":{"cat":"educacion"},"geometry":{"type":"Point","coordinates":[-4.7898931,37.8823857]}},{"type":"Feature","properties":{"cat":"educacion"},"geometry":{"type":"Point","coordinates":[-4.7809923,37.8832727]}},{"type":"Feature","properties":{"cat":"educacion"},"geometry":{"type":"Point","coordinates":[-4.7808567,37.8832422]}},{"type":"Feature","properties":{"cat":"educacion"},"geometry":{"type":"Point","coordinates":[-4.8144838,37.8912035]}},{"type":"Feature","properties":{"cat":"educacion"},"geometry":{"type":"Point","coordinates":[-4.7756524,37.8925845]}},{"type":"Feature","properties":{"cat":"educacion"},"geometry":{"type":"Point","coordinates":[-4.7885308,37.8842981]}},{"type":"Feature","properties":{"cat":"educacion"},"geometry":{"type":"Point","coordinates":[-4.7673783,37.888143]}},{"type":"Feature","properties":{"cat":"educacion"},"geometry":{"type":"Point","coordinates":[-4.8016047,37.891629]}},{"type":"Feature","properties":{"cat":"educacion"},"geometry":{"type":"Point","coordinates":[-4.7626722,37.8844513]}},{"type":"Feature","properties":{"cat":"educacion"},"geometry":{"type":"Point","coordinates":[-4.8120192,37.8827384]}},{"type":"Feature","properties":{"cat":"educacion"},"geometry":{"type":"Point","coordinates":[-4.7771901,37.8984945]}},{"type":"Feature","properties":{"cat":"educacion"},"geometry":{"type":"Point","coordinates":[-4.7757729,37.9009693]}},{"type":"Feature","properties":{"cat":"educacion"},"geometry":{"type":"Point","coordinates":[-4.7724643,37.8640253]}},{"type":"Feature","properties":{"cat":"educacion"},"geometry":{"type":"Point","coordinates":[-4.769545,37.8647194]}},{"type":"Feature","properties":{"cat":"educacion"},"geometry":{"type":"Point","coordinates":[-4.7793327,37.8646652]}},{"type":"Feature","properties":{"cat":"educacion"},"geometry":{"type":"Point","coordinates":[-4.7824998,37.8800932]}},{"type":"Feature","properties":{"cat":"educacion"},"geometry":{"type":"Point","coordinates":[-4.7764757,37.8618046]}},{"type":"Feature","properties":{"cat":"educacion"},"geometry":{"type":"Point","coordinates":[-4.7781689,37.86264]}},{"type":"Feature","properties":{"cat":"educacion"},"geometry":{"type":"Point","coordinates":[-4.7857215,37.8596154]}},{"type":"Feature","properties":{"cat":"educacion"},"geometry":{"type":"Point","coordinates":[-4.7808772,37.8567487]}},{"type":"Feature","properties":{"cat":"educacion"},"geometry":{"type":"Point","coordinates":[-4.7862328,37.872458]}},{"type":"Feature","properties":{"cat":"educacion"},"geometry":{"type":"Point","coordinates":[-4.7950045,37.8657628]}},{"type":"Feature","properties":{"cat":"educacion"},"geometry":{"type":"Point","coordinates":[-4.7912154,37.8671236]}},{"type":"Feature","properties":{"cat":"educacion"},"geometry":{"type":"Point","coordinates":[-4.7938024,37.8647766]}},{"type":"Feature","properties":{"cat":"educacion"},"geometry":{"type":"Point","coordinates":[-4.7955488,37.8644387]}},{"type":"Feature","properties":{"cat":"educacion"},"geometry":{"type":"Point","coordinates":[-4.7739443,37.8937735]}},{"type":"Feature","properties":{"cat":"educacion"},"geometry":{"type":"Point","coordinates":[-4.7679777,37.8958478]}},{"type":"Feature","properties":{"cat":"educacion"},"geometry":{"type":"Point","coordinates":[-4.7793193,37.8904558]}},{"type":"Feature","properties":{"cat":"educacion"},"geometry":{"type":"Point","coordinates":[-4.7772488,37.8914321]}},{"type":"Feature","properties":{"cat":"educacion"},"geometry":{"type":"Point","coordinates":[-4.7674754,37.8973433]}},{"type":"Feature","properties":{"cat":"educacion"},"geometry":{"type":"Point","coordinates":[-4.7848039,37.8760216]}},{"type":"Feature","properties":{"cat":"educacion"},"geometry":{"type":"Point","coordinates":[-4.7961197,37.8770613]}},{"type":"Feature","properties":{"cat":"educacion"},"geometry":{"type":"Point","coordinates":[-4.7564273,37.9005947]}},{"type":"Feature","properties":{"cat":"educacion"},"geometry":{"type":"Point","coordinates":[-4.7509972,37.8982559]}},{"type":"Feature","properties":{"cat":"educacion"},"geometry":{"type":"Point","coordinates":[-4.7540448,37.8894532]}},{"type":"Feature","properties":{"cat":"educacion"},"geometry":{"type":"Point","coordinates":[-4.7603348,37.8828903]}},{"type":"Feature","properties":{"cat":"educacion"},"geometry":{"type":"Point","coordinates":[-4.7603745,37.8789319]}},{"type":"Feature","properties":{"cat":"educacion"},"geometry":{"type":"Point","coordinates":[-4.7769115,37.8648207]}},{"type":"Feature","properties":{"cat":"educacion"},"geometry":{"type":"Point","coordinates":[-4.7766294,37.8669472]}},{"type":"Feature","properties":{"cat":"educacion"},"geometry":{"type":"Point","coordinates":[-4.7688331,37.8815077]}},{"type":"Feature","properties":{"cat":"educacion"},"geometry":{"type":"Point","coordinates":[-4.7660598,37.8911471]}},{"type":"Feature","properties":{"cat":"educacion"},"geometry":{"type":"Point","coordinates":[-4.7752966,37.8960812]}},{"type":"Feature","properties":{"cat":"educacion"},"geometry":{"type":"Point","coordinates":[-4.7717436,37.8883565]}},{"type":"Feature","properties":{"cat":"educacion"},"geometry":{"type":"Point","coordinates":[-4.7979241,37.8823254]}},{"type":"Feature","properties":{"cat":"educacion"},"geometry":{"type":"Point","coordinates":[-4.7955309,37.8838142]}},{"type":"Feature","properties":{"cat":"educacion"},"geometry":{"type":"Point","coordinates":[-4.7792473,37.8873217]}},{"type":"Feature","properties":{"cat":"educacion"},"geometry":{"type":"Point","coordinates":[-4.7808689,37.8828738]}},{"type":"Feature","properties":{"cat":"educacion"},"geometry":{"type":"Point","coordinates":[-4.7815062,37.8824748]}},{"type":"Feature","properties":{"cat":"educacion"},"geometry":{"type":"Point","coordinates":[-4.7584691,37.8957031]}},{"type":"Feature","properties":{"cat":"educacion"},"geometry":{"type":"Point","coordinates":[-4.760118,37.8976493]}},{"type":"Feature","properties":{"cat":"educacion"},"geometry":{"type":"Point","coordinates":[-4.785752,37.8817981]}},{"type":"Feature","properties":{"cat":"educacion"},"geometry":{"type":"Point","coordinates":[-4.7564566,37.8892681]}},{"type":"Feature","properties":{"cat":"educacion"},"geometry":{"type":"Point","coordinates":[-4.7615552,37.8800405]}},{"type":"Feature","properties":{"cat":"educacion"},"geometry":{"type":"Point","coordinates":[-4.7611245,37.8812163]}},{"type":"Feature","properties":{"cat":"educacion"},"geometry":{"type":"Point","coordinates":[-4.7612855,37.8936409]}},{"type":"Feature","properties":{"cat":"educacion"},"geometry":{"type":"Point","coordinates":[-4.7544829,37.8861976]}},{"type":"Feature","properties":{"cat":"educacion"},"geometry":{"type":"Point","coordinates":[-4.7555169,37.8851659]}},{"type":"Feature","properties":{"cat":"educacion"},"geometry":{"type":"Point","coordinates":[-4.7564725,37.8918944]}},{"type":"Feature","properties":{"cat":"educacion"},"geometry":{"type":"Point","coordinates":[-4.7871532,37.8970521]}},{"type":"Feature","properties":{"cat":"educacion"},"geometry":{"type":"Point","coordinates":[-4.7854742,37.8963579]}},{"type":"Feature","properties":{"cat":"educacion"},"geometry":{"type":"Point","coordinates":[-4.7835234,37.897202]}},{"type":"Feature","properties":{"cat":"educacion"},"geometry":{"type":"Point","coordinates":[-4.7990348,37.8625444]}},{"type":"Feature","properties":{"cat":"educacion"},"geometry":{"type":"Point","coordinates":[-4.7851681,37.892111]}},{"type":"Feature","properties":{"cat":"educacion"},"geometry":{"type":"Point","coordinates":[-4.753108,37.900155]}},{"type":"Feature","properties":{"cat":"educacion"},"geometry":{"type":"Point","coordinates":[-4.7788102,37.8833323]}},{"type":"Feature","properties":{"cat":"educacion"},"geometry":{"type":"Point","coordinates":[-4.7784667,37.8826248]}},{"type":"Feature","properties":{"cat":"educacion"},"geometry":{"type":"Point","coordinates":[-4.7848335,37.9004811]}},{"type":"Feature","properties":{"cat":"educacion"},"geometry":{"type":"Point","coordinates":[-4.7875055,37.9012022]}},{"type":"Feature","properties":{"cat":"educacion"},"geometry":{"type":"Point","coordinates":[-4.7705288,37.8686816]}},{"type":"Feature","properties":{"cat":"educacion"},"geometry":{"type":"Point","coordinates":[-4.7950846,37.8751548]}},{"type":"Feature","properties":{"cat":"educacion"},"geometry":{"type":"Point","coordinates":[-4.7929711,37.8741693]}},{"type":"Feature","properties":{"cat":"educacion"},"geometry":{"type":"Point","coordinates":[-4.7519129,37.8952194]}},{"type":"Feature","properties":{"cat":"educacion"},"geometry":{"type":"Point","coordinates":[-4.7644651,37.8831998]}},{"type":"Feature","properties":{"cat":"educacion"},"geometry":{"type":"Point","coordinates":[-4.7655131,37.8833529]}},{"type":"Feature","properties":{"cat":"educacion"},"geometry":{"type":"Point","coordinates":[-4.7650707,37.8962287]}},{"type":"Feature","properties":{"cat":"educacion"},"geometry":{"type":"Point","coordinates":[-4.8062632,37.8916045]}},{"type":"Feature","properties":{"cat":"educacion"},"geometry":{"type":"Point","coordinates":[-4.7528973,37.8967054]}},{"type":"Feature","properties":{"cat":"educacion"},"geometry":{"type":"Point","coordinates":[-4.7654937,37.8891576]}},{"type":"Feature","properties":{"cat":"educacion"},"geometry":{"type":"Point","coordinates":[-4.7616748,37.9001182]}},{"type":"Feature","properties":{"cat":"educacion"},"geometry":{"type":"Point","coordinates":[-4.7662226,37.8876214]}},{"type":"Feature","properties":{"cat":"educacion"},"geometry":{"type":"Point","coordinates":[-4.7579506,37.8938151]}},{"type":"Feature","properties":{"cat":"educacion"},"geometry":{"type":"Point","coordinates":[-4.8170724,37.8790922]}},{"type":"Feature","properties":{"cat":"educacion"},"geometry":{"type":"Point","coordinates":[-4.7971306,37.8912764]}},{"type":"Feature","properties":{"cat":"educacion"},"geometry":{"type":"Point","coordinates":[-4.7961267,37.9040577]}},{"type":"Feature","properties":{"cat":"educacion"},"geometry":{"type":"Point","coordinates":[-4.8123645,37.8853963]}},{"type":"Feature","properties":{"cat":"educacion"},"geometry":{"type":"Point","coordinates":[-4.7585789,37.8833573]}},{"type":"Feature","properties":{"cat":"educacion"},"geometry":{"type":"Point","coordinates":[-4.7730523,37.8872844]}},{"type":"Feature","properties":{"cat":"educacion"},"geometry":{"type":"Point","coordinates":[-4.7781307,37.8928957]}},{"type":"Feature","properties":{"cat":"educacion"},"geometry":{"type":"Point","coordinates":[-4.7785591,37.8928681]}},{"type":"Feature","properties":{"cat":"educacion"},"geometry":{"type":"Point","coordinates":[-4.7799027,37.8665233]}},{"type":"Feature","properties":{"cat":"educacion"},"geometry":{"type":"Point","coordinates":[-4.7778631,37.8894784]}},{"type":"Feature","properties":{"cat":"educacion"},"geometry":{"type":"Point","coordinates":[-4.7793193,37.8904558]}},{"type":"Feature","properties":{"cat":"educacion"},"geometry":{"type":"Point","coordinates":[-4.759765,37.8867819]}},{"type":"Feature","properties":{"cat":"educacion"},"geometry":{"type":"Point","coordinates":[-4.7581676,37.8845732]}},{"type":"Feature","properties":{"cat":"educacion"},"geometry":{"type":"Point","coordinates":[-4.7886723,37.878309]}},{"type":"Feature","properties":{"cat":"educacion"},"geometry":{"type":"Point","coordinates":[-4.7890038,37.8919387]}},{"type":"Feature","properties":{"cat":"educacion"},"geometry":{"type":"Point","coordinates":[-4.8004796,37.8854629]}},{"type":"Feature","properties":{"cat":"educacion"},"geometry":{"type":"Point","coordinates":[-4.8008386,37.8862332]}},{"type":"Feature","properties":{"cat":"educacion"},"geometry":{"type":"Point","coordinates":[-4.7580594,37.8819228]}},{"type":"Feature","properties":{"cat":"educacion"},"geometry":{"type":"Point","coordinates":[-4.7706117,37.8860819]}},{"type":"Feature","properties":{"cat":"educacion"},"geometry":{"type":"Point","coordinates":[-4.7996634,37.8808894]}},{"type":"Feature","properties":{"cat":"educacion"},"geometry":{"type":"Point","coordinates":[-4.7937422,37.8783253]}},{"type":"Feature","properties":{"cat":"educacion"},"geometry":{"type":"Point","coordinates":[-4.8057514,37.8928389]}},{"type":"Feature","properties":{"cat":"educacion"},"geometry":{"type":"Point","coordinates":[-4.7786821,37.8680423]}},{"type":"Feature","properties":{"cat":"educacion"},"geometry":{"type":"Point","coordinates":[-4.7749252,37.8614582]}},{"type":"Feature","properties":{"cat":"educacion"},"geometry":{"type":"Point","coordinates":[-4.7794741,37.8621215]}},{"type":"Feature","properties":{"cat":"educacion"},"geometry":{"type":"Point","coordinates":[-4.8112524,37.8894294]}},{"type":"Feature","properties":{"cat":"educacion"},"geometry":{"type":"Point","coordinates":[-4.7901654,37.8768452]}},{"type":"Feature","properties":{"cat":"educacion"},"geometry":{"type":"Point","coordinates":[-4.8190395,37.8820472]}},{"type":"Feature","properties":{"cat":"educacion"},"geometry":{"type":"Point","coordinates":[-4.8214441,37.884427]}},{"type":"Feature","properties":{"cat":"educacion"},"geometry":{"type":"Point","coordinates":[-4.8207249,37.884697]}},{"type":"Feature","properties":{"cat":"educacion"},"geometry":{"type":"Point","coordinates":[-4.7938829,37.8935927]}},{"type":"Feature","properties":{"cat":"educacion"},"geometry":{"type":"Point","coordinates":[-4.7716091,37.8848687]}},{"type":"Feature","properties":{"cat":"educacion"},"geometry":{"type":"Point","coordinates":[-4.7717857,37.8833583]}},{"type":"Feature","properties":{"cat":"educacion"},"geometry":{"type":"Point","coordinates":[-4.7740979,37.8824905]}},{"type":"Feature","properties":{"cat":"educacion"},"geometry":{"type":"Point","coordinates":[-4.7771867,37.8858245]}},{"type":"Feature","properties":{"cat":"educacion"},"geometry":{"type":"Point","coordinates":[-4.8014935,37.8690517]}},{"type":"Feature","properties":{"cat":"educacion"},"geometry":{"type":"Point","coordinates":[-4.7890111,37.8671692]}},{"type":"Feature","properties":{"cat":"educacion"},"geometry":{"type":"Point","coordinates":[-4.7534368,37.8919906]}},{"type":"Feature","properties":{"cat":"educacion"},"geometry":{"type":"Point","coordinates":[-4.8039984,37.8892392]}},{"type":"Feature","properties":{"cat":"educacion"},"geometry":{"type":"Point","coordinates":[-4.7786208,37.8847918]}},{"type":"Feature","properties":{"cat":"comercio"},"geometry":{"type":"Point","coordinates":[-4.7916358,37.8960976]}},{"type":"Feature","properties":{"cat":"comercio"},"geometry":{"type":"Point","coordinates":[-4.7609099,37.9027057]}},{"type":"Feature","properties":{"cat":"comercio"},"geometry":{"type":"Point","coordinates":[-4.7596727,37.9039671]}},{"type":"Feature","properties":{"cat":"comercio"},"geometry":{"type":"Point","coordinates":[-4.7923678,37.891892]}},{"type":"Feature","properties":{"cat":"comercio"},"geometry":{"type":"Point","coordinates":[-4.7804254,37.8894802]}},{"type":"Feature","properties":{"cat":"comercio"},"geometry":{"type":"Point","coordinates":[-4.7915435,37.884755]}},{"type":"Feature","properties":{"cat":"comercio"},"geometry":{"type":"Point","coordinates":[-4.7988497,37.8938571]}},{"type":"Feature","properties":{"cat":"comercio"},"geometry":{"type":"Point","coordinates":[-4.7938041,37.8903832]}},{"type":"Feature","properties":{"cat":"comercio"},"geometry":{"type":"Point","coordinates":[-4.7532117,37.8983585]}},{"type":"Feature","properties":{"cat":"comercio"},"geometry":{"type":"Point","coordinates":[-4.7749319,37.8993095]}},{"type":"Feature","properties":{"cat":"comercio"},"geometry":{"type":"Point","coordinates":[-4.7674415,37.8925067]}},{"type":"Feature","properties":{"cat":"comercio"},"geometry":{"type":"Point","coordinates":[-4.8086451,37.8941528]}},{"type":"Feature","properties":{"cat":"comercio"},"geometry":{"type":"Point","coordinates":[-4.7978105,37.8861154]}},{"type":"Feature","properties":{"cat":"comercio"},"geometry":{"type":"Point","coordinates":[-4.765824,37.8871788]}},{"type":"Feature","properties":{"cat":"comercio"},"geometry":{"type":"Point","coordinates":[-4.7684677,37.886557]}},{"type":"Feature","properties":{"cat":"comercio"},"geometry":{"type":"Point","coordinates":[-4.7580915,37.8983647]}},{"type":"Feature","properties":{"cat":"comercio"},"geometry":{"type":"Point","coordinates":[-4.7588099,37.8980451]}},{"type":"Feature","properties":{"cat":"comercio"},"geometry":{"type":"Point","coordinates":[-4.7606919,37.8850471]}},{"type":"Feature","properties":{"cat":"comercio"},"geometry":{"type":"Point","coordinates":[-4.7928508,37.8839452]}},{"type":"Feature","properties":{"cat":"comercio"},"geometry":{"type":"Point","coordinates":[-4.7730056,37.883677]}},{"type":"Feature","properties":{"cat":"comercio"},"geometry":{"type":"Point","coordinates":[-4.7808373,37.8840501]}},{"type":"Feature","properties":{"cat":"comercio"},"geometry":{"type":"Point","coordinates":[-4.7797888,37.8833198]}},{"type":"Feature","properties":{"cat":"comercio"},"geometry":{"type":"Point","coordinates":[-4.7830807,37.8796086]}},{"type":"Feature","properties":{"cat":"comercio"},"geometry":{"type":"Point","coordinates":[-4.7846071,37.8780024]}},{"type":"Feature","properties":{"cat":"comercio"},"geometry":{"type":"Point","coordinates":[-4.7568684,37.8986887]}},{"type":"Feature","properties":{"cat":"comercio"},"geometry":{"type":"Point","coordinates":[-4.783819,37.8760879]}},{"type":"Feature","properties":{"cat":"comercio"},"geometry":{"type":"Point","coordinates":[-4.78272,37.8645506]}},{"type":"Feature","properties":{"cat":"comercio"},"geometry":{"type":"Point","coordinates":[-4.7846564,37.8773073]}},{"type":"Feature","properties":{"cat":"comercio"},"geometry":{"type":"Point","coordinates":[-4.7843659,37.8777309]}},{"type":"Feature","properties":{"cat":"comercio"},"geometry":{"type":"Point","coordinates":[-4.7743799,37.8859505]}},{"type":"Feature","properties":{"cat":"comercio"},"geometry":{"type":"Point","coordinates":[-4.7890532,37.8780479]}},{"type":"Feature","properties":{"cat":"comercio"},"geometry":{"type":"Point","coordinates":[-4.7721968,37.8865265]}},{"type":"Feature","properties":{"cat":"comercio"},"geometry":{"type":"Point","coordinates":[-4.7652948,37.8901801]}},{"type":"Feature","properties":{"cat":"comercio"},"geometry":{"type":"Point","coordinates":[-4.7781577,37.8889748]}},{"type":"Feature","properties":{"cat":"comercio"},"geometry":{"type":"Point","coordinates":[-4.8021648,37.8872454]}},{"type":"Feature","properties":{"cat":"comercio"},"geometry":{"type":"Point","coordinates":[-4.7529354,37.8873492]}},{"type":"Feature","properties":{"cat":"comercio"},"geometry":{"type":"Point","coordinates":[-4.7538357,37.8872992]}},{"type":"Feature","properties":{"cat":"comercio"},"geometry":{"type":"Point","coordinates":[-4.7755364,37.8801697]}},{"type":"Feature","properties":{"cat":"comercio"},"geometry":{"type":"Point","coordinates":[-4.7754112,37.8842812]}},{"type":"Feature","properties":{"cat":"comercio"},"geometry":{"type":"Point","coordinates":[-4.7995223,37.8906321]}},{"type":"Feature","properties":{"cat":"comercio"},"geometry":{"type":"Point","coordinates":[-4.7801248,37.8890532]}},{"type":"Feature","properties":{"cat":"comercio"},"geometry":{"type":"Point","coordinates":[-4.7854873,37.8949281]}},{"type":"Feature","properties":{"cat":"comercio"},"geometry":{"type":"Point","coordinates":[-4.7866531,37.8923521]}},{"type":"Feature","properties":{"cat":"comercio"},"geometry":{"type":"Point","coordinates":[-4.7842622,37.8973642]}},{"type":"Feature","properties":{"cat":"comercio"},"geometry":{"type":"Point","coordinates":[-4.7864728,37.8947657]}},{"type":"Feature","properties":{"cat":"comercio"},"geometry":{"type":"Point","coordinates":[-4.7598568,37.8807316]}},{"type":"Feature","properties":{"cat":"comercio"},"geometry":{"type":"Point","coordinates":[-4.7600053,37.8805632]}},{"type":"Feature","properties":{"cat":"comercio"},"geometry":{"type":"Point","coordinates":[-4.7617163,37.8789007]}},{"type":"Feature","properties":{"cat":"comercio"},"geometry":{"type":"Point","coordinates":[-4.7940173,37.8852351]}},{"type":"Feature","properties":{"cat":"comercio"},"geometry":{"type":"Point","coordinates":[-4.7935368,37.8818575]}},{"type":"Feature","properties":{"cat":"comercio"},"geometry":{"type":"Point","coordinates":[-4.7900432,37.8814259]}},{"type":"Feature","properties":{"cat":"comercio"},"geometry":{"type":"Point","coordinates":[-4.793451,37.8815999]}},{"type":"Feature","properties":{"cat":"comercio"},"geometry":{"type":"Point","coordinates":[-4.788805,37.8822346]}},{"type":"Feature","properties":{"cat":"comercio"},"geometry":{"type":"Point","coordinates":[-4.7979979,37.8998845]}},{"type":"Feature","properties":{"cat":"comercio"},"geometry":{"type":"Point","coordinates":[-4.7664588,37.8792815]}},{"type":"Feature","properties":{"cat":"comercio"},"geometry":{"type":"Point","coordinates":[-4.7979563,37.8897896]}},{"type":"Feature","properties":{"cat":"comercio"},"geometry":{"type":"Point","coordinates":[-4.7970489,37.8797838]}},{"type":"Feature","properties":{"cat":"comercio"},"geometry":{"type":"Point","coordinates":[-4.7785212,37.8844397]}},{"type":"Feature","properties":{"cat":"comercio"},"geometry":{"type":"Point","coordinates":[-4.7532821,37.8984634]}},{"type":"Feature","properties":{"cat":"comercio"},"geometry":{"type":"Point","coordinates":[-4.8060979,37.8954346]}},{"type":"Feature","properties":{"cat":"comercio"},"geometry":{"type":"Point","coordinates":[-4.779732,37.8860753]}},{"type":"Feature","properties":{"cat":"comercio"},"geometry":{"type":"Point","coordinates":[-4.7793891,37.8982607]}},{"type":"Feature","properties":{"cat":"comercio"},"geometry":{"type":"Point","coordinates":[-4.7982616,37.8805078]}},{"type":"Feature","properties":{"cat":"comercio"},"geometry":{"type":"Point","coordinates":[-4.7760351,37.8814807]}},{"type":"Feature","properties":{"cat":"comercio"},"geometry":{"type":"Point","coordinates":[-4.7871457,37.883191]}},{"type":"Feature","properties":{"cat":"comercio"},"geometry":{"type":"Point","coordinates":[-4.7757827,37.8967537]}},{"type":"Feature","properties":{"cat":"comercio"},"geometry":{"type":"Point","coordinates":[-4.7605312,37.890614]}},{"type":"Feature","properties":{"cat":"comercio"},"geometry":{"type":"Point","coordinates":[-4.7767614,37.8970198]}},{"type":"Feature","properties":{"cat":"comercio"},"geometry":{"type":"Point","coordinates":[-4.7762453,37.8966928]}},{"type":"Feature","properties":{"cat":"comercio"},"geometry":{"type":"Point","coordinates":[-4.7903582,37.8812634]}},{"type":"Feature","properties":{"cat":"comercio"},"geometry":{"type":"Point","coordinates":[-4.7904997,37.8811448]}},{"type":"Feature","properties":{"cat":"comercio"},"geometry":{"type":"Point","coordinates":[-4.7827835,37.8829623]}},{"type":"Feature","properties":{"cat":"comercio"},"geometry":{"type":"Point","coordinates":[-4.7637057,37.8912284]}},{"type":"Feature","properties":{"cat":"comercio"},"geometry":{"type":"Point","coordinates":[-4.7636711,37.891198]}},{"type":"Feature","properties":{"cat":"comercio"},"geometry":{"type":"Point","coordinates":[-4.7732364,37.8918979]}},{"type":"Feature","properties":{"cat":"comercio"},"geometry":{"type":"Point","coordinates":[-4.7729591,37.8841577]}},{"type":"Feature","properties":{"cat":"comercio"},"geometry":{"type":"Point","coordinates":[-4.7845707,37.8878788]}},{"type":"Feature","properties":{"cat":"comercio"},"geometry":{"type":"Point","coordinates":[-4.7825942,37.8636824]}},{"type":"Feature","properties":{"cat":"comercio"},"geometry":{"type":"Point","coordinates":[-4.7566626,37.8913256]}},{"type":"Feature","properties":{"cat":"comercio"},"geometry":{"type":"Point","coordinates":[-4.7616272,37.8908087]}},{"type":"Feature","properties":{"cat":"comercio"},"geometry":{"type":"Point","coordinates":[-4.7690673,37.8932636]}},{"type":"Feature","properties":{"cat":"comercio"},"geometry":{"type":"Point","coordinates":[-4.7646008,37.8794218]}},{"type":"Feature","properties":{"cat":"comercio"},"geometry":{"type":"Point","coordinates":[-4.7761959,37.8706331]}},{"type":"Feature","properties":{"cat":"comercio"},"geometry":{"type":"Point","coordinates":[-4.7887366,37.8759624]}},{"type":"Feature","properties":{"cat":"comercio"},"geometry":{"type":"Point","coordinates":[-4.7988925,37.8921841]}},{"type":"Feature","properties":{"cat":"comercio"},"geometry":{"type":"Point","coordinates":[-4.7986233,37.8841852]}},{"type":"Feature","properties":{"cat":"comercio"},"geometry":{"type":"Point","coordinates":[-4.7963175,37.8786629]}},{"type":"Feature","properties":{"cat":"comercio"},"geometry":{"type":"Point","coordinates":[-4.7859698,37.8587473]}},{"type":"Feature","properties":{"cat":"comercio"},"geometry":{"type":"Point","coordinates":[-4.786566,37.8848697]}},{"type":"Feature","properties":{"cat":"comercio"},"geometry":{"type":"Point","coordinates":[-4.7913146,37.8781158]}},{"type":"Feature","properties":{"cat":"comercio"},"geometry":{"type":"Point","coordinates":[-4.791281,37.8851216]}},{"type":"Feature","properties":{"cat":"comercio"},"geometry":{"type":"Point","coordinates":[-4.7774713,37.8792988]}},{"type":"Feature","properties":{"cat":"comercio"},"geometry":{"type":"Point","coordinates":[-4.781081,37.8800504]}},{"type":"Feature","properties":{"cat":"comercio"},"geometry":{"type":"Point","coordinates":[-4.7831053,37.8876957]}},{"type":"Feature","properties":{"cat":"comercio"},"geometry":{"type":"Point","coordinates":[-4.7815666,37.8890041]}},{"type":"Feature","properties":{"cat":"comercio"},"geometry":{"type":"Point","coordinates":[-4.7816378,37.8876347]}},{"type":"Feature","properties":{"cat":"comercio"},"geometry":{"type":"Point","coordinates":[-4.7799579,37.8839752]}},{"type":"Feature","properties":{"cat":"comercio"},"geometry":{"type":"Point","coordinates":[-4.7681158,37.8888904]}},{"type":"Feature","properties":{"cat":"comercio"},"geometry":{"type":"Point","coordinates":[-4.7803672,37.894822]}},{"type":"Feature","properties":{"cat":"comercio"},"geometry":{"type":"Point","coordinates":[-4.766132,37.889922]}},{"type":"Feature","properties":{"cat":"comercio"},"geometry":{"type":"Point","coordinates":[-4.7818006,37.8976604]}},{"type":"Feature","properties":{"cat":"comercio"},"geometry":{"type":"Point","coordinates":[-4.7753458,37.8929831]}},{"type":"Feature","properties":{"cat":"comercio"},"geometry":{"type":"Point","coordinates":[-4.7785141,37.8844393]}},{"type":"Feature","properties":{"cat":"comercio"},"geometry":{"type":"Point","coordinates":[-4.7788689,37.8838374]}},{"type":"Feature","properties":{"cat":"comercio"},"geometry":{"type":"Point","coordinates":[-4.7807604,37.8804074]}},{"type":"Feature","properties":{"cat":"comercio"},"geometry":{"type":"Point","coordinates":[-4.7801473,37.8886954]}},{"type":"Feature","properties":{"cat":"comercio"},"geometry":{"type":"Point","coordinates":[-4.7728146,37.8886171]}},{"type":"Feature","properties":{"cat":"comercio"},"geometry":{"type":"Point","coordinates":[-4.7574017,37.8831181]}},{"type":"Feature","properties":{"cat":"comercio"},"geometry":{"type":"Point","coordinates":[-4.778356,37.8886754]}},{"type":"Feature","properties":{"cat":"comercio"},"geometry":{"type":"Point","coordinates":[-4.7565916,37.8936206]}},{"type":"Feature","properties":{"cat":"comercio"},"geometry":{"type":"Point","coordinates":[-4.7557549,37.8936938]}},{"type":"Feature","properties":{"cat":"comercio"},"geometry":{"type":"Point","coordinates":[-4.7846105,37.8777504]}},{"type":"Feature","properties":{"cat":"comercio"},"geometry":{"type":"Point","coordinates":[-4.7702265,37.8820341]}},{"type":"Feature","properties":{"cat":"comercio"},"geometry":{"type":"Point","coordinates":[-4.770066,37.8877691]}},{"type":"Feature","properties":{"cat":"comercio"},"geometry":{"type":"Point","coordinates":[-4.7976093,37.8806904]}},{"type":"Feature","properties":{"cat":"comercio"},"geometry":{"type":"Point","coordinates":[-4.7838835,37.8780024]}},{"type":"Feature","properties":{"cat":"comercio"},"geometry":{"type":"Point","coordinates":[-4.7763776,37.8818828]}},{"type":"Feature","properties":{"cat":"comercio"},"geometry":{"type":"Point","coordinates":[-4.7760032,37.8800353]}},{"type":"Feature","properties":{"cat":"comercio"},"geometry":{"type":"Point","coordinates":[-4.7842711,37.8886316]}},{"type":"Feature","properties":{"cat":"comercio"},"geometry":{"type":"Point","coordinates":[-4.7844797,37.8873239]}},{"type":"Feature","properties":{"cat":"comercio"},"geometry":{"type":"Point","coordinates":[-4.7665742,37.8719297]}},{"type":"Feature","properties":{"cat":"comercio"},"geometry":{"type":"Point","coordinates":[-4.7837739,37.8891103]}},{"type":"Feature","properties":{"cat":"comercio"},"geometry":{"type":"Point","coordinates":[-4.7685173,37.8843414]}},{"type":"Feature","properties":{"cat":"comercio"},"geometry":{"type":"Point","coordinates":[-4.7777823,37.8912997]}},{"type":"Feature","properties":{"cat":"comercio"},"geometry":{"type":"Point","coordinates":[-4.7820863,37.883413]}},{"type":"Feature","properties":{"cat":"comercio"},"geometry":{"type":"Point","coordinates":[-4.7666468,37.888405]}},{"type":"Feature","properties":{"cat":"comercio"},"geometry":{"type":"Point","coordinates":[-4.7647578,37.889524]}},{"type":"Feature","properties":{"cat":"comercio"},"geometry":{"type":"Point","coordinates":[-4.7648591,37.8899461]}},{"type":"Feature","properties":{"cat":"comercio"},"geometry":{"type":"Point","coordinates":[-4.7652047,37.8867301]}},{"type":"Feature","properties":{"cat":"comercio"},"geometry":{"type":"Point","coordinates":[-4.7579012,37.8944315]}},{"type":"Feature","properties":{"cat":"comercio"},"geometry":{"type":"Point","coordinates":[-4.7580576,37.8943244]}},{"type":"Feature","properties":{"cat":"comercio"},"geometry":{"type":"Point","coordinates":[-4.760482,37.8927413]}},{"type":"Feature","properties":{"cat":"comercio"},"geometry":{"type":"Point","coordinates":[-4.7711144,37.8810376]}},{"type":"Feature","properties":{"cat":"comercio"},"geometry":{"type":"Point","coordinates":[-4.7716701,37.8901973]}},{"type":"Feature","properties":{"cat":"comercio"},"geometry":{"type":"Point","coordinates":[-4.7725347,37.8825441]}},{"type":"Feature","properties":{"cat":"comercio"},"geometry":{"type":"Point","coordinates":[-4.7722171,37.8825622]}},{"type":"Feature","properties":{"cat":"comercio"},"geometry":{"type":"Point","coordinates":[-4.7542362,37.8946609]}},{"type":"Feature","properties":{"cat":"comercio"},"geometry":{"type":"Point","coordinates":[-4.772957,37.8841707]}},{"type":"Feature","properties":{"cat":"comercio"},"geometry":{"type":"Point","coordinates":[-4.7478884,37.8934908]}},{"type":"Feature","properties":{"cat":"comercio"},"geometry":{"type":"Point","coordinates":[-4.7854263,37.8838489]}},{"type":"Feature","properties":{"cat":"comercio"},"geometry":{"type":"Point","coordinates":[-4.7744789,37.8831362]}},{"type":"Feature","properties":{"cat":"comercio"},"geometry":{"type":"Point","coordinates":[-4.7644904,37.8824104]}},{"type":"Feature","properties":{"cat":"comercio"},"geometry":{"type":"Point","coordinates":[-4.7626268,37.8822763]}},{"type":"Feature","properties":{"cat":"comercio"},"geometry":{"type":"Point","coordinates":[-4.748547,37.8888191]}},{"type":"Feature","properties":{"cat":"comercio"},"geometry":{"type":"Point","coordinates":[-4.7896834,37.9040665]}},{"type":"Feature","properties":{"cat":"comercio"},"geometry":{"type":"Point","coordinates":[-4.7820206,37.8670348]}},{"type":"Feature","properties":{"cat":"comercio"},"geometry":{"type":"Point","coordinates":[-4.8155671,37.8803084]}},{"type":"Feature","properties":{"cat":"comercio"},"geometry":{"type":"Point","coordinates":[-4.8015636,37.8774935]}},{"type":"Feature","properties":{"cat":"comercio"},"geometry":{"type":"Point","coordinates":[-4.7992248,37.8813452]}},{"type":"Feature","properties":{"cat":"comercio"},"geometry":{"type":"Point","coordinates":[-4.8023306,37.8802222]}},{"type":"Feature","properties":{"cat":"comercio"},"geometry":{"type":"Point","coordinates":[-4.7910437,37.8865047]}},{"type":"Feature","properties":{"cat":"comercio"},"geometry":{"type":"Point","coordinates":[-4.7668569,37.8971487]}},{"type":"Feature","properties":{"cat":"comercio"},"geometry":{"type":"Point","coordinates":[-4.7867973,37.8914507]}},{"type":"Feature","properties":{"cat":"comercio"},"geometry":{"type":"Point","coordinates":[-4.7688614,37.9005179]}},{"type":"Feature","properties":{"cat":"comercio"},"geometry":{"type":"Point","coordinates":[-4.7683555,37.9026224]}},{"type":"Feature","properties":{"cat":"comercio"},"geometry":{"type":"Point","coordinates":[-4.8210084,37.8803601]}},{"type":"Feature","properties":{"cat":"comercio"},"geometry":{"type":"Point","coordinates":[-4.8040331,37.8843363]}},{"type":"Feature","properties":{"cat":"comercio"},"geometry":{"type":"Point","coordinates":[-4.741201,37.8972541]}},{"type":"Feature","properties":{"cat":"comercio"},"geometry":{"type":"Point","coordinates":[-4.8053144,37.8835246]}},{"type":"Feature","properties":{"cat":"comercio"},"geometry":{"type":"Point","coordinates":[-4.7949167,37.8553295]}},{"type":"Feature","properties":{"cat":"comercio"},"geometry":{"type":"Point","coordinates":[-4.7588058,37.9047275]}},{"type":"Feature","properties":{"cat":"transporte"},"geometry":{"type":"Point","coordinates":[-4.7534886,37.8975133]}},{"type":"Feature","properties":{"cat":"transporte"},"geometry":{"type":"Point","coordinates":[-4.7739324,37.8988295]}},{"type":"Feature","properties":{"cat":"transporte"},"geometry":{"type":"Point","coordinates":[-4.777034,37.8996614]}},{"type":"Feature","properties":{"cat":"transporte"},"geometry":{"type":"Point","coordinates":[-4.7841,37.894732]}},{"type":"Feature","properties":{"cat":"transporte"},"geometry":{"type":"Point","coordinates":[-4.7839688,37.8949339]}},{"type":"Feature","properties":{"cat":"transporte"},"geometry":{"type":"Point","coordinates":[-4.7625108,37.8937423]}},{"type":"Feature","properties":{"cat":"transporte"},"geometry":{"type":"Point","coordinates":[-4.7598247,37.8983529]}},{"type":"Feature","properties":{"cat":"transporte"},"geometry":{"type":"Point","coordinates":[-4.7569062,37.8984418]}},{"type":"Feature","properties":{"cat":"transporte"},"geometry":{"type":"Point","coordinates":[-4.7736857,37.8968723]}},{"type":"Feature","properties":{"cat":"transporte"},"geometry":{"type":"Point","coordinates":[-4.8068206,37.8919493]}},{"type":"Feature","properties":{"cat":"transporte"},"geometry":{"type":"Point","coordinates":[-4.8027142,37.8925766]}},{"type":"Feature","properties":{"cat":"transporte"},"geometry":{"type":"Point","coordinates":[-4.8058118,37.8951793]}},{"type":"Feature","properties":{"cat":"transporte"},"geometry":{"type":"Point","coordinates":[-4.8020128,37.8903099]}},{"type":"Feature","properties":{"cat":"transporte"},"geometry":{"type":"Point","coordinates":[-4.8065577,37.8901204]}},{"type":"Feature","properties":{"cat":"transporte"},"geometry":{"type":"Point","coordinates":[-4.7989125,37.8916531]}},{"type":"Feature","properties":{"cat":"transporte"},"geometry":{"type":"Point","coordinates":[-4.8019226,37.8911578]}},{"type":"Feature","properties":{"cat":"transporte"},"geometry":{"type":"Point","coordinates":[-4.8063157,37.8922562]}},{"type":"Feature","properties":{"cat":"transporte"},"geometry":{"type":"Point","coordinates":[-4.8078038,37.8952119]}},{"type":"Feature","properties":{"cat":"transporte"},"geometry":{"type":"Point","coordinates":[-4.7996243,37.8929219]}},{"type":"Feature","properties":{"cat":"transporte"},"geometry":{"type":"Point","coordinates":[-4.8024246,37.894242]}},{"type":"Feature","properties":{"cat":"transporte"},"geometry":{"type":"Point","coordinates":[-4.8024807,37.8940553]}},{"type":"Feature","properties":{"cat":"transporte"},"geometry":{"type":"Point","coordinates":[-4.8057742,37.8868432]}},{"type":"Feature","properties":{"cat":"transporte"},"geometry":{"type":"Point","coordinates":[-4.7995309,37.8861353]}},{"type":"Feature","properties":{"cat":"transporte"},"geometry":{"type":"Point","coordinates":[-4.8030279,37.8868986]}},{"type":"Feature","properties":{"cat":"transporte"},"geometry":{"type":"Point","coordinates":[-4.801885,37.8869015]}},{"type":"Feature","properties":{"cat":"transporte"},"geometry":{"type":"Point","coordinates":[-4.7993721,37.8861535]}},{"type":"Feature","properties":{"cat":"transporte"},"geometry":{"type":"Point","coordinates":[-4.8256264,37.861507]}},{"type":"Feature","properties":{"cat":"transporte"},"geometry":{"type":"Point","coordinates":[-4.7654925,37.892496]}},{"type":"Feature","properties":{"cat":"transporte"},"geometry":{"type":"Point","coordinates":[-4.7672598,37.8942297]}},{"type":"Feature","properties":{"cat":"transporte"},"geometry":{"type":"Point","coordinates":[-4.7650419,37.8925994]}},{"type":"Feature","properties":{"cat":"transporte"},"geometry":{"type":"Point","coordinates":[-4.768608,37.894283]}},{"type":"Feature","properties":{"cat":"transporte"},"geometry":{"type":"Point","coordinates":[-4.7755319,37.8682742]}},{"type":"Feature","properties":{"cat":"transporte"},"geometry":{"type":"Point","coordinates":[-4.7755922,37.8681044]}},{"type":"Feature","properties":{"cat":"transporte"},"geometry":{"type":"Point","coordinates":[-4.7671279,37.8813767]}},{"type":"Feature","properties":{"cat":"transporte"},"geometry":{"type":"Point","coordinates":[-4.819672,37.880737]}},{"type":"Feature","properties":{"cat":"transporte"},"geometry":{"type":"Point","coordinates":[-4.7948127,37.8923679]}},{"type":"Feature","properties":{"cat":"transporte"},"geometry":{"type":"Point","coordinates":[-4.7674805,37.8805051]}},{"type":"Feature","properties":{"cat":"transporte"},"geometry":{"type":"Point","coordinates":[-4.774329,37.8801518]}},{"type":"Feature","properties":{"cat":"transporte"},"geometry":{"type":"Point","coordinates":[-4.793625,37.901501]}},{"type":"Feature","properties":{"cat":"transporte"},"geometry":{"type":"Point","coordinates":[-4.8096714,37.8815179]}},{"type":"Feature","properties":{"cat":"transporte"},"geometry":{"type":"Point","coordinates":[-4.7550203,37.8954447]}},{"type":"Feature","properties":{"cat":"transporte"},"geometry":{"type":"Point","coordinates":[-4.795103,37.888805]}},{"type":"Feature","properties":{"cat":"transporte"},"geometry":{"type":"Point","coordinates":[-4.796664,37.88871]}},{"type":"Feature","properties":{"cat":"transporte"},"geometry":{"type":"Point","coordinates":[-4.782207,37.858601]}},{"type":"Feature","properties":{"cat":"transporte"},"geometry":{"type":"Point","coordinates":[-4.7862058,37.8937279]}},{"type":"Feature","properties":{"cat":"transporte"},"geometry":{"type":"Point","coordinates":[-4.787773,37.893055]}},{"type":"Feature","properties":{"cat":"transporte"},"geometry":{"type":"Point","coordinates":[-4.794674,37.883263]}},{"type":"Feature","properties":{"cat":"transporte"},"geometry":{"type":"Point","coordinates":[-4.792641,37.869568]}},{"type":"Feature","properties":{"cat":"transporte"},"geometry":{"type":"Point","coordinates":[-4.7937025,37.8688362]}},{"type":"Feature","properties":{"cat":"transporte"},"geometry":{"type":"Point","coordinates":[-4.8059481,37.887689]}},{"type":"Feature","properties":{"cat":"transporte"},"geometry":{"type":"Point","coordinates":[-4.7622697,37.8908438]}},{"type":"Feature","properties":{"cat":"transporte"},"geometry":{"type":"Point","coordinates":[-4.793593,37.869221]}},{"type":"Feature","properties":{"cat":"transporte"},"geometry":{"type":"Point","coordinates":[-4.7787006,37.8636806]}},{"type":"Feature","properties":{"cat":"transporte"},"geometry":{"type":"Point","coordinates":[-4.7769204,37.8632906]}},{"type":"Feature","properties":{"cat":"transporte"},"geometry":{"type":"Point","coordinates":[-4.789018,37.88504]}},{"type":"Feature","properties":{"cat":"transporte"},"geometry":{"type":"Point","coordinates":[-4.7897819,37.8917937]}},{"type":"Feature","properties":{"cat":"transporte"},"geometry":{"type":"Point","coordinates":[-4.7899869,37.8916024]}},{"type":"Feature","properties":{"cat":"transporte"},"geometry":{"type":"Point","coordinates":[-4.783223,37.895683]}},{"type":"Feature","properties":{"cat":"transporte"},"geometry":{"type":"Point","coordinates":[-4.7585958,37.8996504]}},{"type":"Feature","properties":{"cat":"transporte"},"geometry":{"type":"Point","coordinates":[-4.794567,37.90448]}},{"type":"Feature","properties":{"cat":"transporte"},"geometry":{"type":"Point","coordinates":[-4.794733,37.904366]}},{"type":"Feature","properties":{"cat":"transporte"},"geometry":{"type":"Point","coordinates":[-4.7585386,37.8901175]}},{"type":"Feature","properties":{"cat":"transporte"},"geometry":{"type":"Point","coordinates":[-4.763273,37.879086]}},{"type":"Feature","properties":{"cat":"transporte"},"geometry":{"type":"Point","coordinates":[-4.7790177,37.8776958]}},{"type":"Feature","properties":{"cat":"transporte"},"geometry":{"type":"Point","coordinates":[-4.762404,37.89407]}},{"type":"Feature","properties":{"cat":"transporte"},"geometry":{"type":"Point","coordinates":[-4.775733,37.885677]}},{"type":"Feature","properties":{"cat":"transporte"},"geometry":{"type":"Point","coordinates":[-4.779814,37.896832]}},{"type":"Feature","properties":{"cat":"transporte"},"geometry":{"type":"Point","coordinates":[-4.756757,37.8870881]}},{"type":"Feature","properties":{"cat":"transporte"},"geometry":{"type":"Point","coordinates":[-4.7564422,37.8872453]}},{"type":"Feature","properties":{"cat":"transporte"},"geometry":{"type":"Point","coordinates":[-4.7858507,37.8786434]}},{"type":"Feature","properties":{"cat":"transporte"},"geometry":{"type":"Point","coordinates":[-4.786267,37.8783612]}},{"type":"Feature","properties":{"cat":"transporte"},"geometry":{"type":"Point","coordinates":[-4.7798999,37.8994231]}},{"type":"Feature","properties":{"cat":"transporte"},"geometry":{"type":"Point","coordinates":[-4.7570554,37.8856675]}},{"type":"Feature","properties":{"cat":"transporte"},"geometry":{"type":"Point","coordinates":[-4.760123,37.885612]}},{"type":"Feature","properties":{"cat":"transporte"},"geometry":{"type":"Point","coordinates":[-4.7569731,37.8855587]}},{"type":"Feature","properties":{"cat":"transporte"},"geometry":{"type":"Point","coordinates":[-4.761959,37.898491]}},{"type":"Feature","properties":{"cat":"transporte"},"geometry":{"type":"Point","coordinates":[-4.758188,37.8827252]}},{"type":"Feature","properties":{"cat":"transporte"},"geometry":{"type":"Point","coordinates":[-4.795795,37.874439]}},{"type":"Feature","properties":{"cat":"transporte"},"geometry":{"type":"Point","coordinates":[-4.795524,37.874195]}},{"type":"Feature","properties":{"cat":"transporte"},"geometry":{"type":"Point","coordinates":[-4.7536558,37.884566]}},{"type":"Feature","properties":{"cat":"transporte"},"geometry":{"type":"Point","coordinates":[-4.791565,37.8774797]}},{"type":"Feature","properties":{"cat":"transporte"},"geometry":{"type":"Point","coordinates":[-4.749929,37.889908]}},{"type":"Feature","properties":{"cat":"transporte"},"geometry":{"type":"Point","coordinates":[-4.7622006,37.8818677]}},{"type":"Feature","properties":{"cat":"transporte"},"geometry":{"type":"Point","coordinates":[-4.7603956,37.8946902]}},{"type":"Feature","properties":{"cat":"transporte"},"geometry":{"type":"Point","coordinates":[-4.7906518,37.8885797]}},{"type":"Feature","properties":{"cat":"transporte"},"geometry":{"type":"Point","coordinates":[-4.8108799,37.8849731]}},{"type":"Feature","properties":{"cat":"transporte"},"geometry":{"type":"Point","coordinates":[-4.8106178,37.8854387]}},{"type":"Feature","properties":{"cat":"transporte"},"geometry":{"type":"Point","coordinates":[-4.8145353,37.8847768]}},{"type":"Feature","properties":{"cat":"transporte"},"geometry":{"type":"Point","coordinates":[-4.8141675,37.88468]}},{"type":"Feature","properties":{"cat":"transporte"},"geometry":{"type":"Point","coordinates":[-4.8126649,37.8860376]}},{"type":"Feature","properties":{"cat":"transporte"},"geometry":{"type":"Point","coordinates":[-4.81018,37.8833817]}},{"type":"Feature","properties":{"cat":"transporte"},"geometry":{"type":"Point","coordinates":[-4.8108018,37.8855413]}},{"type":"Feature","properties":{"cat":"transporte"},"geometry":{"type":"Point","coordinates":[-4.7790238,37.8908863]}},{"type":"Feature","properties":{"cat":"transporte"},"geometry":{"type":"Point","coordinates":[-4.7786872,37.8909868]}},{"type":"Feature","properties":{"cat":"transporte"},"geometry":{"type":"Point","coordinates":[-4.7793322,37.8908059]}},{"type":"Feature","properties":{"cat":"transporte"},"geometry":{"type":"Point","coordinates":[-4.7775763,37.8903732]}},{"type":"Feature","properties":{"cat":"transporte"},"geometry":{"type":"Point","coordinates":[-4.7570319,37.8997902]}},{"type":"Feature","properties":{"cat":"transporte"},"geometry":{"type":"Point","coordinates":[-4.7652696,37.8913176]}},{"type":"Feature","properties":{"cat":"transporte"},"geometry":{"type":"Point","coordinates":[-4.7656912,37.890859]}},{"type":"Feature","properties":{"cat":"transporte"},"geometry":{"type":"Point","coordinates":[-4.7629656,37.8974275]}},{"type":"Feature","properties":{"cat":"transporte"},"geometry":{"type":"Point","coordinates":[-4.7805279,37.8887427]}},{"type":"Feature","properties":{"cat":"transporte"},"geometry":{"type":"Point","coordinates":[-4.7832156,37.8873082]}},{"type":"Feature","properties":{"cat":"transporte"},"geometry":{"type":"Point","coordinates":[-4.7579555,37.8951353]}},{"type":"Feature","properties":{"cat":"transporte"},"geometry":{"type":"Point","coordinates":[-4.7565757,37.8978798]}},{"type":"Feature","properties":{"cat":"transporte"},"geometry":{"type":"Point","coordinates":[-4.7686018,37.8885337]}},{"type":"Feature","properties":{"cat":"transporte"},"geometry":{"type":"Point","coordinates":[-4.766986,37.8848746]}},{"type":"Feature","properties":{"cat":"transporte"},"geometry":{"type":"Point","coordinates":[-4.7811427,37.876233]}},{"type":"Feature","properties":{"cat":"transporte"},"geometry":{"type":"Point","coordinates":[-4.7822962,37.8776696]}},{"type":"Feature","properties":{"cat":"transporte"},"geometry":{"type":"Point","coordinates":[-4.7525026,37.8929067]}},{"type":"Feature","properties":{"cat":"transporte"},"geometry":{"type":"Point","coordinates":[-4.7774413,37.8745564]}},{"type":"Feature","properties":{"cat":"transporte"},"geometry":{"type":"Point","coordinates":[-4.8109899,37.8953956]}},{"type":"Feature","properties":{"cat":"transporte"},"geometry":{"type":"Point","coordinates":[-4.8113439,37.8927462]}},{"type":"Feature","properties":{"cat":"transporte"},"geometry":{"type":"Point","coordinates":[-4.7989422,37.8679015]}},{"type":"Feature","properties":{"cat":"transporte"},"geometry":{"type":"Point","coordinates":[-4.8005934,37.8755497]}},{"type":"Feature","properties":{"cat":"transporte"},"geometry":{"type":"Point","coordinates":[-4.8211372,37.8809958]}},{"type":"Feature","properties":{"cat":"transporte"},"geometry":{"type":"Point","coordinates":[-4.8184444,37.8744321]}},{"type":"Feature","properties":{"cat":"transporte"},"geometry":{"type":"Point","coordinates":[-4.7871897,37.8579364]}},{"type":"Feature","properties":{"cat":"transporte"},"geometry":{"type":"Point","coordinates":[-4.7790222,37.8663979]}},{"type":"Feature","properties":{"cat":"transporte"},"geometry":{"type":"Point","coordinates":[-4.7847108,37.8842603]}},{"type":"Feature","properties":{"cat":"transporte"},"geometry":{"type":"Point","coordinates":[-4.786347,37.8835712]}},{"type":"Feature","properties":{"cat":"transporte"},"geometry":{"type":"Point","coordinates":[-4.76296,37.8862367]}},{"type":"Feature","properties":{"cat":"transporte"},"geometry":{"type":"Point","coordinates":[-4.8161052,37.8819456]}},{"type":"Feature","properties":{"cat":"transporte"},"geometry":{"type":"Point","coordinates":[-4.7847065,37.8843642]}},{"type":"Feature","properties":{"cat":"transporte"},"geometry":{"type":"Point","coordinates":[-4.784517,37.8871353]}},{"type":"Feature","properties":{"cat":"transporte"},"geometry":{"type":"Point","coordinates":[-4.7874277,37.8893388]}},{"type":"Feature","properties":{"cat":"transporte"},"geometry":{"type":"Point","coordinates":[-4.7895963,37.8891851]}},{"type":"Feature","properties":{"cat":"transporte"},"geometry":{"type":"Point","coordinates":[-4.7851673,37.8806625]}},{"type":"Feature","properties":{"cat":"transporte"},"geometry":{"type":"Point","coordinates":[-4.7852179,37.8806161]}},{"type":"Feature","properties":{"cat":"transporte"},"geometry":{"type":"Point","coordinates":[-4.7760746,37.8812358]}},{"type":"Feature","properties":{"cat":"transporte"},"geometry":{"type":"Point","coordinates":[-4.7762982,37.8842797]}},{"type":"Feature","properties":{"cat":"transporte"},"geometry":{"type":"Point","coordinates":[-4.7784184,37.8844654]}},{"type":"Feature","properties":{"cat":"transporte"},"geometry":{"type":"Point","coordinates":[-4.7627212,37.8805068]}},{"type":"Feature","properties":{"cat":"transporte"},"geometry":{"type":"Point","coordinates":[-4.7619574,37.8812072]}},{"type":"Feature","properties":{"cat":"transporte"},"geometry":{"type":"Point","coordinates":[-4.7977839,37.8791586]}},{"type":"Feature","properties":{"cat":"transporte"},"geometry":{"type":"Point","coordinates":[-4.7977625,37.8794328]}},{"type":"Feature","properties":{"cat":"transporte"},"geometry":{"type":"Point","coordinates":[-4.789516,37.8885103]}},{"type":"Feature","properties":{"cat":"transporte"},"geometry":{"type":"Point","coordinates":[-4.7605408,37.8986877]}},{"type":"Feature","properties":{"cat":"transporte"},"geometry":{"type":"Point","coordinates":[-4.7639063,37.8986322]}},{"type":"Feature","properties":{"cat":"transporte"},"geometry":{"type":"Point","coordinates":[-4.7666234,37.8965262]}},{"type":"Feature","properties":{"cat":"transporte"},"geometry":{"type":"Point","coordinates":[-4.764253,37.8891453]}},{"type":"Feature","properties":{"cat":"transporte"},"geometry":{"type":"Point","coordinates":[-4.7636776,37.8943535]}},{"type":"Feature","properties":{"cat":"transporte"},"geometry":{"type":"Point","coordinates":[-4.7634,37.8963468]}},{"type":"Feature","properties":{"cat":"transporte"},"geometry":{"type":"Point","coordinates":[-4.7539117,37.9004776]}},{"type":"Feature","properties":{"cat":"transporte"},"geometry":{"type":"Point","coordinates":[-4.7757575,37.8914731]}},{"type":"Feature","properties":{"cat":"transporte"},"geometry":{"type":"Point","coordinates":[-4.7732317,37.8867438]}},{"type":"Feature","properties":{"cat":"transporte"},"geometry":{"type":"Point","coordinates":[-4.7751394,37.8897507]}},{"type":"Feature","properties":{"cat":"transporte"},"geometry":{"type":"Point","coordinates":[-4.774318,37.888667]}},{"type":"Feature","properties":{"cat":"transporte"},"geometry":{"type":"Point","coordinates":[-4.7681177,37.8903512]}},{"type":"Feature","properties":{"cat":"transporte"},"geometry":{"type":"Point","coordinates":[-4.7689314,37.8887876]}},{"type":"Feature","properties":{"cat":"transporte"},"geometry":{"type":"Point","coordinates":[-4.7724884,37.886384]}},{"type":"Feature","properties":{"cat":"transporte"},"geometry":{"type":"Point","coordinates":[-4.7703959,37.8875566]}},{"type":"Feature","properties":{"cat":"transporte"},"geometry":{"type":"Point","coordinates":[-4.769323,37.888052]}},{"type":"Feature","properties":{"cat":"transporte"},"geometry":{"type":"Point","coordinates":[-4.7685728,37.886823]}},{"type":"Feature","properties":{"cat":"transporte"},"geometry":{"type":"Point","coordinates":[-4.7686216,37.8859629]}},{"type":"Feature","properties":{"cat":"transporte"},"geometry":{"type":"Point","coordinates":[-4.767829,37.8850619]}},{"type":"Feature","properties":{"cat":"transporte"},"geometry":{"type":"Point","coordinates":[-4.7692426,37.8838409]}},{"type":"Feature","properties":{"cat":"transporte"},"geometry":{"type":"Point","coordinates":[-4.7704415,37.8831333]}},{"type":"Feature","properties":{"cat":"transporte"},"geometry":{"type":"Point","coordinates":[-4.7715077,37.8823596]}},{"type":"Feature","properties":{"cat":"transporte"},"geometry":{"type":"Point","coordinates":[-4.7732236,37.8831201]}},{"type":"Feature","properties":{"cat":"transporte"},"geometry":{"type":"Point","coordinates":[-4.7744065,37.8833323]}},{"type":"Feature","properties":{"cat":"transporte"},"geometry":{"type":"Point","coordinates":[-4.775364,37.8841034]}},{"type":"Feature","properties":{"cat":"transporte"},"geometry":{"type":"Point","coordinates":[-4.7763095,37.8858769]}},{"type":"Feature","properties":{"cat":"transporte"},"geometry":{"type":"Point","coordinates":[-4.7762874,37.8875169]}},{"type":"Feature","properties":{"cat":"transporte"},"geometry":{"type":"Point","coordinates":[-4.7746338,37.8919384]}},{"type":"Feature","properties":{"cat":"transporte"},"geometry":{"type":"Point","coordinates":[-4.7599635,37.89068]}},{"type":"Feature","properties":{"cat":"transporte"},"geometry":{"type":"Point","coordinates":[-4.7582019,37.8909815]}},{"type":"Feature","properties":{"cat":"transporte"},"geometry":{"type":"Point","coordinates":[-4.7551678,37.89243]}},{"type":"Feature","properties":{"cat":"transporte"},"geometry":{"type":"Point","coordinates":[-4.7534189,37.893165]}},{"type":"Feature","properties":{"cat":"transporte"},"geometry":{"type":"Point","coordinates":[-4.7507635,37.8942789]}},{"type":"Feature","properties":{"cat":"transporte"},"geometry":{"type":"Point","coordinates":[-4.7413221,37.8978089]}},{"type":"Feature","properties":{"cat":"transporte"},"geometry":{"type":"Point","coordinates":[-4.7496557,37.8943821]}},{"type":"Feature","properties":{"cat":"transporte"},"geometry":{"type":"Point","coordinates":[-4.7569178,37.8913055]}},{"type":"Feature","properties":{"cat":"transporte"},"geometry":{"type":"Point","coordinates":[-4.762647,37.8876212]}},{"type":"Feature","properties":{"cat":"transporte"},"geometry":{"type":"Point","coordinates":[-4.7644689,37.8889511]}},{"type":"Feature","properties":{"cat":"transporte"},"geometry":{"type":"Point","coordinates":[-4.7654143,37.8911552]}},{"type":"Feature","properties":{"cat":"transporte"},"geometry":{"type":"Point","coordinates":[-4.7709927,37.8929893]}},{"type":"Feature","properties":{"cat":"transporte"},"geometry":{"type":"Point","coordinates":[-4.7723646,37.8922802]}},{"type":"Feature","properties":{"cat":"transporte"},"geometry":{"type":"Point","coordinates":[-4.7762793,37.8917807]}},{"type":"Feature","properties":{"cat":"transporte"},"geometry":{"type":"Point","coordinates":[-4.782779,37.8885152]}},{"type":"Feature","properties":{"cat":"transporte"},"geometry":{"type":"Point","coordinates":[-4.7806406,37.8885579]}},{"type":"Feature","properties":{"cat":"transporte"},"geometry":{"type":"Point","coordinates":[-4.7798329,37.8907115]}},{"type":"Feature","properties":{"cat":"transporte"},"geometry":{"type":"Point","coordinates":[-4.7818261,37.8935883]}},{"type":"Feature","properties":{"cat":"transporte"},"geometry":{"type":"Point","coordinates":[-4.7861499,37.8980417]}},{"type":"Feature","properties":{"cat":"transporte"},"geometry":{"type":"Point","coordinates":[-4.7879872,37.9007127]}},{"type":"Feature","properties":{"cat":"transporte"},"geometry":{"type":"Point","coordinates":[-4.7897775,37.9030715]}},{"type":"Feature","properties":{"cat":"transporte"},"geometry":{"type":"Point","coordinates":[-4.7896099,37.9032694]}},{"type":"Feature","properties":{"cat":"transporte"},"geometry":{"type":"Point","coordinates":[-4.788309,37.9014746]}},{"type":"Feature","properties":{"cat":"transporte"},"geometry":{"type":"Point","coordinates":[-4.7860238,37.898084]}},{"type":"Feature","properties":{"cat":"transporte"},"geometry":{"type":"Point","coordinates":[-4.784106,37.8952785]}},{"type":"Feature","properties":{"cat":"transporte"},"geometry":{"type":"Point","coordinates":[-4.7815968,37.893673]}},{"type":"Feature","properties":{"cat":"transporte"},"geometry":{"type":"Point","coordinates":[-4.7793786,37.8899423]}},{"type":"Feature","properties":{"cat":"transporte"},"geometry":{"type":"Point","coordinates":[-4.7848195,37.8896343]}},{"type":"Feature","properties":{"cat":"transporte"},"geometry":{"type":"Point","coordinates":[-4.7880043,37.8907697]}},{"type":"Feature","properties":{"cat":"transporte"},"geometry":{"type":"Point","coordinates":[-4.7881119,37.8945451]}},{"type":"Feature","properties":{"cat":"transporte"},"geometry":{"type":"Point","coordinates":[-4.7939605,37.901426]}},{"type":"Feature","properties":{"cat":"transporte"},"geometry":{"type":"Point","coordinates":[-4.799412,37.9000704]}},{"type":"Feature","properties":{"cat":"transporte"},"geometry":{"type":"Point","coordinates":[-4.7990111,37.9036926]}},{"type":"Feature","properties":{"cat":"transporte"},"geometry":{"type":"Point","coordinates":[-4.7987026,37.9044461]}},{"type":"Feature","properties":{"cat":"transporte"},"geometry":{"type":"Point","coordinates":[-4.8035654,37.903809]}},{"type":"Feature","properties":{"cat":"transporte"},"geometry":{"type":"Point","coordinates":[-4.8055369,37.9030969]}},{"type":"Feature","properties":{"cat":"transporte"},"geometry":{"type":"Point","coordinates":[-4.8055422,37.902972]}},{"type":"Feature","properties":{"cat":"transporte"},"geometry":{"type":"Point","coordinates":[-4.8071033,37.9016027]}},{"type":"Feature","properties":{"cat":"transporte"},"geometry":{"type":"Point","coordinates":[-4.806941,37.9016651]}},{"type":"Feature","properties":{"cat":"transporte"},"geometry":{"type":"Point","coordinates":[-4.8042937,37.9008423]}},{"type":"Feature","properties":{"cat":"transporte"},"geometry":{"type":"Point","coordinates":[-4.8043279,37.9009191]}},{"type":"Feature","properties":{"cat":"transporte"},"geometry":{"type":"Point","coordinates":[-4.8001121,37.8999582]}},{"type":"Feature","properties":{"cat":"transporte"},"geometry":{"type":"Point","coordinates":[-4.796699,37.9008672]}},{"type":"Feature","properties":{"cat":"transporte"},"geometry":{"type":"Point","coordinates":[-4.7967821,37.900954]}},{"type":"Feature","properties":{"cat":"transporte"},"geometry":{"type":"Point","coordinates":[-4.7908477,37.8994312]}},{"type":"Feature","properties":{"cat":"transporte"},"geometry":{"type":"Point","coordinates":[-4.7907136,37.8998143]}},{"type":"Feature","properties":{"cat":"transporte"},"geometry":{"type":"Point","coordinates":[-4.7905815,37.8971913]}},{"type":"Feature","properties":{"cat":"transporte"},"geometry":{"type":"Point","coordinates":[-4.7904662,37.8972337]}},{"type":"Feature","properties":{"cat":"transporte"},"geometry":{"type":"Point","coordinates":[-4.787609,37.8961516]}},{"type":"Feature","properties":{"cat":"transporte"},"geometry":{"type":"Point","coordinates":[-4.7876224,37.8962437]}},{"type":"Feature","properties":{"cat":"transporte"},"geometry":{"type":"Point","coordinates":[-4.787558,37.8954182]}},{"type":"Feature","properties":{"cat":"transporte"},"geometry":{"type":"Point","coordinates":[-4.783726,37.887058]}},{"type":"Feature","properties":{"cat":"transporte"},"geometry":{"type":"Point","coordinates":[-4.778354,37.8910811]}},{"type":"Feature","properties":{"cat":"transporte"},"geometry":{"type":"Point","coordinates":[-4.7782695,37.8697967]}},{"type":"Feature","properties":{"cat":"transporte"},"geometry":{"type":"Point","coordinates":[-4.7734416,37.8638473]}},{"type":"Feature","properties":{"cat":"transporte"},"geometry":{"type":"Point","coordinates":[-4.7766978,37.8630786]}},{"type":"Feature","properties":{"cat":"transporte"},"geometry":{"type":"Point","coordinates":[-4.7786095,37.8611744]}},{"type":"Feature","properties":{"cat":"transporte"},"geometry":{"type":"Point","coordinates":[-4.7805494,37.8613867]}},{"type":"Feature","properties":{"cat":"transporte"},"geometry":{"type":"Point","coordinates":[-4.7796777,37.8574563]}},{"type":"Feature","properties":{"cat":"transporte"},"geometry":{"type":"Point","coordinates":[-4.7774716,37.8581128]}},{"type":"Feature","properties":{"cat":"transporte"},"geometry":{"type":"Point","coordinates":[-4.7758783,37.8602622]}},{"type":"Feature","properties":{"cat":"transporte"},"geometry":{"type":"Point","coordinates":[-4.7734416,37.8631041]}},{"type":"Feature","properties":{"cat":"transporte"},"geometry":{"type":"Point","coordinates":[-4.777835,37.8692849]}},{"type":"Feature","properties":{"cat":"transporte"},"geometry":{"type":"Point","coordinates":[-4.7864322,37.8749042]}},{"type":"Feature","properties":{"cat":"transporte"},"geometry":{"type":"Point","coordinates":[-4.7864637,37.8806533]}},{"type":"Feature","properties":{"cat":"transporte"},"geometry":{"type":"Point","coordinates":[-4.7863316,37.8837112]}},{"type":"Feature","properties":{"cat":"transporte"},"geometry":{"type":"Point","coordinates":[-4.7835964,37.8871248]}},{"type":"Feature","properties":{"cat":"transporte"},"geometry":{"type":"Point","coordinates":[-4.7804488,37.8887876]}},{"type":"Feature","properties":{"cat":"transporte"},"geometry":{"type":"Point","coordinates":[-4.7584989,37.8963442]}},{"type":"Feature","properties":{"cat":"transporte"},"geometry":{"type":"Point","coordinates":[-4.7626202,37.8965273]}},{"type":"Feature","properties":{"cat":"transporte"},"geometry":{"type":"Point","coordinates":[-4.7804421,37.8886468]}},{"type":"Feature","properties":{"cat":"transporte"},"geometry":{"type":"Point","coordinates":[-4.7846197,37.8857075]}},{"type":"Feature","properties":{"cat":"transporte"},"geometry":{"type":"Point","coordinates":[-4.7847289,37.8841213]}},{"type":"Feature","properties":{"cat":"transporte"},"geometry":{"type":"Point","coordinates":[-4.7860788,37.8761395]}},{"type":"Feature","properties":{"cat":"transporte"},"geometry":{"type":"Point","coordinates":[-4.7870766,37.8733756]}},{"type":"Feature","properties":{"cat":"transporte"},"geometry":{"type":"Point","coordinates":[-4.7904763,37.8704304]}},{"type":"Feature","properties":{"cat":"transporte"},"geometry":{"type":"Point","coordinates":[-4.7952828,37.8672962]}},{"type":"Feature","properties":{"cat":"transporte"},"geometry":{"type":"Point","coordinates":[-4.7972354,37.866536]}},{"type":"Feature","properties":{"cat":"transporte"},"geometry":{"type":"Point","coordinates":[-4.7955993,37.8668923]}},{"type":"Feature","properties":{"cat":"transporte"},"geometry":{"type":"Point","coordinates":[-4.791057,37.8706019]}},{"type":"Feature","properties":{"cat":"transporte"},"geometry":{"type":"Point","coordinates":[-4.7927588,37.8724164]}},{"type":"Feature","properties":{"cat":"transporte"},"geometry":{"type":"Point","coordinates":[-4.7906613,37.8759692]}},{"type":"Feature","properties":{"cat":"transporte"},"geometry":{"type":"Point","coordinates":[-4.7868432,37.8754981]}},{"type":"Feature","properties":{"cat":"transporte"},"geometry":{"type":"Point","coordinates":[-4.7982091,37.8855488]}},{"type":"Feature","properties":{"cat":"transporte"},"geometry":{"type":"Point","coordinates":[-4.7967473,37.8859235]}},{"type":"Feature","properties":{"cat":"transporte"},"geometry":{"type":"Point","coordinates":[-4.7943695,37.8868655]}},{"type":"Feature","properties":{"cat":"transporte"},"geometry":{"type":"Point","coordinates":[-4.7944365,37.8869734]}},{"type":"Feature","properties":{"cat":"transporte"},"geometry":{"type":"Point","coordinates":[-4.7837935,37.8870232]}},{"type":"Feature","properties":{"cat":"transporte"},"geometry":{"type":"Point","coordinates":[-4.7785203,37.8910356]}},{"type":"Feature","properties":{"cat":"transporte"},"geometry":{"type":"Point","coordinates":[-4.7893618,37.9033191]}},{"type":"Feature","properties":{"cat":"transporte"},"geometry":{"type":"Point","coordinates":[-4.7969645,37.8757701]}},{"type":"Feature","properties":{"cat":"transporte"},"geometry":{"type":"Point","coordinates":[-4.7925308,37.8775729]}},{"type":"Feature","properties":{"cat":"transporte"},"geometry":{"type":"Point","coordinates":[-4.7882245,37.8792486]}},{"type":"Feature","properties":{"cat":"transporte"},"geometry":{"type":"Point","coordinates":[-4.7899117,37.8889103]}},{"type":"Feature","properties":{"cat":"transporte"},"geometry":{"type":"Point","coordinates":[-4.7924195,37.8919648]}},{"type":"Feature","properties":{"cat":"transporte"},"geometry":{"type":"Point","coordinates":[-4.7981574,37.893128]}},{"type":"Feature","properties":{"cat":"transporte"},"geometry":{"type":"Point","coordinates":[-4.7958729,37.8944689]}},{"type":"Feature","properties":{"cat":"transporte"},"geometry":{"type":"Point","coordinates":[-4.7961303,37.8964563]}},{"type":"Feature","properties":{"cat":"transporte"},"geometry":{"type":"Point","coordinates":[-4.7915143,37.8976184]}},{"type":"Feature","properties":{"cat":"transporte"},"geometry":{"type":"Point","coordinates":[-4.7862652,37.8976401]}},{"type":"Feature","properties":{"cat":"transporte"},"geometry":{"type":"Point","coordinates":[-4.7835803,37.8970247]}},{"type":"Feature","properties":{"cat":"transporte"},"geometry":{"type":"Point","coordinates":[-4.7804515,37.8976152]}},{"type":"Feature","properties":{"cat":"transporte"},"geometry":{"type":"Point","coordinates":[-4.7778994,37.8973369]}},{"type":"Feature","properties":{"cat":"transporte"},"geometry":{"type":"Point","coordinates":[-4.7814265,37.8995613]}},{"type":"Feature","properties":{"cat":"transporte"},"geometry":{"type":"Point","coordinates":[-4.784676,37.8979856]}},{"type":"Feature","properties":{"cat":"transporte"},"geometry":{"type":"Point","coordinates":[-4.7862813,37.897557]}},{"type":"Feature","properties":{"cat":"transporte"},"geometry":{"type":"Point","coordinates":[-4.7939149,37.8962807]}},{"type":"Feature","properties":{"cat":"transporte"},"geometry":{"type":"Point","coordinates":[-4.7977209,37.8953409]}},{"type":"Feature","properties":{"cat":"transporte"},"geometry":{"type":"Point","coordinates":[-4.7991452,37.8943842]}},{"type":"Feature","properties":{"cat":"transporte"},"geometry":{"type":"Point","coordinates":[-4.797855,37.8932941]}},{"type":"Feature","properties":{"cat":"transporte"},"geometry":{"type":"Point","coordinates":[-4.7954451,37.8927755]}},{"type":"Feature","properties":{"cat":"transporte"},"geometry":{"type":"Point","coordinates":[-4.7921795,37.8920728]}},{"type":"Feature","properties":{"cat":"transporte"},"geometry":{"type":"Point","coordinates":[-4.787727,37.8792295]}},{"type":"Feature","properties":{"cat":"transporte"},"geometry":{"type":"Point","coordinates":[-4.7918013,37.8774946]}},{"type":"Feature","properties":{"cat":"transporte"},"geometry":{"type":"Point","coordinates":[-4.7955597,37.8760819]}},{"type":"Feature","properties":{"cat":"transporte"},"geometry":{"type":"Point","coordinates":[-4.7926126,37.8724853]}},{"type":"Feature","properties":{"cat":"transporte"},"geometry":{"type":"Point","coordinates":[-4.7934716,37.8709026]}},{"type":"Feature","properties":{"cat":"transporte"},"geometry":{"type":"Point","coordinates":[-4.7778295,37.8998892]}},{"type":"Feature","properties":{"cat":"transporte"},"geometry":{"type":"Point","coordinates":[-4.773463,37.898829]}},{"type":"Feature","properties":{"cat":"transporte"},"geometry":{"type":"Point","coordinates":[-4.7754559,37.8946001]}},{"type":"Feature","properties":{"cat":"transporte"},"geometry":{"type":"Point","coordinates":[-4.7837231,37.886857]}},{"type":"Feature","properties":{"cat":"transporte"},"geometry":{"type":"Point","coordinates":[-4.7931156,37.8852736]}},{"type":"Feature","properties":{"cat":"transporte"},"geometry":{"type":"Point","coordinates":[-4.796353,37.8843495]}},{"type":"Feature","properties":{"cat":"transporte"},"geometry":{"type":"Point","coordinates":[-4.7981729,37.8828931]}},{"type":"Feature","properties":{"cat":"transporte"},"geometry":{"type":"Point","coordinates":[-4.8165742,37.8811963]}},{"type":"Feature","properties":{"cat":"transporte"},"geometry":{"type":"Point","coordinates":[-4.818924,37.8834744]}},{"type":"Feature","properties":{"cat":"transporte"},"geometry":{"type":"Point","coordinates":[-4.8166586,37.883615]}},{"type":"Feature","properties":{"cat":"transporte"},"geometry":{"type":"Point","coordinates":[-4.7998278,37.8818452]}},{"type":"Feature","properties":{"cat":"transporte"},"geometry":{"type":"Point","coordinates":[-4.7968304,37.884286]}},{"type":"Feature","properties":{"cat":"transporte"},"geometry":{"type":"Point","coordinates":[-4.792563,37.88539]}},{"type":"Feature","properties":{"cat":"transporte"},"geometry":{"type":"Point","coordinates":[-4.7866742,37.8850439]}},{"type":"Feature","properties":{"cat":"transporte"},"geometry":{"type":"Point","coordinates":[-4.7836465,37.887099]}},{"type":"Feature","properties":{"cat":"transporte"},"geometry":{"type":"Point","coordinates":[-4.776966,37.894816]}},{"type":"Feature","properties":{"cat":"transporte"},"geometry":{"type":"Point","coordinates":[-4.7738895,37.8967612]}},{"type":"Feature","properties":{"cat":"transporte"},"geometry":{"type":"Point","coordinates":[-4.7807412,37.899954]}},{"type":"Feature","properties":{"cat":"transporte"},"geometry":{"type":"Point","coordinates":[-4.779903,37.8889199]}},{"type":"Feature","properties":{"cat":"transporte"},"geometry":{"type":"Point","coordinates":[-4.8027527,37.8755605]}},{"type":"Feature","properties":{"cat":"transporte"},"geometry":{"type":"Point","coordinates":[-4.8009798,37.8730156]}},{"type":"Feature","properties":{"cat":"transporte"},"geometry":{"type":"Point","coordinates":[-4.7995938,37.8751831]}},{"type":"Feature","properties":{"cat":"transporte"},"geometry":{"type":"Point","coordinates":[-4.7958454,37.8781419]}},{"type":"Feature","properties":{"cat":"transporte"},"geometry":{"type":"Point","coordinates":[-4.7931236,37.8792227]}},{"type":"Feature","properties":{"cat":"transporte"},"geometry":{"type":"Point","coordinates":[-4.7939149,37.8806469]}},{"type":"Feature","properties":{"cat":"transporte"},"geometry":{"type":"Point","coordinates":[-4.7931317,37.8810402]}},{"type":"Feature","properties":{"cat":"transporte"},"geometry":{"type":"Point","coordinates":[-4.7907951,37.881534]}},{"type":"Feature","properties":{"cat":"transporte"},"geometry":{"type":"Point","coordinates":[-4.790718,37.881861]}},{"type":"Feature","properties":{"cat":"transporte"},"geometry":{"type":"Point","coordinates":[-4.7791936,37.8908472]}},{"type":"Feature","properties":{"cat":"transporte"},"geometry":{"type":"Point","coordinates":[-4.7631167,37.8862111]}},{"type":"Feature","properties":{"cat":"transporte"},"geometry":{"type":"Point","coordinates":[-4.760221,37.885698]}},{"type":"Feature","properties":{"cat":"transporte"},"geometry":{"type":"Point","coordinates":[-4.7550114,37.8887495]}},{"type":"Feature","properties":{"cat":"transporte"},"geometry":{"type":"Point","coordinates":[-4.7599514,37.8793439]}},{"type":"Feature","properties":{"cat":"transporte"},"geometry":{"type":"Point","coordinates":[-4.7611396,37.87781]}},{"type":"Feature","properties":{"cat":"transporte"},"geometry":{"type":"Point","coordinates":[-4.7652206,37.8757701]}},{"type":"Feature","properties":{"cat":"transporte"},"geometry":{"type":"Point","coordinates":[-4.7725088,37.8727769]}},{"type":"Feature","properties":{"cat":"transporte"},"geometry":{"type":"Point","coordinates":[-4.7711872,37.8688996]}},{"type":"Feature","properties":{"cat":"transporte"},"geometry":{"type":"Point","coordinates":[-4.7744662,37.8679123]}},{"type":"Feature","properties":{"cat":"transporte"},"geometry":{"type":"Point","coordinates":[-4.7765087,37.86605]}},{"type":"Feature","properties":{"cat":"transporte"},"geometry":{"type":"Point","coordinates":[-4.7830258,37.8610828]}},{"type":"Feature","properties":{"cat":"transporte"},"geometry":{"type":"Point","coordinates":[-4.7825329,37.8609748]}},{"type":"Feature","properties":{"cat":"transporte"},"geometry":{"type":"Point","coordinates":[-4.7793786,37.8632216]}},{"type":"Feature","properties":{"cat":"transporte"},"geometry":{"type":"Point","coordinates":[-4.7752929,37.8655556]}},{"type":"Feature","properties":{"cat":"transporte"},"geometry":{"type":"Point","coordinates":[-4.7785934,37.8708396]}},{"type":"Feature","properties":{"cat":"transporte"},"geometry":{"type":"Point","coordinates":[-4.777194,37.8728145]}},{"type":"Feature","properties":{"cat":"transporte"},"geometry":{"type":"Point","coordinates":[-4.7757811,37.8747687]}},{"type":"Feature","properties":{"cat":"transporte"},"geometry":{"type":"Point","coordinates":[-4.7733225,37.8746083]}},{"type":"Feature","properties":{"cat":"transporte"},"geometry":{"type":"Point","coordinates":[-4.7738184,37.8749296]}},{"type":"Feature","properties":{"cat":"transporte"},"geometry":{"type":"Point","coordinates":[-4.7661862,37.8742516]}},{"type":"Feature","properties":{"cat":"transporte"},"geometry":{"type":"Point","coordinates":[-4.7663525,37.8743574]}},{"type":"Feature","properties":{"cat":"transporte"},"geometry":{"type":"Point","coordinates":[-4.7658992,37.8770595]}},{"type":"Feature","properties":{"cat":"transporte"},"geometry":{"type":"Point","coordinates":[-4.7577982,37.8829354]}},{"type":"Feature","properties":{"cat":"transporte"},"geometry":{"type":"Point","coordinates":[-4.7564263,37.8850232]}},{"type":"Feature","properties":{"cat":"transporte"},"geometry":{"type":"Point","coordinates":[-4.7565899,37.8850852]}},{"type":"Feature","properties":{"cat":"transporte"},"geometry":{"type":"Point","coordinates":[-4.7525746,37.8873412]}},{"type":"Feature","properties":{"cat":"transporte"},"geometry":{"type":"Point","coordinates":[-4.7865669,37.8946615]}},{"type":"Feature","properties":{"cat":"transporte"},"geometry":{"type":"Point","coordinates":[-4.7793652,37.8683787]}},{"type":"Feature","properties":{"cat":"transporte"},"geometry":{"type":"Point","coordinates":[-4.7789776,37.86631]}},{"type":"Feature","properties":{"cat":"transporte"},"geometry":{"type":"Point","coordinates":[-4.776805,37.8658018]}},{"type":"Feature","properties":{"cat":"transporte"},"geometry":{"type":"Point","coordinates":[-4.7813313,37.862527]}},{"type":"Feature","properties":{"cat":"transporte"},"geometry":{"type":"Point","coordinates":[-4.7847471,37.8594544]}},{"type":"Feature","properties":{"cat":"transporte"},"geometry":{"type":"Point","coordinates":[-4.7847404,37.8592844]}},{"type":"Feature","properties":{"cat":"transporte"},"geometry":{"type":"Point","coordinates":[-4.7826469,37.8620569]}},{"type":"Feature","properties":{"cat":"transporte"},"geometry":{"type":"Point","coordinates":[-4.7823451,37.8626673]}},{"type":"Feature","properties":{"cat":"transporte"},"geometry":{"type":"Point","coordinates":[-4.7807144,37.8657001]}},{"type":"Feature","properties":{"cat":"transporte"},"geometry":{"type":"Point","coordinates":[-4.7773884,37.866022]}},{"type":"Feature","properties":{"cat":"transporte"},"geometry":{"type":"Point","coordinates":[-4.7789676,37.8690742]}},{"type":"Feature","properties":{"cat":"transporte"},"geometry":{"type":"Point","coordinates":[-4.778413,37.8686963]}},{"type":"Feature","properties":{"cat":"transporte"},"geometry":{"type":"Point","coordinates":[-4.7813313,37.9041265]}},{"type":"Feature","properties":{"cat":"transporte"},"geometry":{"type":"Point","coordinates":[-4.7810966,37.9036852]}},{"type":"Feature","properties":{"cat":"transporte"},"geometry":{"type":"Point","coordinates":[-4.7812884,37.8998217]}},{"type":"Feature","properties":{"cat":"transporte"},"geometry":{"type":"Point","coordinates":[-4.775649,37.8795704]}},{"type":"Feature","properties":{"cat":"transporte"},"geometry":{"type":"Point","coordinates":[-4.773231,37.8772818]}},{"type":"Feature","properties":{"cat":"transporte"},"geometry":{"type":"Point","coordinates":[-4.7732592,37.8775009]}},{"type":"Feature","properties":{"cat":"transporte"},"geometry":{"type":"Point","coordinates":[-4.7755987,37.8747719]}},{"type":"Feature","properties":{"cat":"transporte"},"geometry":{"type":"Point","coordinates":[-4.7769888,37.8727055]}},{"type":"Feature","properties":{"cat":"transporte"},"geometry":{"type":"Point","coordinates":[-4.8100068,37.8936793]}},{"type":"Feature","properties":{"cat":"transporte"},"geometry":{"type":"Point","coordinates":[-4.8084819,37.8955187]}},{"type":"Feature","properties":{"cat":"transporte"},"geometry":{"type":"Point","coordinates":[-4.7983351,37.8920897]}},{"type":"Feature","properties":{"cat":"transporte"},"geometry":{"type":"Point","coordinates":[-4.7940235,37.8881451]}},{"type":"Feature","properties":{"cat":"transporte"},"geometry":{"type":"Point","coordinates":[-4.7837459,37.8787553]}},{"type":"Feature","properties":{"cat":"transporte"},"geometry":{"type":"Point","coordinates":[-4.7747384,37.8800615]}},{"type":"Feature","properties":{"cat":"transporte"},"geometry":{"type":"Point","coordinates":[-4.7557926,37.8825321]}},{"type":"Feature","properties":{"cat":"transporte"},"geometry":{"type":"Point","coordinates":[-4.7634637,37.8776957]}},{"type":"Feature","properties":{"cat":"transporte"},"geometry":{"type":"Point","coordinates":[-4.794403,37.887528]}},{"type":"Feature","properties":{"cat":"transporte"},"geometry":{"type":"Point","coordinates":[-4.7974829,37.8892623]}},{"type":"Feature","properties":{"cat":"transporte"},"geometry":{"type":"Point","coordinates":[-4.7851391,37.8804363]}},{"type":"Feature","properties":{"cat":"transporte"},"geometry":{"type":"Point","coordinates":[-4.7821443,37.8878875]}},{"type":"Feature","properties":{"cat":"transporte"},"geometry":{"type":"Point","coordinates":[-4.7788471,37.8979134]}},{"type":"Feature","properties":{"cat":"transporte"},"geometry":{"type":"Point","coordinates":[-4.7784626,37.87799]}},{"type":"Feature","properties":{"cat":"transporte"},"geometry":{"type":"Point","coordinates":[-4.7904179,37.8896719]}},{"type":"Feature","properties":{"cat":"transporte"},"geometry":{"type":"Point","coordinates":[-4.7679256,37.8925115]}},{"type":"Feature","properties":{"cat":"transporte"},"geometry":{"type":"Point","coordinates":[-4.7622054,37.8819041]}}]}
