{"type":"FeatureCollection","name":"Córdoba · déficit de verde (OSM real)","_generated":{"source":"ingest-osm.mjs","city":"barcelona","rule":"3-30-300","greens":2652,"real":true,"canopy":"Urban Atlas Street Tree Layer 2021 (real)","canopy_proxy":false},"features":[{"type":"Feature","geometry":{"type":"Polygon","coordinates":[[[2.1,41.34],[2.112,41.34],[2.112,41.352000000000004],[2.1,41.352000000000004],[2.1,41.34]]]},"properties":{"id":"barcelona-000","green_cover_pct":13,"green_within_300m":0.95,"green_deficit_score":0.41,"detail":"7% copa · 95% a <300 m","canopy_proxy":false,"tree_canopy_pct":6.8}},{"type":"Feature","geometry":{"type":"Polygon","coordinates":[[[2.112,41.34],[2.124,41.34],[2.124,41.352000000000004],[2.112,41.352000000000004],[2.112,41.34]]]},"properties":{"id":"barcelona-001","green_cover_pct":2.2,"green_within_300m":0.9,"green_deficit_score":0.52,"detail":"2% copa · 90% a <300 m","canopy_proxy":false,"tree_canopy_pct":1.5}},{"type":"Feature","geometry":{"type":"Polygon","coordinates":[[[2.124,41.34],[2.136,41.34],[2.136,41.352000000000004],[2.124,41.352000000000004],[2.124,41.34]]]},"properties":{"id":"barcelona-002","green_cover_pct":0.6,"green_within_300m":0.91,"green_deficit_score":0.54,"detail":"0% copa · 91% a <300 m","canopy_proxy":false,"tree_canopy_pct":0.4}},{"type":"Feature","geometry":{"type":"Polygon","coordinates":[[[2.136,41.34],[2.148,41.34],[2.148,41.352000000000004],[2.136,41.352000000000004],[2.136,41.34]]]},"properties":{"id":"barcelona-003","green_cover_pct":3.7,"green_within_300m":0.95,"green_deficit_score":0.51,"detail":"1% copa · 95% a <300 m","canopy_proxy":false,"tree_canopy_pct":0.9}},{"type":"Feature","geometry":{"type":"Polygon","coordinates":[[[2.148,41.34],[2.16,41.34],[2.16,41.352000000000004],[2.148,41.352000000000004],[2.148,41.34]]]},"properties":{"id":"barcelona-004","green_cover_pct":0.1,"green_within_300m":0.31,"green_deficit_score":0.85,"detail":"0% copa · 31% a <300 m","canopy_proxy":false,"tree_canopy_pct":0}},{"type":"Feature","geometry":{"type":"Polygon","coordinates":[[[2.16,41.34],[2.172,41.34],[2.172,41.352000000000004],[2.16,41.352000000000004],[2.16,41.34]]]},"properties":{"id":"barcelona-005","green_cover_pct":0,"green_within_300m":0.08,"green_deficit_score":0.96,"detail":"0% copa · 8% a <300 m","canopy_proxy":false,"tree_canopy_pct":0}},{"type":"Feature","geometry":{"type":"Polygon","coordinates":[[[2.172,41.34],[2.184,41.34],[2.184,41.352000000000004],[2.172,41.352000000000004],[2.172,41.34]]]},"properties":{"id":"barcelona-006","green_cover_pct":0,"green_within_300m":0,"green_deficit_score":1,"detail":"0% copa · 0% a <300 m","canopy_proxy":false,"tree_canopy_pct":0}},{"type":"Feature","geometry":{"type":"Polygon","coordinates":[[[2.184,41.34],[2.196,41.34],[2.196,41.352000000000004],[2.184,41.352000000000004],[2.184,41.34]]]},"properties":{"id":"barcelona-007","green_cover_pct":0,"green_within_300m":0,"green_deficit_score":1,"detail":"0% copa · 0% a <300 m","canopy_proxy":false,"tree_canopy_pct":0}},{"type":"Feature","geometry":{"type":"Polygon","coordinates":[[[2.196,41.34],[2.208,41.34],[2.208,41.352000000000004],[2.196,41.352000000000004],[2.196,41.34]]]},"properties":{"id":"barcelona-008","green_cover_pct":0,"green_within_300m":0,"green_deficit_score":1,"detail":"0% copa · 0% a <300 m","canopy_proxy":false,"tree_canopy_pct":0}},{"type":"Feature","geometry":{"type":"Polygon","coordinates":[[[2.208,41.34],[2.22,41.34],[2.22,41.352000000000004],[2.208,41.352000000000004],[2.208,41.34]]]},"properties":{"id":"barcelona-009","green_cover_pct":0,"green_within_300m":0,"green_deficit_score":1,"detail":"0% copa · 0% a <300 m","canopy_proxy":false,"tree_canopy_pct":0}},{"type":"Feature","geometry":{"type":"Polygon","coordinates":[[[2.22,41.34],[2.232,41.34],[2.232,41.352000000000004],[2.22,41.352000000000004],[2.22,41.34]]]},"properties":{"id":"barcelona-010","green_cover_pct":0,"green_within_300m":0,"green_deficit_score":0.95,"detail":"3% copa · 0% a <300 m","canopy_proxy":false,"tree_canopy_pct":3.1}},{"type":"Feature","geometry":{"type":"Polygon","coordinates":[[[2.1,41.352000000000004],[2.112,41.352000000000004],[2.112,41.364000000000004],[2.1,41.364000000000004],[2.1,41.352000000000004]]]},"properties":{"id":"barcelona-011","green_cover_pct":4.2,"green_within_300m":0.97,"green_deficit_score":0.43,"detail":"5% copa · 97% a <300 m","canopy_proxy":false,"tree_canopy_pct":4.9}},{"type":"Feature","geometry":{"type":"Polygon","coordinates":[[[2.112,41.352000000000004],[2.124,41.352000000000004],[2.124,41.364000000000004],[2.112,41.364000000000004],[2.112,41.352000000000004]]]},"properties":{"id":"barcelona-012","green_cover_pct":12.2,"green_within_300m":1,"green_deficit_score":0.41,"detail":"5% copa · 100% a <300 m","canopy_proxy":false,"tree_canopy_pct":5.4}},{"type":"Feature","geometry":{"type":"Polygon","coordinates":[[[2.124,41.352000000000004],[2.136,41.352000000000004],[2.136,41.364000000000004],[2.124,41.364000000000004],[2.124,41.352000000000004]]]},"properties":{"id":"barcelona-013","green_cover_pct":6.2,"green_within_300m":1,"green_deficit_score":0.3,"detail":"12% copa · 100% a <300 m","canopy_proxy":false,"tree_canopy_pct":11.9}},{"type":"Feature","geometry":{"type":"Polygon","coordinates":[[[2.136,41.352000000000004],[2.148,41.352000000000004],[2.148,41.364000000000004],[2.136,41.364000000000004],[2.136,41.352000000000004]]]},"properties":{"id":"barcelona-014","green_cover_pct":17.8,"green_within_300m":1,"green_deficit_score":0.31,"detail":"11% copa · 100% a <300 m","canopy_proxy":false,"tree_canopy_pct":11.4}},{"type":"Feature","geometry":{"type":"Polygon","coordinates":[[[2.148,41.352000000000004],[2.16,41.352000000000004],[2.16,41.364000000000004],[2.148,41.364000000000004],[2.148,41.352000000000004]]]},"properties":{"id":"barcelona-015","green_cover_pct":73.3,"green_within_300m":1,"green_deficit_score":0.34,"detail":"10% copa · 100% a <300 m","canopy_proxy":false,"tree_canopy_pct":9.9}},{"type":"Feature","geometry":{"type":"Polygon","coordinates":[[[2.16,41.352000000000004],[2.172,41.352000000000004],[2.172,41.364000000000004],[2.16,41.364000000000004],[2.16,41.352000000000004]]]},"properties":{"id":"barcelona-016","green_cover_pct":15,"green_within_300m":0.5,"green_deficit_score":0.75,"detail":"0% copa · 50% a <300 m","canopy_proxy":false,"tree_canopy_pct":0}},{"type":"Feature","geometry":{"type":"Polygon","coordinates":[[[2.172,41.352000000000004],[2.184,41.352000000000004],[2.184,41.364000000000004],[2.172,41.364000000000004],[2.172,41.352000000000004]]]},"properties":{"id":"barcelona-017","green_cover_pct":0,"green_within_300m":0,"green_deficit_score":1,"detail":"0% copa · 0% a <300 m","canopy_proxy":false,"tree_canopy_pct":0}},{"type":"Feature","geometry":{"type":"Polygon","coordinates":[[[2.184,41.352000000000004],[2.196,41.352000000000004],[2.196,41.364000000000004],[2.184,41.364000000000004],[2.184,41.352000000000004]]]},"properties":{"id":"barcelona-018","green_cover_pct":0,"green_within_300m":0,"green_deficit_score":1,"detail":"0% copa · 0% a <300 m","canopy_proxy":false,"tree_canopy_pct":0}},{"type":"Feature","geometry":{"type":"Polygon","coordinates":[[[2.196,41.352000000000004],[2.208,41.352000000000004],[2.208,41.364000000000004],[2.196,41.364000000000004],[2.196,41.352000000000004]]]},"properties":{"id":"barcelona-019","green_cover_pct":0,"green_within_300m":0,"green_deficit_score":1,"detail":"0% copa · 0% a <300 m","canopy_proxy":false,"tree_canopy_pct":0}},{"type":"Feature","geometry":{"type":"Polygon","coordinates":[[[2.208,41.352000000000004],[2.22,41.352000000000004],[2.22,41.364000000000004],[2.208,41.364000000000004],[2.208,41.352000000000004]]]},"properties":{"id":"barcelona-020","green_cover_pct":0,"green_within_300m":0,"green_deficit_score":0.92,"detail":"5% copa · 0% a <300 m","canopy_proxy":false,"tree_canopy_pct":4.6}},{"type":"Feature","geometry":{"type":"Polygon","coordinates":[[[2.22,41.352000000000004],[2.232,41.352000000000004],[2.232,41.364000000000004],[2.22,41.364000000000004],[2.22,41.352000000000004]]]},"properties":{"id":"barcelona-021","green_cover_pct":0,"green_within_300m":0,"green_deficit_score":0.96,"detail":"3% copa · 0% a <300 m","canopy_proxy":false,"tree_canopy_pct":2.5}},{"type":"Feature","geometry":{"type":"Polygon","coordinates":[[[2.1,41.364000000000004],[2.112,41.364000000000004],[2.112,41.376000000000005],[2.1,41.376000000000005],[2.1,41.364000000000004]]]},"properties":{"id":"barcelona-022","green_cover_pct":12.5,"green_within_300m":0.99,"green_deficit_score":0.44,"detail":"4% copa · 99% a <300 m","canopy_proxy":false,"tree_canopy_pct":4}},{"type":"Feature","geometry":{"type":"Polygon","coordinates":[[[2.112,41.364000000000004],[2.124,41.364000000000004],[2.124,41.376000000000005],[2.112,41.376000000000005],[2.112,41.364000000000004]]]},"properties":{"id":"barcelona-023","green_cover_pct":9.4,"green_within_300m":1,"green_deficit_score":0.35,"detail":"9% copa · 100% a <300 m","canopy_proxy":false,"tree_canopy_pct":9.2}},{"type":"Feature","geometry":{"type":"Polygon","coordinates":[[[2.124,41.364000000000004],[2.136,41.364000000000004],[2.136,41.376000000000005],[2.124,41.376000000000005],[2.124,41.364000000000004]]]},"properties":{"id":"barcelona-024","green_cover_pct":8.7,"green_within_300m":1,"green_deficit_score":0.17,"detail":"20% copa · 100% a <300 m","canopy_proxy":false,"tree_canopy_pct":19.9}},{"type":"Feature","geometry":{"type":"Polygon","coordinates":[[[2.136,41.364000000000004],[2.148,41.364000000000004],[2.148,41.376000000000005],[2.136,41.376000000000005],[2.136,41.364000000000004]]]},"properties":{"id":"barcelona-025","green_cover_pct":9.6,"green_within_300m":1,"green_deficit_score":0,"detail":"36% copa · 100% a <300 m","canopy_proxy":false,"tree_canopy_pct":36.3}},{"type":"Feature","geometry":{"type":"Polygon","coordinates":[[[2.148,41.364000000000004],[2.16,41.364000000000004],[2.16,41.376000000000005],[2.148,41.376000000000005],[2.148,41.364000000000004]]]},"properties":{"id":"barcelona-026","green_cover_pct":9.6,"green_within_300m":1,"green_deficit_score":0.45,"detail":"3% copa · 100% a <300 m","canopy_proxy":false,"tree_canopy_pct":3.1}},{"type":"Feature","geometry":{"type":"Polygon","coordinates":[[[2.16,41.364000000000004],[2.172,41.364000000000004],[2.172,41.376000000000005],[2.16,41.376000000000005],[2.16,41.364000000000004]]]},"properties":{"id":"barcelona-027","green_cover_pct":37.9,"green_within_300m":1,"green_deficit_score":0.5,"detail":"0% copa · 100% a <300 m","canopy_proxy":false,"tree_canopy_pct":0.1}},{"type":"Feature","geometry":{"type":"Polygon","coordinates":[[[2.172,41.364000000000004],[2.184,41.364000000000004],[2.184,41.376000000000005],[2.172,41.376000000000005],[2.172,41.364000000000004]]]},"properties":{"id":"barcelona-028","green_cover_pct":4.4,"green_within_300m":0.59,"green_deficit_score":0.71,"detail":"0% copa · 59% a <300 m","canopy_proxy":false,"tree_canopy_pct":0}},{"type":"Feature","geometry":{"type":"Polygon","coordinates":[[[2.184,41.364000000000004],[2.196,41.364000000000004],[2.196,41.376000000000005],[2.184,41.376000000000005],[2.184,41.364000000000004]]]},"properties":{"id":"barcelona-029","green_cover_pct":0.6,"green_within_300m":0.45,"green_deficit_score":0.78,"detail":"0% copa · 45% a <300 m","canopy_proxy":false,"tree_canopy_pct":0}},{"type":"Feature","geometry":{"type":"Polygon","coordinates":[[[2.196,41.364000000000004],[2.208,41.364000000000004],[2.208,41.376000000000005],[2.196,41.376000000000005],[2.196,41.364000000000004]]]},"properties":{"id":"barcelona-030","green_cover_pct":0,"green_within_300m":0,"green_deficit_score":0.82,"detail":"11% copa · 0% a <300 m","canopy_proxy":false,"tree_canopy_pct":11}},{"type":"Feature","geometry":{"type":"Polygon","coordinates":[[[2.208,41.364000000000004],[2.22,41.364000000000004],[2.22,41.376000000000005],[2.208,41.376000000000005],[2.208,41.364000000000004]]]},"properties":{"id":"barcelona-031","green_cover_pct":0,"green_within_300m":0,"green_deficit_score":0.9,"detail":"6% copa · 0% a <300 m","canopy_proxy":false,"tree_canopy_pct":5.9}},{"type":"Feature","geometry":{"type":"Polygon","coordinates":[[[2.22,41.364000000000004],[2.232,41.364000000000004],[2.232,41.376000000000005],[2.22,41.376000000000005],[2.22,41.364000000000004]]]},"properties":{"id":"barcelona-032","green_cover_pct":0,"green_within_300m":0,"green_deficit_score":0.89,"detail":"7% copa · 0% a <300 m","canopy_proxy":false,"tree_canopy_pct":6.9}},{"type":"Feature","geometry":{"type":"Polygon","coordinates":[[[2.1,41.376000000000005],[2.112,41.376000000000005],[2.112,41.388000000000005],[2.1,41.388000000000005],[2.1,41.376000000000005]]]},"properties":{"id":"barcelona-033","green_cover_pct":31.1,"green_within_300m":1,"green_deficit_score":0.37,"detail":"8% copa · 100% a <300 m","canopy_proxy":false,"tree_canopy_pct":7.6}},{"type":"Feature","geometry":{"type":"Polygon","coordinates":[[[2.112,41.376000000000005],[2.124,41.376000000000005],[2.124,41.388000000000005],[2.112,41.388000000000005],[2.112,41.376000000000005]]]},"properties":{"id":"barcelona-034","green_cover_pct":14.1,"green_within_300m":1,"green_deficit_score":0.39,"detail":"7% copa · 100% a <300 m","canopy_proxy":false,"tree_canopy_pct":6.6}},{"type":"Feature","geometry":{"type":"Polygon","coordinates":[[[2.124,41.376000000000005],[2.136,41.376000000000005],[2.136,41.388000000000005],[2.124,41.388000000000005],[2.124,41.376000000000005]]]},"properties":{"id":"barcelona-035","green_cover_pct":11.3,"green_within_300m":1,"green_deficit_score":0.39,"detail":"7% copa · 100% a <300 m","canopy_proxy":false,"tree_canopy_pct":6.5}},{"type":"Feature","geometry":{"type":"Polygon","coordinates":[[[2.136,41.376000000000005],[2.148,41.376000000000005],[2.148,41.388000000000005],[2.136,41.388000000000005],[2.136,41.376000000000005]]]},"properties":{"id":"barcelona-036","green_cover_pct":8.9,"green_within_300m":1,"green_deficit_score":0.45,"detail":"3% copa · 100% a <300 m","canopy_proxy":false,"tree_canopy_pct":2.8}},{"type":"Feature","geometry":{"type":"Polygon","coordinates":[[[2.148,41.376000000000005],[2.16,41.376000000000005],[2.16,41.388000000000005],[2.148,41.388000000000005],[2.148,41.376000000000005]]]},"properties":{"id":"barcelona-037","green_cover_pct":4.6,"green_within_300m":1,"green_deficit_score":0.39,"detail":"6% copa · 100% a <300 m","canopy_proxy":false,"tree_canopy_pct":6.4}},{"type":"Feature","geometry":{"type":"Polygon","coordinates":[[[2.16,41.376000000000005],[2.172,41.376000000000005],[2.172,41.388000000000005],[2.16,41.388000000000005],[2.16,41.376000000000005]]]},"properties":{"id":"barcelona-038","green_cover_pct":3.4,"green_within_300m":1,"green_deficit_score":0.5,"detail":"0% copa · 100% a <300 m","canopy_proxy":false,"tree_canopy_pct":0.1}},{"type":"Feature","geometry":{"type":"Polygon","coordinates":[[[2.172,41.376000000000005],[2.184,41.376000000000005],[2.184,41.388000000000005],[2.172,41.388000000000005],[2.172,41.376000000000005]]]},"properties":{"id":"barcelona-039","green_cover_pct":2.2,"green_within_300m":0.87,"green_deficit_score":0.56,"detail":"0% copa · 87% a <300 m","canopy_proxy":false,"tree_canopy_pct":0}},{"type":"Feature","geometry":{"type":"Polygon","coordinates":[[[2.184,41.376000000000005],[2.196,41.376000000000005],[2.196,41.388000000000005],[2.184,41.388000000000005],[2.184,41.376000000000005]]]},"properties":{"id":"barcelona-040","green_cover_pct":10.7,"green_within_300m":0.93,"green_deficit_score":0.04,"detail":"30% copa · 93% a <300 m","canopy_proxy":false,"tree_canopy_pct":30}},{"type":"Feature","geometry":{"type":"Polygon","coordinates":[[[2.196,41.376000000000005],[2.208,41.376000000000005],[2.208,41.388000000000005],[2.196,41.388000000000005],[2.196,41.376000000000005]]]},"properties":{"id":"barcelona-041","green_cover_pct":0.2,"green_within_300m":0.25,"green_deficit_score":0.57,"detail":"18% copa · 25% a <300 m","canopy_proxy":false,"tree_canopy_pct":18.2}},{"type":"Feature","geometry":{"type":"Polygon","coordinates":[[[2.208,41.376000000000005],[2.22,41.376000000000005],[2.22,41.388000000000005],[2.208,41.388000000000005],[2.208,41.376000000000005]]]},"properties":{"id":"barcelona-042","green_cover_pct":0,"green_within_300m":0,"green_deficit_score":0.8,"detail":"12% copa · 0% a <300 m","canopy_proxy":false,"tree_canopy_pct":12.1}},{"type":"Feature","geometry":{"type":"Polygon","coordinates":[[[2.22,41.376000000000005],[2.232,41.376000000000005],[2.232,41.388000000000005],[2.22,41.388000000000005],[2.22,41.376000000000005]]]},"properties":{"id":"barcelona-043","green_cover_pct":0,"green_within_300m":0,"green_deficit_score":0.82,"detail":"11% copa · 0% a <300 m","canopy_proxy":false,"tree_canopy_pct":10.8}},{"type":"Feature","geometry":{"type":"Polygon","coordinates":[[[2.1,41.388000000000005],[2.112,41.388000000000005],[2.112,41.400000000000006],[2.1,41.400000000000006],[2.1,41.388000000000005]]]},"properties":{"id":"barcelona-044","green_cover_pct":20.4,"green_within_300m":0.99,"green_deficit_score":0.43,"detail":"5% copa · 99% a <300 m","canopy_proxy":false,"tree_canopy_pct":4.8}},{"type":"Feature","geometry":{"type":"Polygon","coordinates":[[[2.112,41.388000000000005],[2.124,41.388000000000005],[2.124,41.400000000000006],[2.112,41.400000000000006],[2.112,41.388000000000005]]]},"properties":{"id":"barcelona-045","green_cover_pct":14.9,"green_within_300m":1,"green_deficit_score":0.42,"detail":"5% copa · 100% a <300 m","canopy_proxy":false,"tree_canopy_pct":4.6}},{"type":"Feature","geometry":{"type":"Polygon","coordinates":[[[2.124,41.388000000000005],[2.136,41.388000000000005],[2.136,41.400000000000006],[2.124,41.400000000000006],[2.124,41.388000000000005]]]},"properties":{"id":"barcelona-046","green_cover_pct":6,"green_within_300m":1,"green_deficit_score":0.39,"detail":"6% copa · 100% a <300 m","canopy_proxy":false,"tree_canopy_pct":6.4}},{"type":"Feature","geometry":{"type":"Polygon","coordinates":[[[2.136,41.388000000000005],[2.148,41.388000000000005],[2.148,41.400000000000006],[2.136,41.400000000000006],[2.136,41.388000000000005]]]},"properties":{"id":"barcelona-047","green_cover_pct":6.8,"green_within_300m":1,"green_deficit_score":0.15,"detail":"21% copa · 100% a <300 m","canopy_proxy":false,"tree_canopy_pct":21.1}},{"type":"Feature","geometry":{"type":"Polygon","coordinates":[[[2.148,41.388000000000005],[2.16,41.388000000000005],[2.16,41.400000000000006],[2.148,41.400000000000006],[2.148,41.388000000000005]]]},"properties":{"id":"barcelona-048","green_cover_pct":1.7,"green_within_300m":0.9,"green_deficit_score":0.44,"detail":"6% copa · 90% a <300 m","canopy_proxy":false,"tree_canopy_pct":6.4}},{"type":"Feature","geometry":{"type":"Polygon","coordinates":[[[2.16,41.388000000000005],[2.172,41.388000000000005],[2.172,41.400000000000006],[2.16,41.400000000000006],[2.16,41.388000000000005]]]},"properties":{"id":"barcelona-049","green_cover_pct":0.9,"green_within_300m":0.97,"green_deficit_score":0.51,"detail":"0% copa · 97% a <300 m","canopy_proxy":false,"tree_canopy_pct":0.4}},{"type":"Feature","geometry":{"type":"Polygon","coordinates":[[[2.172,41.388000000000005],[2.184,41.388000000000005],[2.184,41.400000000000006],[2.172,41.400000000000006],[2.172,41.388000000000005]]]},"properties":{"id":"barcelona-050","green_cover_pct":3.6,"green_within_300m":0.91,"green_deficit_score":0.31,"detail":"14% copa · 91% a <300 m","canopy_proxy":false,"tree_canopy_pct":13.9}},{"type":"Feature","geometry":{"type":"Polygon","coordinates":[[[2.184,41.388000000000005],[2.196,41.388000000000005],[2.196,41.400000000000006],[2.184,41.400000000000006],[2.184,41.388000000000005]]]},"properties":{"id":"barcelona-051","green_cover_pct":15.2,"green_within_300m":1,"green_deficit_score":0.3,"detail":"12% copa · 100% a <300 m","canopy_proxy":false,"tree_canopy_pct":11.9}},{"type":"Feature","geometry":{"type":"Polygon","coordinates":[[[2.196,41.388000000000005],[2.208,41.388000000000005],[2.208,41.400000000000006],[2.196,41.400000000000006],[2.196,41.388000000000005]]]},"properties":{"id":"barcelona-052","green_cover_pct":13.9,"green_within_300m":0.93,"green_deficit_score":0.28,"detail":"15% copa · 93% a <300 m","canopy_proxy":false,"tree_canopy_pct":15.1}},{"type":"Feature","geometry":{"type":"Polygon","coordinates":[[[2.208,41.388000000000005],[2.22,41.388000000000005],[2.22,41.400000000000006],[2.208,41.400000000000006],[2.208,41.388000000000005]]]},"properties":{"id":"barcelona-053","green_cover_pct":1.4,"green_within_300m":0.27,"green_deficit_score":0.69,"detail":"10% copa · 27% a <300 m","canopy_proxy":false,"tree_canopy_pct":10.3}},{"type":"Feature","geometry":{"type":"Polygon","coordinates":[[[2.22,41.388000000000005],[2.232,41.388000000000005],[2.232,41.400000000000006],[2.22,41.400000000000006],[2.22,41.388000000000005]]]},"properties":{"id":"barcelona-054","green_cover_pct":0,"green_within_300m":0,"green_deficit_score":0.95,"detail":"3% copa · 0% a <300 m","canopy_proxy":false,"tree_canopy_pct":3.1}},{"type":"Feature","geometry":{"type":"Polygon","coordinates":[[[2.1,41.400000000000006],[2.112,41.400000000000006],[2.112,41.412000000000006],[2.1,41.412000000000006],[2.1,41.400000000000006]]]},"properties":{"id":"barcelona-055","green_cover_pct":3.4,"green_within_300m":0.67,"green_deficit_score":0.56,"detail":"6% copa · 67% a <300 m","canopy_proxy":false,"tree_canopy_pct":6.1}},{"type":"Feature","geometry":{"type":"Polygon","coordinates":[[[2.112,41.400000000000006],[2.124,41.400000000000006],[2.124,41.412000000000006],[2.112,41.412000000000006],[2.112,41.400000000000006]]]},"properties":{"id":"barcelona-056","green_cover_pct":18.1,"green_within_300m":0.96,"green_deficit_score":0.38,"detail":"8% copa · 96% a <300 m","canopy_proxy":false,"tree_canopy_pct":8.1}},{"type":"Feature","geometry":{"type":"Polygon","coordinates":[[[2.124,41.400000000000006],[2.136,41.400000000000006],[2.136,41.412000000000006],[2.124,41.412000000000006],[2.124,41.400000000000006]]]},"properties":{"id":"barcelona-057","green_cover_pct":5.4,"green_within_300m":1,"green_deficit_score":0.35,"detail":"9% copa · 100% a <300 m","canopy_proxy":false,"tree_canopy_pct":9}},{"type":"Feature","geometry":{"type":"Polygon","coordinates":[[[2.136,41.400000000000006],[2.148,41.400000000000006],[2.148,41.412000000000006],[2.136,41.412000000000006],[2.136,41.400000000000006]]]},"properties":{"id":"barcelona-058","green_cover_pct":8.3,"green_within_300m":1,"green_deficit_score":0.33,"detail":"10% copa · 100% a <300 m","canopy_proxy":false,"tree_canopy_pct":10}},{"type":"Feature","geometry":{"type":"Polygon","coordinates":[[[2.148,41.400000000000006],[2.16,41.400000000000006],[2.16,41.412000000000006],[2.148,41.412000000000006],[2.148,41.400000000000006]]]},"properties":{"id":"barcelona-059","green_cover_pct":2.3,"green_within_300m":0.83,"green_deficit_score":0.46,"detail":"7% copa · 83% a <300 m","canopy_proxy":false,"tree_canopy_pct":7.5}},{"type":"Feature","geometry":{"type":"Polygon","coordinates":[[[2.16,41.400000000000006],[2.172,41.400000000000006],[2.172,41.412000000000006],[2.16,41.412000000000006],[2.16,41.400000000000006]]]},"properties":{"id":"barcelona-060","green_cover_pct":3.3,"green_within_300m":0.94,"green_deficit_score":0.34,"detail":"11% copa · 94% a <300 m","canopy_proxy":false,"tree_canopy_pct":11.5}},{"type":"Feature","geometry":{"type":"Polygon","coordinates":[[[2.172,41.400000000000006],[2.184,41.400000000000006],[2.184,41.412000000000006],[2.172,41.412000000000006],[2.172,41.400000000000006]]]},"properties":{"id":"barcelona-061","green_cover_pct":3.5,"green_within_300m":0.96,"green_deficit_score":0.36,"detail":"10% copa · 96% a <300 m","canopy_proxy":false,"tree_canopy_pct":9.7}},{"type":"Feature","geometry":{"type":"Polygon","coordinates":[[[2.184,41.400000000000006],[2.196,41.400000000000006],[2.196,41.412000000000006],[2.184,41.412000000000006],[2.184,41.400000000000006]]]},"properties":{"id":"barcelona-062","green_cover_pct":18.6,"green_within_300m":1,"green_deficit_score":0.35,"detail":"9% copa · 100% a <300 m","canopy_proxy":false,"tree_canopy_pct":8.8}},{"type":"Feature","geometry":{"type":"Polygon","coordinates":[[[2.196,41.400000000000006],[2.208,41.400000000000006],[2.208,41.412000000000006],[2.196,41.412000000000006],[2.196,41.400000000000006]]]},"properties":{"id":"barcelona-063","green_cover_pct":9,"green_within_300m":1,"green_deficit_score":0.29,"detail":"12% copa · 100% a <300 m","canopy_proxy":false,"tree_canopy_pct":12.5}},{"type":"Feature","geometry":{"type":"Polygon","coordinates":[[[2.208,41.400000000000006],[2.22,41.400000000000006],[2.22,41.412000000000006],[2.208,41.412000000000006],[2.208,41.400000000000006]]]},"properties":{"id":"barcelona-064","green_cover_pct":24.7,"green_within_300m":0.95,"green_deficit_score":0.21,"detail":"19% copa · 95% a <300 m","canopy_proxy":false,"tree_canopy_pct":19.2}},{"type":"Feature","geometry":{"type":"Polygon","coordinates":[[[2.22,41.400000000000006],[2.232,41.400000000000006],[2.232,41.412000000000006],[2.22,41.412000000000006],[2.22,41.400000000000006]]]},"properties":{"id":"barcelona-065","green_cover_pct":4.1,"green_within_300m":0.51,"green_deficit_score":0.4,"detail":"21% copa · 51% a <300 m","canopy_proxy":false,"tree_canopy_pct":20.6}},{"type":"Feature","geometry":{"type":"Polygon","coordinates":[[[2.1,41.412000000000006],[2.112,41.412000000000006],[2.112,41.42400000000001],[2.1,41.42400000000001],[2.1,41.412000000000006]]]},"properties":{"id":"barcelona-066","green_cover_pct":0.5,"green_within_300m":0.49,"green_deficit_score":0.67,"detail":"5% copa · 49% a <300 m","canopy_proxy":false,"tree_canopy_pct":4.9}},{"type":"Feature","geometry":{"type":"Polygon","coordinates":[[[2.112,41.412000000000006],[2.124,41.412000000000006],[2.124,41.42400000000001],[2.112,41.42400000000001],[2.112,41.412000000000006]]]},"properties":{"id":"barcelona-067","green_cover_pct":15.3,"green_within_300m":0.7,"green_deficit_score":0.55,"detail":"6% copa · 70% a <300 m","canopy_proxy":false,"tree_canopy_pct":5.8}},{"type":"Feature","geometry":{"type":"Polygon","coordinates":[[[2.124,41.412000000000006],[2.136,41.412000000000006],[2.136,41.42400000000001],[2.124,41.42400000000001],[2.124,41.412000000000006]]]},"properties":{"id":"barcelona-068","green_cover_pct":16.4,"green_within_300m":0.9,"green_deficit_score":0.28,"detail":"16% copa · 90% a <300 m","canopy_proxy":false,"tree_canopy_pct":16.3}},{"type":"Feature","geometry":{"type":"Polygon","coordinates":[[[2.136,41.412000000000006],[2.148,41.412000000000006],[2.148,41.42400000000001],[2.136,41.42400000000001],[2.136,41.412000000000006]]]},"properties":{"id":"barcelona-069","green_cover_pct":17.8,"green_within_300m":1,"green_deficit_score":0.29,"detail":"12% copa · 100% a <300 m","canopy_proxy":false,"tree_canopy_pct":12.3}},{"type":"Feature","geometry":{"type":"Polygon","coordinates":[[[2.148,41.412000000000006],[2.16,41.412000000000006],[2.16,41.42400000000001],[2.148,41.42400000000001],[2.148,41.412000000000006]]]},"properties":{"id":"barcelona-070","green_cover_pct":26.2,"green_within_300m":0.99,"green_deficit_score":0.4,"detail":"6% copa · 99% a <300 m","canopy_proxy":false,"tree_canopy_pct":6.3}},{"type":"Feature","geometry":{"type":"Polygon","coordinates":[[[2.16,41.412000000000006],[2.172,41.412000000000006],[2.172,41.42400000000001],[2.16,41.42400000000001],[2.16,41.412000000000006]]]},"properties":{"id":"barcelona-071","green_cover_pct":30.1,"green_within_300m":1,"green_deficit_score":0.49,"detail":"0% copa · 100% a <300 m","canopy_proxy":false,"tree_canopy_pct":0.4}},{"type":"Feature","geometry":{"type":"Polygon","coordinates":[[[2.172,41.412000000000006],[2.184,41.412000000000006],[2.184,41.42400000000001],[2.172,41.42400000000001],[2.172,41.412000000000006]]]},"properties":{"id":"barcelona-072","green_cover_pct":3.5,"green_within_300m":1,"green_deficit_score":0.44,"detail":"3% copa · 100% a <300 m","canopy_proxy":false,"tree_canopy_pct":3.4}},{"type":"Feature","geometry":{"type":"Polygon","coordinates":[[[2.184,41.412000000000006],[2.196,41.412000000000006],[2.196,41.42400000000001],[2.184,41.42400000000001],[2.184,41.412000000000006]]]},"properties":{"id":"barcelona-073","green_cover_pct":8.7,"green_within_300m":1,"green_deficit_score":0.26,"detail":"14% copa · 100% a <300 m","canopy_proxy":false,"tree_canopy_pct":14.4}},{"type":"Feature","geometry":{"type":"Polygon","coordinates":[[[2.196,41.412000000000006],[2.208,41.412000000000006],[2.208,41.42400000000001],[2.196,41.42400000000001],[2.196,41.412000000000006]]]},"properties":{"id":"barcelona-074","green_cover_pct":8.7,"green_within_300m":1,"green_deficit_score":0.33,"detail":"10% copa · 100% a <300 m","canopy_proxy":false,"tree_canopy_pct":9.9}},{"type":"Feature","geometry":{"type":"Polygon","coordinates":[[[2.208,41.412000000000006],[2.22,41.412000000000006],[2.22,41.42400000000001],[2.208,41.42400000000001],[2.208,41.412000000000006]]]},"properties":{"id":"barcelona-075","green_cover_pct":4.9,"green_within_300m":1,"green_deficit_score":0.34,"detail":"10% copa · 100% a <300 m","canopy_proxy":false,"tree_canopy_pct":9.8}},{"type":"Feature","geometry":{"type":"Polygon","coordinates":[[[2.22,41.412000000000006],[2.232,41.412000000000006],[2.232,41.42400000000001],[2.22,41.42400000000001],[2.22,41.412000000000006]]]},"properties":{"id":"barcelona-076","green_cover_pct":6.8,"green_within_300m":0.98,"green_deficit_score":0.39,"detail":"7% copa · 98% a <300 m","canopy_proxy":false,"tree_canopy_pct":7.4}},{"type":"Feature","geometry":{"type":"Polygon","coordinates":[[[2.1,41.42400000000001],[2.112,41.42400000000001],[2.112,41.43600000000001],[2.1,41.43600000000001],[2.1,41.42400000000001]]]},"properties":{"id":"barcelona-077","green_cover_pct":4.5,"green_within_300m":0.51,"green_deficit_score":0.67,"detail":"4% copa · 51% a <300 m","canopy_proxy":false,"tree_canopy_pct":4.3}},{"type":"Feature","geometry":{"type":"Polygon","coordinates":[[[2.112,41.42400000000001],[2.124,41.42400000000001],[2.124,41.43600000000001],[2.112,41.43600000000001],[2.112,41.42400000000001]]]},"properties":{"id":"barcelona-078","green_cover_pct":0,"green_within_300m":0.07,"green_deficit_score":0.9,"detail":"4% copa · 7% a <300 m","canopy_proxy":false,"tree_canopy_pct":3.6}},{"type":"Feature","geometry":{"type":"Polygon","coordinates":[[[2.124,41.42400000000001],[2.136,41.42400000000001],[2.136,41.43600000000001],[2.124,41.43600000000001],[2.124,41.42400000000001]]]},"properties":{"id":"barcelona-079","green_cover_pct":10.7,"green_within_300m":0.79,"green_deficit_score":0.59,"detail":"1% copa · 79% a <300 m","canopy_proxy":false,"tree_canopy_pct":0.9}},{"type":"Feature","geometry":{"type":"Polygon","coordinates":[[[2.136,41.42400000000001],[2.148,41.42400000000001],[2.148,41.43600000000001],[2.136,41.43600000000001],[2.136,41.42400000000001]]]},"properties":{"id":"barcelona-080","green_cover_pct":13.2,"green_within_300m":0.99,"green_deficit_score":0.4,"detail":"6% copa · 99% a <300 m","canopy_proxy":false,"tree_canopy_pct":6}},{"type":"Feature","geometry":{"type":"Polygon","coordinates":[[[2.148,41.42400000000001],[2.16,41.42400000000001],[2.16,41.43600000000001],[2.148,41.43600000000001],[2.148,41.42400000000001]]]},"properties":{"id":"barcelona-081","green_cover_pct":11.7,"green_within_300m":0.99,"green_deficit_score":0.47,"detail":"2% copa · 99% a <300 m","canopy_proxy":false,"tree_canopy_pct":1.9}},{"type":"Feature","geometry":{"type":"Polygon","coordinates":[[[2.16,41.42400000000001],[2.172,41.42400000000001],[2.172,41.43600000000001],[2.16,41.43600000000001],[2.16,41.42400000000001]]]},"properties":{"id":"barcelona-082","green_cover_pct":7.5,"green_within_300m":1,"green_deficit_score":0.41,"detail":"5% copa · 100% a <300 m","canopy_proxy":false,"tree_canopy_pct":5.5}},{"type":"Feature","geometry":{"type":"Polygon","coordinates":[[[2.172,41.42400000000001],[2.184,41.42400000000001],[2.184,41.43600000000001],[2.172,41.43600000000001],[2.172,41.42400000000001]]]},"properties":{"id":"barcelona-083","green_cover_pct":12.5,"green_within_300m":1,"green_deficit_score":0.09,"detail":"24% copa · 100% a <300 m","canopy_proxy":false,"tree_canopy_pct":24.3}},{"type":"Feature","geometry":{"type":"Polygon","coordinates":[[[2.184,41.42400000000001],[2.196,41.42400000000001],[2.196,41.43600000000001],[2.184,41.43600000000001],[2.184,41.42400000000001]]]},"properties":{"id":"barcelona-084","green_cover_pct":6,"green_within_300m":0.9,"green_deficit_score":0.48,"detail":"4% copa · 90% a <300 m","canopy_proxy":false,"tree_canopy_pct":4.1}},{"type":"Feature","geometry":{"type":"Polygon","coordinates":[[[2.196,41.42400000000001],[2.208,41.42400000000001],[2.208,41.43600000000001],[2.196,41.43600000000001],[2.196,41.42400000000001]]]},"properties":{"id":"barcelona-085","green_cover_pct":0.7,"green_within_300m":0.86,"green_deficit_score":0.43,"detail":"8% copa · 86% a <300 m","canopy_proxy":false,"tree_canopy_pct":8.2}},{"type":"Feature","geometry":{"type":"Polygon","coordinates":[[[2.208,41.42400000000001],[2.22,41.42400000000001],[2.22,41.43600000000001],[2.208,41.43600000000001],[2.208,41.42400000000001]]]},"properties":{"id":"barcelona-086","green_cover_pct":2.2,"green_within_300m":0.94,"green_deficit_score":0.41,"detail":"7% copa · 94% a <300 m","canopy_proxy":false,"tree_canopy_pct":6.9}},{"type":"Feature","geometry":{"type":"Polygon","coordinates":[[[2.22,41.42400000000001],[2.232,41.42400000000001],[2.232,41.43600000000001],[2.22,41.43600000000001],[2.22,41.42400000000001]]]},"properties":{"id":"barcelona-087","green_cover_pct":2.1,"green_within_300m":0.87,"green_deficit_score":0.49,"detail":"4% copa · 87% a <300 m","canopy_proxy":false,"tree_canopy_pct":4.5}},{"type":"Feature","geometry":{"type":"Polygon","coordinates":[[[2.1,41.43600000000001],[2.112,41.43600000000001],[2.112,41.44800000000001],[2.1,41.44800000000001],[2.1,41.43600000000001]]]},"properties":{"id":"barcelona-088","green_cover_pct":0.5,"green_within_300m":0.37,"green_deficit_score":0.75,"detail":"4% copa · 37% a <300 m","canopy_proxy":false,"tree_canopy_pct":3.9}},{"type":"Feature","geometry":{"type":"Polygon","coordinates":[[[2.112,41.43600000000001],[2.124,41.43600000000001],[2.124,41.44800000000001],[2.112,41.44800000000001],[2.112,41.43600000000001]]]},"properties":{"id":"barcelona-089","green_cover_pct":1.7,"green_within_300m":0.49,"green_deficit_score":0.72,"detail":"2% copa · 49% a <300 m","canopy_proxy":false,"tree_canopy_pct":2.4}},{"type":"Feature","geometry":{"type":"Polygon","coordinates":[[[2.124,41.43600000000001],[2.136,41.43600000000001],[2.136,41.44800000000001],[2.124,41.44800000000001],[2.124,41.43600000000001]]]},"properties":{"id":"barcelona-090","green_cover_pct":0,"green_within_300m":0.14,"green_deficit_score":0.93,"detail":"0% copa · 14% a <300 m","canopy_proxy":false,"tree_canopy_pct":0}},{"type":"Feature","geometry":{"type":"Polygon","coordinates":[[[2.136,41.43600000000001],[2.148,41.43600000000001],[2.148,41.44800000000001],[2.136,41.44800000000001],[2.136,41.43600000000001]]]},"properties":{"id":"barcelona-091","green_cover_pct":11.4,"green_within_300m":0.68,"green_deficit_score":0.66,"detail":"0% copa · 68% a <300 m","canopy_proxy":false,"tree_canopy_pct":0}},{"type":"Feature","geometry":{"type":"Polygon","coordinates":[[[2.148,41.43600000000001],[2.16,41.43600000000001],[2.16,41.44800000000001],[2.148,41.44800000000001],[2.148,41.43600000000001]]]},"properties":{"id":"barcelona-092","green_cover_pct":28.9,"green_within_300m":1,"green_deficit_score":0.5,"detail":"0% copa · 100% a <300 m","canopy_proxy":false,"tree_canopy_pct":0}},{"type":"Feature","geometry":{"type":"Polygon","coordinates":[[[2.16,41.43600000000001],[2.172,41.43600000000001],[2.172,41.44800000000001],[2.16,41.44800000000001],[2.16,41.43600000000001]]]},"properties":{"id":"barcelona-093","green_cover_pct":22.5,"green_within_300m":1,"green_deficit_score":0.5,"detail":"0% copa · 100% a <300 m","canopy_proxy":false,"tree_canopy_pct":0}},{"type":"Feature","geometry":{"type":"Polygon","coordinates":[[[2.172,41.43600000000001],[2.184,41.43600000000001],[2.184,41.44800000000001],[2.172,41.44800000000001],[2.172,41.43600000000001]]]},"properties":{"id":"barcelona-094","green_cover_pct":8.6,"green_within_300m":1,"green_deficit_score":0.5,"detail":"0% copa · 100% a <300 m","canopy_proxy":false,"tree_canopy_pct":0}},{"type":"Feature","geometry":{"type":"Polygon","coordinates":[[[2.184,41.43600000000001],[2.196,41.43600000000001],[2.196,41.44800000000001],[2.184,41.44800000000001],[2.184,41.43600000000001]]]},"properties":{"id":"barcelona-095","green_cover_pct":8.1,"green_within_300m":1,"green_deficit_score":0.5,"detail":"0% copa · 100% a <300 m","canopy_proxy":false,"tree_canopy_pct":0}},{"type":"Feature","geometry":{"type":"Polygon","coordinates":[[[2.196,41.43600000000001],[2.208,41.43600000000001],[2.208,41.44800000000001],[2.196,41.44800000000001],[2.196,41.43600000000001]]]},"properties":{"id":"barcelona-096","green_cover_pct":3.7,"green_within_300m":0.96,"green_deficit_score":0.52,"detail":"0% copa · 96% a <300 m","canopy_proxy":false,"tree_canopy_pct":0}},{"type":"Feature","geometry":{"type":"Polygon","coordinates":[[[2.208,41.43600000000001],[2.22,41.43600000000001],[2.22,41.44800000000001],[2.208,41.44800000000001],[2.208,41.43600000000001]]]},"properties":{"id":"barcelona-097","green_cover_pct":5.1,"green_within_300m":1,"green_deficit_score":0.5,"detail":"0% copa · 100% a <300 m","canopy_proxy":false,"tree_canopy_pct":0}},{"type":"Feature","geometry":{"type":"Polygon","coordinates":[[[2.22,41.43600000000001],[2.232,41.43600000000001],[2.232,41.44800000000001],[2.22,41.44800000000001],[2.22,41.43600000000001]]]},"properties":{"id":"barcelona-098","green_cover_pct":9.7,"green_within_300m":0.99,"green_deficit_score":0.51,"detail":"0% copa · 99% a <300 m","canopy_proxy":false,"tree_canopy_pct":0}},{"type":"Feature","geometry":{"type":"Polygon","coordinates":[[[2.1,41.44800000000001],[2.112,41.44800000000001],[2.112,41.46000000000001],[2.1,41.46000000000001],[2.1,41.44800000000001]]]},"properties":{"id":"barcelona-099","green_cover_pct":0,"green_within_300m":0.02,"green_deficit_score":0.99,"detail":"0% copa · 2% a <300 m","canopy_proxy":false,"tree_canopy_pct":0}},{"type":"Feature","geometry":{"type":"Polygon","coordinates":[[[2.112,41.44800000000001],[2.124,41.44800000000001],[2.124,41.46000000000001],[2.112,41.46000000000001],[2.112,41.44800000000001]]]},"properties":{"id":"barcelona-100","green_cover_pct":0,"green_within_300m":0.09,"green_deficit_score":0.96,"detail":"0% copa · 9% a <300 m","canopy_proxy":false,"tree_canopy_pct":0}},{"type":"Feature","geometry":{"type":"Polygon","coordinates":[[[2.124,41.44800000000001],[2.136,41.44800000000001],[2.136,41.46000000000001],[2.124,41.46000000000001],[2.124,41.44800000000001]]]},"properties":{"id":"barcelona-101","green_cover_pct":0,"green_within_300m":0,"green_deficit_score":1,"detail":"0% copa · 0% a <300 m","canopy_proxy":false,"tree_canopy_pct":0}},{"type":"Feature","geometry":{"type":"Polygon","coordinates":[[[2.136,41.44800000000001],[2.148,41.44800000000001],[2.148,41.46000000000001],[2.136,41.46000000000001],[2.136,41.44800000000001]]]},"properties":{"id":"barcelona-102","green_cover_pct":0,"green_within_300m":0,"green_deficit_score":1,"detail":"0% copa · 0% a <300 m","canopy_proxy":false,"tree_canopy_pct":0}},{"type":"Feature","geometry":{"type":"Polygon","coordinates":[[[2.148,41.44800000000001],[2.16,41.44800000000001],[2.16,41.46000000000001],[2.148,41.46000000000001],[2.148,41.44800000000001]]]},"properties":{"id":"barcelona-103","green_cover_pct":2.2,"green_within_300m":0.29,"green_deficit_score":0.86,"detail":"0% copa · 29% a <300 m","canopy_proxy":false,"tree_canopy_pct":0}},{"type":"Feature","geometry":{"type":"Polygon","coordinates":[[[2.16,41.44800000000001],[2.172,41.44800000000001],[2.172,41.46000000000001],[2.16,41.46000000000001],[2.16,41.44800000000001]]]},"properties":{"id":"barcelona-104","green_cover_pct":9.8,"green_within_300m":0.42,"green_deficit_score":0.79,"detail":"0% copa · 42% a <300 m","canopy_proxy":false,"tree_canopy_pct":0}},{"type":"Feature","geometry":{"type":"Polygon","coordinates":[[[2.172,41.44800000000001],[2.184,41.44800000000001],[2.184,41.46000000000001],[2.172,41.46000000000001],[2.172,41.44800000000001]]]},"properties":{"id":"barcelona-105","green_cover_pct":5.2,"green_within_300m":0.45,"green_deficit_score":0.78,"detail":"0% copa · 45% a <300 m","canopy_proxy":false,"tree_canopy_pct":0}},{"type":"Feature","geometry":{"type":"Polygon","coordinates":[[[2.184,41.44800000000001],[2.196,41.44800000000001],[2.196,41.46000000000001],[2.184,41.46000000000001],[2.184,41.44800000000001]]]},"properties":{"id":"barcelona-106","green_cover_pct":6.7,"green_within_300m":0.61,"green_deficit_score":0.7,"detail":"0% copa · 61% a <300 m","canopy_proxy":false,"tree_canopy_pct":0}},{"type":"Feature","geometry":{"type":"Polygon","coordinates":[[[2.196,41.44800000000001],[2.208,41.44800000000001],[2.208,41.46000000000001],[2.196,41.46000000000001],[2.196,41.44800000000001]]]},"properties":{"id":"barcelona-107","green_cover_pct":2.3,"green_within_300m":0.3,"green_deficit_score":0.85,"detail":"0% copa · 30% a <300 m","canopy_proxy":false,"tree_canopy_pct":0}},{"type":"Feature","geometry":{"type":"Polygon","coordinates":[[[2.208,41.44800000000001],[2.22,41.44800000000001],[2.22,41.46000000000001],[2.208,41.46000000000001],[2.208,41.44800000000001]]]},"properties":{"id":"barcelona-108","green_cover_pct":0,"green_within_300m":0.13,"green_deficit_score":0.94,"detail":"0% copa · 13% a <300 m","canopy_proxy":false,"tree_canopy_pct":0}},{"type":"Feature","geometry":{"type":"Polygon","coordinates":[[[2.22,41.44800000000001],[2.232,41.44800000000001],[2.232,41.46000000000001],[2.22,41.46000000000001],[2.22,41.44800000000001]]]},"properties":{"id":"barcelona-109","green_cover_pct":0,"green_within_300m":0.11,"green_deficit_score":0.95,"detail":"0% copa · 11% a <300 m","canopy_proxy":false,"tree_canopy_pct":0}}]}
