{"type":"FeatureCollection","name":"Córdoba · déficit de servicios 15-min (OSM real)","_generated":{"source":"ingest-osm.mjs","city":"barcelona","pois":8174,"cats":["salud","educacion","comercio","transporte"],"threshold_m":800,"real":true},"features":[{"type":"Feature","geometry":{"type":"Polygon","coordinates":[[[2.1,41.34],[2.112,41.34],[2.112,41.352000000000004],[2.1,41.352000000000004],[2.1,41.34]]]},"properties":{"id":"barcelona-svc-000","service_deficit":0,"detail":"todo a <800 m"}},{"type":"Feature","geometry":{"type":"Polygon","coordinates":[[[2.112,41.34],[2.124,41.34],[2.124,41.352000000000004],[2.112,41.352000000000004],[2.112,41.34]]]},"properties":{"id":"barcelona-svc-001","service_deficit":0,"detail":"todo a <800 m"}},{"type":"Feature","geometry":{"type":"Polygon","coordinates":[[[2.124,41.34],[2.136,41.34],[2.136,41.352000000000004],[2.124,41.352000000000004],[2.124,41.34]]]},"properties":{"id":"barcelona-svc-002","service_deficit":0.5,"detail":"falta: salud, educacion"}},{"type":"Feature","geometry":{"type":"Polygon","coordinates":[[[2.136,41.34],[2.148,41.34],[2.148,41.352000000000004],[2.136,41.352000000000004],[2.136,41.34]]]},"properties":{"id":"barcelona-svc-003","service_deficit":0,"detail":"todo a <800 m"}},{"type":"Feature","geometry":{"type":"Polygon","coordinates":[[[2.148,41.34],[2.16,41.34],[2.16,41.352000000000004],[2.148,41.352000000000004],[2.148,41.34]]]},"properties":{"id":"barcelona-svc-004","service_deficit":0.75,"detail":"falta: salud, educacion, comercio"}},{"type":"Feature","geometry":{"type":"Polygon","coordinates":[[[2.16,41.34],[2.172,41.34],[2.172,41.352000000000004],[2.16,41.352000000000004],[2.16,41.34]]]},"properties":{"id":"barcelona-svc-005","service_deficit":0.75,"detail":"falta: salud, educacion, comercio"}},{"type":"Feature","geometry":{"type":"Polygon","coordinates":[[[2.172,41.34],[2.184,41.34],[2.184,41.352000000000004],[2.172,41.352000000000004],[2.172,41.34]]]},"properties":{"id":"barcelona-svc-006","service_deficit":0.75,"detail":"falta: salud, educacion, comercio"}},{"type":"Feature","geometry":{"type":"Polygon","coordinates":[[[2.184,41.34],[2.196,41.34],[2.196,41.352000000000004],[2.184,41.352000000000004],[2.184,41.34]]]},"properties":{"id":"barcelona-svc-007","service_deficit":1,"detail":"falta: salud, educacion, comercio, transporte"}},{"type":"Feature","geometry":{"type":"Polygon","coordinates":[[[2.196,41.34],[2.208,41.34],[2.208,41.352000000000004],[2.196,41.352000000000004],[2.196,41.34]]]},"properties":{"id":"barcelona-svc-008","service_deficit":1,"detail":"falta: salud, educacion, comercio, transporte"}},{"type":"Feature","geometry":{"type":"Polygon","coordinates":[[[2.208,41.34],[2.22,41.34],[2.22,41.352000000000004],[2.208,41.352000000000004],[2.208,41.34]]]},"properties":{"id":"barcelona-svc-009","service_deficit":1,"detail":"falta: salud, educacion, comercio, transporte"}},{"type":"Feature","geometry":{"type":"Polygon","coordinates":[[[2.22,41.34],[2.232,41.34],[2.232,41.352000000000004],[2.22,41.352000000000004],[2.22,41.34]]]},"properties":{"id":"barcelona-svc-010","service_deficit":1,"detail":"falta: salud, educacion, comercio, transporte"}},{"type":"Feature","geometry":{"type":"Polygon","coordinates":[[[2.1,41.352000000000004],[2.112,41.352000000000004],[2.112,41.364000000000004],[2.1,41.364000000000004],[2.1,41.352000000000004]]]},"properties":{"id":"barcelona-svc-011","service_deficit":0,"detail":"todo a <800 m"}},{"type":"Feature","geometry":{"type":"Polygon","coordinates":[[[2.112,41.352000000000004],[2.124,41.352000000000004],[2.124,41.364000000000004],[2.112,41.364000000000004],[2.112,41.352000000000004]]]},"properties":{"id":"barcelona-svc-012","service_deficit":0,"detail":"todo a <800 m"}},{"type":"Feature","geometry":{"type":"Polygon","coordinates":[[[2.124,41.352000000000004],[2.136,41.352000000000004],[2.136,41.364000000000004],[2.124,41.364000000000004],[2.124,41.352000000000004]]]},"properties":{"id":"barcelona-svc-013","service_deficit":0,"detail":"todo a <800 m"}},{"type":"Feature","geometry":{"type":"Polygon","coordinates":[[[2.136,41.352000000000004],[2.148,41.352000000000004],[2.148,41.364000000000004],[2.136,41.364000000000004],[2.136,41.352000000000004]]]},"properties":{"id":"barcelona-svc-014","service_deficit":0,"detail":"todo a <800 m"}},{"type":"Feature","geometry":{"type":"Polygon","coordinates":[[[2.148,41.352000000000004],[2.16,41.352000000000004],[2.16,41.364000000000004],[2.148,41.364000000000004],[2.148,41.352000000000004]]]},"properties":{"id":"barcelona-svc-015","service_deficit":0.25,"detail":"falta: salud"}},{"type":"Feature","geometry":{"type":"Polygon","coordinates":[[[2.16,41.352000000000004],[2.172,41.352000000000004],[2.172,41.364000000000004],[2.16,41.364000000000004],[2.16,41.352000000000004]]]},"properties":{"id":"barcelona-svc-016","service_deficit":0.75,"detail":"falta: salud, educacion, comercio"}},{"type":"Feature","geometry":{"type":"Polygon","coordinates":[[[2.172,41.352000000000004],[2.184,41.352000000000004],[2.184,41.364000000000004],[2.172,41.364000000000004],[2.172,41.352000000000004]]]},"properties":{"id":"barcelona-svc-017","service_deficit":0.75,"detail":"falta: salud, educacion, comercio"}},{"type":"Feature","geometry":{"type":"Polygon","coordinates":[[[2.184,41.352000000000004],[2.196,41.352000000000004],[2.196,41.364000000000004],[2.184,41.364000000000004],[2.184,41.352000000000004]]]},"properties":{"id":"barcelona-svc-018","service_deficit":0.75,"detail":"falta: salud, comercio, transporte"}},{"type":"Feature","geometry":{"type":"Polygon","coordinates":[[[2.196,41.352000000000004],[2.208,41.352000000000004],[2.208,41.364000000000004],[2.196,41.364000000000004],[2.196,41.352000000000004]]]},"properties":{"id":"barcelona-svc-019","service_deficit":1,"detail":"falta: salud, educacion, comercio, transporte"}},{"type":"Feature","geometry":{"type":"Polygon","coordinates":[[[2.208,41.352000000000004],[2.22,41.352000000000004],[2.22,41.364000000000004],[2.208,41.364000000000004],[2.208,41.352000000000004]]]},"properties":{"id":"barcelona-svc-020","service_deficit":1,"detail":"falta: salud, educacion, comercio, transporte"}},{"type":"Feature","geometry":{"type":"Polygon","coordinates":[[[2.22,41.352000000000004],[2.232,41.352000000000004],[2.232,41.364000000000004],[2.22,41.364000000000004],[2.22,41.352000000000004]]]},"properties":{"id":"barcelona-svc-021","service_deficit":1,"detail":"falta: salud, educacion, comercio, transporte"}},{"type":"Feature","geometry":{"type":"Polygon","coordinates":[[[2.1,41.364000000000004],[2.112,41.364000000000004],[2.112,41.376000000000005],[2.1,41.376000000000005],[2.1,41.364000000000004]]]},"properties":{"id":"barcelona-svc-022","service_deficit":0,"detail":"todo a <800 m"}},{"type":"Feature","geometry":{"type":"Polygon","coordinates":[[[2.112,41.364000000000004],[2.124,41.364000000000004],[2.124,41.376000000000005],[2.112,41.376000000000005],[2.112,41.364000000000004]]]},"properties":{"id":"barcelona-svc-023","service_deficit":0,"detail":"todo a <800 m"}},{"type":"Feature","geometry":{"type":"Polygon","coordinates":[[[2.124,41.364000000000004],[2.136,41.364000000000004],[2.136,41.376000000000005],[2.124,41.376000000000005],[2.124,41.364000000000004]]]},"properties":{"id":"barcelona-svc-024","service_deficit":0,"detail":"todo a <800 m"}},{"type":"Feature","geometry":{"type":"Polygon","coordinates":[[[2.136,41.364000000000004],[2.148,41.364000000000004],[2.148,41.376000000000005],[2.136,41.376000000000005],[2.136,41.364000000000004]]]},"properties":{"id":"barcelona-svc-025","service_deficit":0,"detail":"todo a <800 m"}},{"type":"Feature","geometry":{"type":"Polygon","coordinates":[[[2.148,41.364000000000004],[2.16,41.364000000000004],[2.16,41.376000000000005],[2.148,41.376000000000005],[2.148,41.364000000000004]]]},"properties":{"id":"barcelona-svc-026","service_deficit":0,"detail":"todo a <800 m"}},{"type":"Feature","geometry":{"type":"Polygon","coordinates":[[[2.16,41.364000000000004],[2.172,41.364000000000004],[2.172,41.376000000000005],[2.16,41.376000000000005],[2.16,41.364000000000004]]]},"properties":{"id":"barcelona-svc-027","service_deficit":0,"detail":"todo a <800 m"}},{"type":"Feature","geometry":{"type":"Polygon","coordinates":[[[2.172,41.364000000000004],[2.184,41.364000000000004],[2.184,41.376000000000005],[2.172,41.376000000000005],[2.172,41.364000000000004]]]},"properties":{"id":"barcelona-svc-028","service_deficit":0,"detail":"todo a <800 m"}},{"type":"Feature","geometry":{"type":"Polygon","coordinates":[[[2.184,41.364000000000004],[2.196,41.364000000000004],[2.196,41.376000000000005],[2.184,41.376000000000005],[2.184,41.364000000000004]]]},"properties":{"id":"barcelona-svc-029","service_deficit":0,"detail":"todo a <800 m"}},{"type":"Feature","geometry":{"type":"Polygon","coordinates":[[[2.196,41.364000000000004],[2.208,41.364000000000004],[2.208,41.376000000000005],[2.196,41.376000000000005],[2.196,41.364000000000004]]]},"properties":{"id":"barcelona-svc-030","service_deficit":1,"detail":"falta: salud, educacion, comercio, transporte"}},{"type":"Feature","geometry":{"type":"Polygon","coordinates":[[[2.208,41.364000000000004],[2.22,41.364000000000004],[2.22,41.376000000000005],[2.208,41.376000000000005],[2.208,41.364000000000004]]]},"properties":{"id":"barcelona-svc-031","service_deficit":1,"detail":"falta: salud, educacion, comercio, transporte"}},{"type":"Feature","geometry":{"type":"Polygon","coordinates":[[[2.22,41.364000000000004],[2.232,41.364000000000004],[2.232,41.376000000000005],[2.22,41.376000000000005],[2.22,41.364000000000004]]]},"properties":{"id":"barcelona-svc-032","service_deficit":1,"detail":"falta: salud, educacion, comercio, transporte"}},{"type":"Feature","geometry":{"type":"Polygon","coordinates":[[[2.1,41.376000000000005],[2.112,41.376000000000005],[2.112,41.388000000000005],[2.1,41.388000000000005],[2.1,41.376000000000005]]]},"properties":{"id":"barcelona-svc-033","service_deficit":0,"detail":"todo a <800 m"}},{"type":"Feature","geometry":{"type":"Polygon","coordinates":[[[2.112,41.376000000000005],[2.124,41.376000000000005],[2.124,41.388000000000005],[2.112,41.388000000000005],[2.112,41.376000000000005]]]},"properties":{"id":"barcelona-svc-034","service_deficit":0,"detail":"todo a <800 m"}},{"type":"Feature","geometry":{"type":"Polygon","coordinates":[[[2.124,41.376000000000005],[2.136,41.376000000000005],[2.136,41.388000000000005],[2.124,41.388000000000005],[2.124,41.376000000000005]]]},"properties":{"id":"barcelona-svc-035","service_deficit":0,"detail":"todo a <800 m"}},{"type":"Feature","geometry":{"type":"Polygon","coordinates":[[[2.136,41.376000000000005],[2.148,41.376000000000005],[2.148,41.388000000000005],[2.136,41.388000000000005],[2.136,41.376000000000005]]]},"properties":{"id":"barcelona-svc-036","service_deficit":0,"detail":"todo a <800 m"}},{"type":"Feature","geometry":{"type":"Polygon","coordinates":[[[2.148,41.376000000000005],[2.16,41.376000000000005],[2.16,41.388000000000005],[2.148,41.388000000000005],[2.148,41.376000000000005]]]},"properties":{"id":"barcelona-svc-037","service_deficit":0,"detail":"todo a <800 m"}},{"type":"Feature","geometry":{"type":"Polygon","coordinates":[[[2.16,41.376000000000005],[2.172,41.376000000000005],[2.172,41.388000000000005],[2.16,41.388000000000005],[2.16,41.376000000000005]]]},"properties":{"id":"barcelona-svc-038","service_deficit":0,"detail":"todo a <800 m"}},{"type":"Feature","geometry":{"type":"Polygon","coordinates":[[[2.172,41.376000000000005],[2.184,41.376000000000005],[2.184,41.388000000000005],[2.172,41.388000000000005],[2.172,41.376000000000005]]]},"properties":{"id":"barcelona-svc-039","service_deficit":0,"detail":"todo a <800 m"}},{"type":"Feature","geometry":{"type":"Polygon","coordinates":[[[2.184,41.376000000000005],[2.196,41.376000000000005],[2.196,41.388000000000005],[2.184,41.388000000000005],[2.184,41.376000000000005]]]},"properties":{"id":"barcelona-svc-040","service_deficit":0,"detail":"todo a <800 m"}},{"type":"Feature","geometry":{"type":"Polygon","coordinates":[[[2.196,41.376000000000005],[2.208,41.376000000000005],[2.208,41.388000000000005],[2.196,41.388000000000005],[2.196,41.376000000000005]]]},"properties":{"id":"barcelona-svc-041","service_deficit":0.25,"detail":"falta: comercio"}},{"type":"Feature","geometry":{"type":"Polygon","coordinates":[[[2.208,41.376000000000005],[2.22,41.376000000000005],[2.22,41.388000000000005],[2.208,41.388000000000005],[2.208,41.376000000000005]]]},"properties":{"id":"barcelona-svc-042","service_deficit":1,"detail":"falta: salud, educacion, comercio, transporte"}},{"type":"Feature","geometry":{"type":"Polygon","coordinates":[[[2.22,41.376000000000005],[2.232,41.376000000000005],[2.232,41.388000000000005],[2.22,41.388000000000005],[2.22,41.376000000000005]]]},"properties":{"id":"barcelona-svc-043","service_deficit":1,"detail":"falta: salud, educacion, comercio, transporte"}},{"type":"Feature","geometry":{"type":"Polygon","coordinates":[[[2.1,41.388000000000005],[2.112,41.388000000000005],[2.112,41.400000000000006],[2.1,41.400000000000006],[2.1,41.388000000000005]]]},"properties":{"id":"barcelona-svc-044","service_deficit":0.25,"detail":"falta: comercio"}},{"type":"Feature","geometry":{"type":"Polygon","coordinates":[[[2.112,41.388000000000005],[2.124,41.388000000000005],[2.124,41.400000000000006],[2.112,41.400000000000006],[2.112,41.388000000000005]]]},"properties":{"id":"barcelona-svc-045","service_deficit":0,"detail":"todo a <800 m"}},{"type":"Feature","geometry":{"type":"Polygon","coordinates":[[[2.124,41.388000000000005],[2.136,41.388000000000005],[2.136,41.400000000000006],[2.124,41.400000000000006],[2.124,41.388000000000005]]]},"properties":{"id":"barcelona-svc-046","service_deficit":0,"detail":"todo a <800 m"}},{"type":"Feature","geometry":{"type":"Polygon","coordinates":[[[2.136,41.388000000000005],[2.148,41.388000000000005],[2.148,41.400000000000006],[2.136,41.400000000000006],[2.136,41.388000000000005]]]},"properties":{"id":"barcelona-svc-047","service_deficit":0,"detail":"todo a <800 m"}},{"type":"Feature","geometry":{"type":"Polygon","coordinates":[[[2.148,41.388000000000005],[2.16,41.388000000000005],[2.16,41.400000000000006],[2.148,41.400000000000006],[2.148,41.388000000000005]]]},"properties":{"id":"barcelona-svc-048","service_deficit":0,"detail":"todo a <800 m"}},{"type":"Feature","geometry":{"type":"Polygon","coordinates":[[[2.16,41.388000000000005],[2.172,41.388000000000005],[2.172,41.400000000000006],[2.16,41.400000000000006],[2.16,41.388000000000005]]]},"properties":{"id":"barcelona-svc-049","service_deficit":0,"detail":"todo a <800 m"}},{"type":"Feature","geometry":{"type":"Polygon","coordinates":[[[2.172,41.388000000000005],[2.184,41.388000000000005],[2.184,41.400000000000006],[2.172,41.400000000000006],[2.172,41.388000000000005]]]},"properties":{"id":"barcelona-svc-050","service_deficit":0,"detail":"todo a <800 m"}},{"type":"Feature","geometry":{"type":"Polygon","coordinates":[[[2.184,41.388000000000005],[2.196,41.388000000000005],[2.196,41.400000000000006],[2.184,41.400000000000006],[2.184,41.388000000000005]]]},"properties":{"id":"barcelona-svc-051","service_deficit":0,"detail":"todo a <800 m"}},{"type":"Feature","geometry":{"type":"Polygon","coordinates":[[[2.196,41.388000000000005],[2.208,41.388000000000005],[2.208,41.400000000000006],[2.196,41.400000000000006],[2.196,41.388000000000005]]]},"properties":{"id":"barcelona-svc-052","service_deficit":0,"detail":"todo a <800 m"}},{"type":"Feature","geometry":{"type":"Polygon","coordinates":[[[2.208,41.388000000000005],[2.22,41.388000000000005],[2.22,41.400000000000006],[2.208,41.400000000000006],[2.208,41.388000000000005]]]},"properties":{"id":"barcelona-svc-053","service_deficit":0.75,"detail":"falta: salud, educacion, comercio"}},{"type":"Feature","geometry":{"type":"Polygon","coordinates":[[[2.22,41.388000000000005],[2.232,41.388000000000005],[2.232,41.400000000000006],[2.22,41.400000000000006],[2.22,41.388000000000005]]]},"properties":{"id":"barcelona-svc-054","service_deficit":1,"detail":"falta: salud, educacion, comercio, transporte"}},{"type":"Feature","geometry":{"type":"Polygon","coordinates":[[[2.1,41.400000000000006],[2.112,41.400000000000006],[2.112,41.412000000000006],[2.1,41.412000000000006],[2.1,41.400000000000006]]]},"properties":{"id":"barcelona-svc-055","service_deficit":0.25,"detail":"falta: comercio"}},{"type":"Feature","geometry":{"type":"Polygon","coordinates":[[[2.112,41.400000000000006],[2.124,41.400000000000006],[2.124,41.412000000000006],[2.112,41.412000000000006],[2.112,41.400000000000006]]]},"properties":{"id":"barcelona-svc-056","service_deficit":0,"detail":"todo a <800 m"}},{"type":"Feature","geometry":{"type":"Polygon","coordinates":[[[2.124,41.400000000000006],[2.136,41.400000000000006],[2.136,41.412000000000006],[2.124,41.412000000000006],[2.124,41.400000000000006]]]},"properties":{"id":"barcelona-svc-057","service_deficit":0,"detail":"todo a <800 m"}},{"type":"Feature","geometry":{"type":"Polygon","coordinates":[[[2.136,41.400000000000006],[2.148,41.400000000000006],[2.148,41.412000000000006],[2.136,41.412000000000006],[2.136,41.400000000000006]]]},"properties":{"id":"barcelona-svc-058","service_deficit":0,"detail":"todo a <800 m"}},{"type":"Feature","geometry":{"type":"Polygon","coordinates":[[[2.148,41.400000000000006],[2.16,41.400000000000006],[2.16,41.412000000000006],[2.148,41.412000000000006],[2.148,41.400000000000006]]]},"properties":{"id":"barcelona-svc-059","service_deficit":0,"detail":"todo a <800 m"}},{"type":"Feature","geometry":{"type":"Polygon","coordinates":[[[2.16,41.400000000000006],[2.172,41.400000000000006],[2.172,41.412000000000006],[2.16,41.412000000000006],[2.16,41.400000000000006]]]},"properties":{"id":"barcelona-svc-060","service_deficit":0,"detail":"todo a <800 m"}},{"type":"Feature","geometry":{"type":"Polygon","coordinates":[[[2.172,41.400000000000006],[2.184,41.400000000000006],[2.184,41.412000000000006],[2.172,41.412000000000006],[2.172,41.400000000000006]]]},"properties":{"id":"barcelona-svc-061","service_deficit":0,"detail":"todo a <800 m"}},{"type":"Feature","geometry":{"type":"Polygon","coordinates":[[[2.184,41.400000000000006],[2.196,41.400000000000006],[2.196,41.412000000000006],[2.184,41.412000000000006],[2.184,41.400000000000006]]]},"properties":{"id":"barcelona-svc-062","service_deficit":0,"detail":"todo a <800 m"}},{"type":"Feature","geometry":{"type":"Polygon","coordinates":[[[2.196,41.400000000000006],[2.208,41.400000000000006],[2.208,41.412000000000006],[2.196,41.412000000000006],[2.196,41.400000000000006]]]},"properties":{"id":"barcelona-svc-063","service_deficit":0,"detail":"todo a <800 m"}},{"type":"Feature","geometry":{"type":"Polygon","coordinates":[[[2.208,41.400000000000006],[2.22,41.400000000000006],[2.22,41.412000000000006],[2.208,41.412000000000006],[2.208,41.400000000000006]]]},"properties":{"id":"barcelona-svc-064","service_deficit":0,"detail":"todo a <800 m"}},{"type":"Feature","geometry":{"type":"Polygon","coordinates":[[[2.22,41.400000000000006],[2.232,41.400000000000006],[2.232,41.412000000000006],[2.22,41.412000000000006],[2.22,41.400000000000006]]]},"properties":{"id":"barcelona-svc-065","service_deficit":0.75,"detail":"falta: salud, educacion, comercio"}},{"type":"Feature","geometry":{"type":"Polygon","coordinates":[[[2.1,41.412000000000006],[2.112,41.412000000000006],[2.112,41.42400000000001],[2.1,41.42400000000001],[2.1,41.412000000000006]]]},"properties":{"id":"barcelona-svc-066","service_deficit":0,"detail":"todo a <800 m"}},{"type":"Feature","geometry":{"type":"Polygon","coordinates":[[[2.112,41.412000000000006],[2.124,41.412000000000006],[2.124,41.42400000000001],[2.112,41.42400000000001],[2.112,41.412000000000006]]]},"properties":{"id":"barcelona-svc-067","service_deficit":0.75,"detail":"falta: salud, educacion, comercio"}},{"type":"Feature","geometry":{"type":"Polygon","coordinates":[[[2.124,41.412000000000006],[2.136,41.412000000000006],[2.136,41.42400000000001],[2.124,41.42400000000001],[2.124,41.412000000000006]]]},"properties":{"id":"barcelona-svc-068","service_deficit":0.25,"detail":"falta: comercio"}},{"type":"Feature","geometry":{"type":"Polygon","coordinates":[[[2.136,41.412000000000006],[2.148,41.412000000000006],[2.148,41.42400000000001],[2.136,41.42400000000001],[2.136,41.412000000000006]]]},"properties":{"id":"barcelona-svc-069","service_deficit":0,"detail":"todo a <800 m"}},{"type":"Feature","geometry":{"type":"Polygon","coordinates":[[[2.148,41.412000000000006],[2.16,41.412000000000006],[2.16,41.42400000000001],[2.148,41.42400000000001],[2.148,41.412000000000006]]]},"properties":{"id":"barcelona-svc-070","service_deficit":0,"detail":"todo a <800 m"}},{"type":"Feature","geometry":{"type":"Polygon","coordinates":[[[2.16,41.412000000000006],[2.172,41.412000000000006],[2.172,41.42400000000001],[2.16,41.42400000000001],[2.16,41.412000000000006]]]},"properties":{"id":"barcelona-svc-071","service_deficit":0,"detail":"todo a <800 m"}},{"type":"Feature","geometry":{"type":"Polygon","coordinates":[[[2.172,41.412000000000006],[2.184,41.412000000000006],[2.184,41.42400000000001],[2.172,41.42400000000001],[2.172,41.412000000000006]]]},"properties":{"id":"barcelona-svc-072","service_deficit":0,"detail":"todo a <800 m"}},{"type":"Feature","geometry":{"type":"Polygon","coordinates":[[[2.184,41.412000000000006],[2.196,41.412000000000006],[2.196,41.42400000000001],[2.184,41.42400000000001],[2.184,41.412000000000006]]]},"properties":{"id":"barcelona-svc-073","service_deficit":0,"detail":"todo a <800 m"}},{"type":"Feature","geometry":{"type":"Polygon","coordinates":[[[2.196,41.412000000000006],[2.208,41.412000000000006],[2.208,41.42400000000001],[2.196,41.42400000000001],[2.196,41.412000000000006]]]},"properties":{"id":"barcelona-svc-074","service_deficit":0,"detail":"todo a <800 m"}},{"type":"Feature","geometry":{"type":"Polygon","coordinates":[[[2.208,41.412000000000006],[2.22,41.412000000000006],[2.22,41.42400000000001],[2.208,41.42400000000001],[2.208,41.412000000000006]]]},"properties":{"id":"barcelona-svc-075","service_deficit":0,"detail":"todo a <800 m"}},{"type":"Feature","geometry":{"type":"Polygon","coordinates":[[[2.22,41.412000000000006],[2.232,41.412000000000006],[2.232,41.42400000000001],[2.22,41.42400000000001],[2.22,41.412000000000006]]]},"properties":{"id":"barcelona-svc-076","service_deficit":0,"detail":"todo a <800 m"}},{"type":"Feature","geometry":{"type":"Polygon","coordinates":[[[2.1,41.42400000000001],[2.112,41.42400000000001],[2.112,41.43600000000001],[2.1,41.43600000000001],[2.1,41.42400000000001]]]},"properties":{"id":"barcelona-svc-077","service_deficit":0.75,"detail":"falta: salud, educacion, comercio"}},{"type":"Feature","geometry":{"type":"Polygon","coordinates":[[[2.112,41.42400000000001],[2.124,41.42400000000001],[2.124,41.43600000000001],[2.112,41.43600000000001],[2.112,41.42400000000001]]]},"properties":{"id":"barcelona-svc-078","service_deficit":0.75,"detail":"falta: salud, educacion, comercio"}},{"type":"Feature","geometry":{"type":"Polygon","coordinates":[[[2.124,41.42400000000001],[2.136,41.42400000000001],[2.136,41.43600000000001],[2.124,41.43600000000001],[2.124,41.42400000000001]]]},"properties":{"id":"barcelona-svc-079","service_deficit":0,"detail":"todo a <800 m"}},{"type":"Feature","geometry":{"type":"Polygon","coordinates":[[[2.136,41.42400000000001],[2.148,41.42400000000001],[2.148,41.43600000000001],[2.136,41.43600000000001],[2.136,41.42400000000001]]]},"properties":{"id":"barcelona-svc-080","service_deficit":0,"detail":"todo a <800 m"}},{"type":"Feature","geometry":{"type":"Polygon","coordinates":[[[2.148,41.42400000000001],[2.16,41.42400000000001],[2.16,41.43600000000001],[2.148,41.43600000000001],[2.148,41.42400000000001]]]},"properties":{"id":"barcelona-svc-081","service_deficit":0,"detail":"todo a <800 m"}},{"type":"Feature","geometry":{"type":"Polygon","coordinates":[[[2.16,41.42400000000001],[2.172,41.42400000000001],[2.172,41.43600000000001],[2.16,41.43600000000001],[2.16,41.42400000000001]]]},"properties":{"id":"barcelona-svc-082","service_deficit":0,"detail":"todo a <800 m"}},{"type":"Feature","geometry":{"type":"Polygon","coordinates":[[[2.172,41.42400000000001],[2.184,41.42400000000001],[2.184,41.43600000000001],[2.172,41.43600000000001],[2.172,41.42400000000001]]]},"properties":{"id":"barcelona-svc-083","service_deficit":0,"detail":"todo a <800 m"}},{"type":"Feature","geometry":{"type":"Polygon","coordinates":[[[2.184,41.42400000000001],[2.196,41.42400000000001],[2.196,41.43600000000001],[2.184,41.43600000000001],[2.184,41.42400000000001]]]},"properties":{"id":"barcelona-svc-084","service_deficit":0,"detail":"todo a <800 m"}},{"type":"Feature","geometry":{"type":"Polygon","coordinates":[[[2.196,41.42400000000001],[2.208,41.42400000000001],[2.208,41.43600000000001],[2.196,41.43600000000001],[2.196,41.42400000000001]]]},"properties":{"id":"barcelona-svc-085","service_deficit":0,"detail":"todo a <800 m"}},{"type":"Feature","geometry":{"type":"Polygon","coordinates":[[[2.208,41.42400000000001],[2.22,41.42400000000001],[2.22,41.43600000000001],[2.208,41.43600000000001],[2.208,41.42400000000001]]]},"properties":{"id":"barcelona-svc-086","service_deficit":0,"detail":"todo a <800 m"}},{"type":"Feature","geometry":{"type":"Polygon","coordinates":[[[2.22,41.42400000000001],[2.232,41.42400000000001],[2.232,41.43600000000001],[2.22,41.43600000000001],[2.22,41.42400000000001]]]},"properties":{"id":"barcelona-svc-087","service_deficit":0,"detail":"todo a <800 m"}},{"type":"Feature","geometry":{"type":"Polygon","coordinates":[[[2.1,41.43600000000001],[2.112,41.43600000000001],[2.112,41.44800000000001],[2.1,41.44800000000001],[2.1,41.43600000000001]]]},"properties":{"id":"barcelona-svc-088","service_deficit":0.75,"detail":"falta: salud, educacion, comercio"}},{"type":"Feature","geometry":{"type":"Polygon","coordinates":[[[2.112,41.43600000000001],[2.124,41.43600000000001],[2.124,41.44800000000001],[2.112,41.44800000000001],[2.112,41.43600000000001]]]},"properties":{"id":"barcelona-svc-089","service_deficit":1,"detail":"falta: salud, educacion, comercio, transporte"}},{"type":"Feature","geometry":{"type":"Polygon","coordinates":[[[2.124,41.43600000000001],[2.136,41.43600000000001],[2.136,41.44800000000001],[2.124,41.44800000000001],[2.124,41.43600000000001]]]},"properties":{"id":"barcelona-svc-090","service_deficit":1,"detail":"falta: salud, educacion, comercio, transporte"}},{"type":"Feature","geometry":{"type":"Polygon","coordinates":[[[2.136,41.43600000000001],[2.148,41.43600000000001],[2.148,41.44800000000001],[2.136,41.44800000000001],[2.136,41.43600000000001]]]},"properties":{"id":"barcelona-svc-091","service_deficit":0.25,"detail":"falta: comercio"}},{"type":"Feature","geometry":{"type":"Polygon","coordinates":[[[2.148,41.43600000000001],[2.16,41.43600000000001],[2.16,41.44800000000001],[2.148,41.44800000000001],[2.148,41.43600000000001]]]},"properties":{"id":"barcelona-svc-092","service_deficit":0,"detail":"todo a <800 m"}},{"type":"Feature","geometry":{"type":"Polygon","coordinates":[[[2.16,41.43600000000001],[2.172,41.43600000000001],[2.172,41.44800000000001],[2.16,41.44800000000001],[2.16,41.43600000000001]]]},"properties":{"id":"barcelona-svc-093","service_deficit":0,"detail":"todo a <800 m"}},{"type":"Feature","geometry":{"type":"Polygon","coordinates":[[[2.172,41.43600000000001],[2.184,41.43600000000001],[2.184,41.44800000000001],[2.172,41.44800000000001],[2.172,41.43600000000001]]]},"properties":{"id":"barcelona-svc-094","service_deficit":0,"detail":"todo a <800 m"}},{"type":"Feature","geometry":{"type":"Polygon","coordinates":[[[2.184,41.43600000000001],[2.196,41.43600000000001],[2.196,41.44800000000001],[2.184,41.44800000000001],[2.184,41.43600000000001]]]},"properties":{"id":"barcelona-svc-095","service_deficit":0,"detail":"todo a <800 m"}},{"type":"Feature","geometry":{"type":"Polygon","coordinates":[[[2.196,41.43600000000001],[2.208,41.43600000000001],[2.208,41.44800000000001],[2.196,41.44800000000001],[2.196,41.43600000000001]]]},"properties":{"id":"barcelona-svc-096","service_deficit":0,"detail":"todo a <800 m"}},{"type":"Feature","geometry":{"type":"Polygon","coordinates":[[[2.208,41.43600000000001],[2.22,41.43600000000001],[2.22,41.44800000000001],[2.208,41.44800000000001],[2.208,41.43600000000001]]]},"properties":{"id":"barcelona-svc-097","service_deficit":0,"detail":"todo a <800 m"}},{"type":"Feature","geometry":{"type":"Polygon","coordinates":[[[2.22,41.43600000000001],[2.232,41.43600000000001],[2.232,41.44800000000001],[2.22,41.44800000000001],[2.22,41.43600000000001]]]},"properties":{"id":"barcelona-svc-098","service_deficit":0,"detail":"todo a <800 m"}},{"type":"Feature","geometry":{"type":"Polygon","coordinates":[[[2.1,41.44800000000001],[2.112,41.44800000000001],[2.112,41.46000000000001],[2.1,41.46000000000001],[2.1,41.44800000000001]]]},"properties":{"id":"barcelona-svc-099","service_deficit":1,"detail":"falta: salud, educacion, comercio, transporte"}},{"type":"Feature","geometry":{"type":"Polygon","coordinates":[[[2.112,41.44800000000001],[2.124,41.44800000000001],[2.124,41.46000000000001],[2.112,41.46000000000001],[2.112,41.44800000000001]]]},"properties":{"id":"barcelona-svc-100","service_deficit":1,"detail":"falta: salud, educacion, comercio, transporte"}},{"type":"Feature","geometry":{"type":"Polygon","coordinates":[[[2.124,41.44800000000001],[2.136,41.44800000000001],[2.136,41.46000000000001],[2.124,41.46000000000001],[2.124,41.44800000000001]]]},"properties":{"id":"barcelona-svc-101","service_deficit":1,"detail":"falta: salud, educacion, comercio, transporte"}},{"type":"Feature","geometry":{"type":"Polygon","coordinates":[[[2.136,41.44800000000001],[2.148,41.44800000000001],[2.148,41.46000000000001],[2.136,41.46000000000001],[2.136,41.44800000000001]]]},"properties":{"id":"barcelona-svc-102","service_deficit":0.75,"detail":"falta: salud, educacion, comercio"}},{"type":"Feature","geometry":{"type":"Polygon","coordinates":[[[2.148,41.44800000000001],[2.16,41.44800000000001],[2.16,41.46000000000001],[2.148,41.46000000000001],[2.148,41.44800000000001]]]},"properties":{"id":"barcelona-svc-103","service_deficit":0.75,"detail":"falta: salud, educacion, comercio"}},{"type":"Feature","geometry":{"type":"Polygon","coordinates":[[[2.16,41.44800000000001],[2.172,41.44800000000001],[2.172,41.46000000000001],[2.16,41.46000000000001],[2.16,41.44800000000001]]]},"properties":{"id":"barcelona-svc-104","service_deficit":0.75,"detail":"falta: salud, educacion, comercio"}},{"type":"Feature","geometry":{"type":"Polygon","coordinates":[[[2.172,41.44800000000001],[2.184,41.44800000000001],[2.184,41.46000000000001],[2.172,41.46000000000001],[2.172,41.44800000000001]]]},"properties":{"id":"barcelona-svc-105","service_deficit":0,"detail":"todo a <800 m"}},{"type":"Feature","geometry":{"type":"Polygon","coordinates":[[[2.184,41.44800000000001],[2.196,41.44800000000001],[2.196,41.46000000000001],[2.184,41.46000000000001],[2.184,41.44800000000001]]]},"properties":{"id":"barcelona-svc-106","service_deficit":0,"detail":"todo a <800 m"}},{"type":"Feature","geometry":{"type":"Polygon","coordinates":[[[2.196,41.44800000000001],[2.208,41.44800000000001],[2.208,41.46000000000001],[2.196,41.46000000000001],[2.196,41.44800000000001]]]},"properties":{"id":"barcelona-svc-107","service_deficit":0,"detail":"todo a <800 m"}},{"type":"Feature","geometry":{"type":"Polygon","coordinates":[[[2.208,41.44800000000001],[2.22,41.44800000000001],[2.22,41.46000000000001],[2.208,41.46000000000001],[2.208,41.44800000000001]]]},"properties":{"id":"barcelona-svc-108","service_deficit":0,"detail":"todo a <800 m"}},{"type":"Feature","geometry":{"type":"Polygon","coordinates":[[[2.22,41.44800000000001],[2.232,41.44800000000001],[2.232,41.46000000000001],[2.22,41.46000000000001],[2.22,41.44800000000001]]]},"properties":{"id":"barcelona-svc-109","service_deficit":0.25,"detail":"falta: comercio"}}]}
