{"type":"FeatureCollection","name":"Barcelona · índice combinado de exclusión (verde + servicios + vivienda)","_generated":{"source":"ingest-index.mjs","city":"barcelona","layers":["green","service","rent"],"note":"objetivas; sin capa hostil (review C2)"},"features":[{"type":"Feature","geometry":{"type":"Polygon","coordinates":[[[2.124,41.34],[2.136,41.34],[2.136,41.352000000000004],[2.124,41.352000000000004],[2.124,41.34]]]},"properties":{"id":"barcelona-idx-002","injustice":0.56,"green":0.54,"service":0.5,"housing":0.65,"detail":"exclusión 56/100 · 3 capas"}},{"type":"Feature","geometry":{"type":"Polygon","coordinates":[[[2.136,41.34],[2.148,41.34],[2.148,41.352000000000004],[2.136,41.352000000000004],[2.136,41.34]]]},"properties":{"id":"barcelona-idx-003","injustice":0.39,"green":0.51,"service":0,"housing":0.65,"detail":"exclusión 39/100 · 3 capas"}},{"type":"Feature","geometry":{"type":"Polygon","coordinates":[[[2.148,41.34],[2.16,41.34],[2.16,41.352000000000004],[2.148,41.352000000000004],[2.148,41.34]]]},"properties":{"id":"barcelona-idx-004","injustice":0.75,"green":0.85,"service":0.75,"housing":0.65,"detail":"exclusión 75/100 · 3 capas"}},{"type":"Feature","geometry":{"type":"Polygon","coordinates":[[[2.136,41.352000000000004],[2.148,41.352000000000004],[2.148,41.364000000000004],[2.136,41.364000000000004],[2.136,41.352000000000004]]]},"properties":{"id":"barcelona-idx-014","injustice":0.19,"green":0.31,"service":0,"housing":0.26,"detail":"exclusión 19/100 · 3 capas"}},{"type":"Feature","geometry":{"type":"Polygon","coordinates":[[[2.148,41.352000000000004],[2.16,41.352000000000004],[2.16,41.364000000000004],[2.148,41.364000000000004],[2.148,41.352000000000004]]]},"properties":{"id":"barcelona-idx-015","injustice":0.36,"green":0.34,"service":0.25,"housing":0.49,"detail":"exclusión 36/100 · 3 capas"}},{"type":"Feature","geometry":{"type":"Polygon","coordinates":[[[2.16,41.352000000000004],[2.172,41.352000000000004],[2.172,41.364000000000004],[2.16,41.364000000000004],[2.16,41.352000000000004]]]},"properties":{"id":"barcelona-idx-016","injustice":0.72,"green":0.75,"service":0.75,"housing":0.65,"detail":"exclusión 72/100 · 3 capas"}},{"type":"Feature","geometry":{"type":"Polygon","coordinates":[[[2.172,41.352000000000004],[2.184,41.352000000000004],[2.184,41.364000000000004],[2.172,41.364000000000004],[2.172,41.352000000000004]]]},"properties":{"id":"barcelona-idx-017","injustice":0.8,"green":1,"service":0.75,"housing":0.65,"detail":"exclusión 80/100 · 3 capas"}},{"type":"Feature","geometry":{"type":"Polygon","coordinates":[[[2.136,41.364000000000004],[2.148,41.364000000000004],[2.148,41.376000000000005],[2.136,41.376000000000005],[2.136,41.364000000000004]]]},"properties":{"id":"barcelona-idx-025","injustice":0.18,"green":0,"service":0,"housing":0.53,"detail":"exclusión 18/100 · 3 capas"}},{"type":"Feature","geometry":{"type":"Polygon","coordinates":[[[2.148,41.364000000000004],[2.16,41.364000000000004],[2.16,41.376000000000005],[2.148,41.376000000000005],[2.148,41.364000000000004]]]},"properties":{"id":"barcelona-idx-026","injustice":0.31,"green":0.45,"service":0,"housing":0.49,"detail":"exclusión 31/100 · 3 capas"}},{"type":"Feature","geometry":{"type":"Polygon","coordinates":[[[2.16,41.364000000000004],[2.172,41.364000000000004],[2.172,41.376000000000005],[2.16,41.376000000000005],[2.16,41.364000000000004]]]},"properties":{"id":"barcelona-idx-027","injustice":0.33,"green":0.5,"service":0,"housing":0.49,"detail":"exclusión 33/100 · 3 capas"}},{"type":"Feature","geometry":{"type":"Polygon","coordinates":[[[2.1,41.376000000000005],[2.112,41.376000000000005],[2.112,41.388000000000005],[2.1,41.388000000000005],[2.1,41.376000000000005]]]},"properties":{"id":"barcelona-idx-033","injustice":0.25,"green":0.37,"service":0,"housing":0.39,"detail":"exclusión 25/100 · 3 capas"}},{"type":"Feature","geometry":{"type":"Polygon","coordinates":[[[2.112,41.376000000000005],[2.124,41.376000000000005],[2.124,41.388000000000005],[2.112,41.388000000000005],[2.112,41.376000000000005]]]},"properties":{"id":"barcelona-idx-034","injustice":0.32,"green":0.39,"service":0,"housing":0.57,"detail":"exclusión 32/100 · 3 capas"}},{"type":"Feature","geometry":{"type":"Polygon","coordinates":[[[2.124,41.376000000000005],[2.136,41.376000000000005],[2.136,41.388000000000005],[2.124,41.388000000000005],[2.124,41.376000000000005]]]},"properties":{"id":"barcelona-idx-035","injustice":0.27,"green":0.39,"service":0,"housing":0.42,"detail":"exclusión 27/100 · 3 capas"}},{"type":"Feature","geometry":{"type":"Polygon","coordinates":[[[2.136,41.376000000000005],[2.148,41.376000000000005],[2.148,41.388000000000005],[2.136,41.388000000000005],[2.136,41.376000000000005]]]},"properties":{"id":"barcelona-idx-036","injustice":0.31,"green":0.45,"service":0,"housing":0.47,"detail":"exclusión 31/100 · 3 capas"}},{"type":"Feature","geometry":{"type":"Polygon","coordinates":[[[2.148,41.376000000000005],[2.16,41.376000000000005],[2.16,41.388000000000005],[2.148,41.388000000000005],[2.148,41.376000000000005]]]},"properties":{"id":"barcelona-idx-037","injustice":0.27,"green":0.39,"service":0,"housing":0.42,"detail":"exclusión 27/100 · 3 capas"}},{"type":"Feature","geometry":{"type":"Polygon","coordinates":[[[2.16,41.376000000000005],[2.172,41.376000000000005],[2.172,41.388000000000005],[2.16,41.388000000000005],[2.16,41.376000000000005]]]},"properties":{"id":"barcelona-idx-038","injustice":0.34,"green":0.5,"service":0,"housing":0.51,"detail":"exclusión 34/100 · 3 capas"}},{"type":"Feature","geometry":{"type":"Polygon","coordinates":[[[2.172,41.376000000000005],[2.184,41.376000000000005],[2.184,41.388000000000005],[2.172,41.388000000000005],[2.172,41.376000000000005]]]},"properties":{"id":"barcelona-idx-039","injustice":0.32,"green":0.56,"service":0,"housing":0.4,"detail":"exclusión 32/100 · 3 capas"}},{"type":"Feature","geometry":{"type":"Polygon","coordinates":[[[2.184,41.376000000000005],[2.196,41.376000000000005],[2.196,41.388000000000005],[2.184,41.388000000000005],[2.184,41.376000000000005]]]},"properties":{"id":"barcelona-idx-040","injustice":0.19,"green":0.04,"service":0,"housing":0.54,"detail":"exclusión 19/100 · 3 capas"}},{"type":"Feature","geometry":{"type":"Polygon","coordinates":[[[2.1,41.388000000000005],[2.112,41.388000000000005],[2.112,41.400000000000006],[2.1,41.400000000000006],[2.1,41.388000000000005]]]},"properties":{"id":"barcelona-idx-044","injustice":0.52,"green":0.43,"service":0.25,"housing":0.87,"detail":"exclusión 52/100 · 3 capas"}},{"type":"Feature","geometry":{"type":"Polygon","coordinates":[[[2.112,41.388000000000005],[2.124,41.388000000000005],[2.124,41.400000000000006],[2.112,41.400000000000006],[2.112,41.388000000000005]]]},"properties":{"id":"barcelona-idx-045","injustice":0.38,"green":0.42,"service":0,"housing":0.72,"detail":"exclusión 38/100 · 3 capas"}},{"type":"Feature","geometry":{"type":"Polygon","coordinates":[[[2.124,41.388000000000005],[2.136,41.388000000000005],[2.136,41.400000000000006],[2.124,41.400000000000006],[2.124,41.388000000000005]]]},"properties":{"id":"barcelona-idx-046","injustice":0.33,"green":0.39,"service":0,"housing":0.61,"detail":"exclusión 33/100 · 3 capas"}},{"type":"Feature","geometry":{"type":"Polygon","coordinates":[[[2.136,41.388000000000005],[2.148,41.388000000000005],[2.148,41.400000000000006],[2.136,41.400000000000006],[2.136,41.388000000000005]]]},"properties":{"id":"barcelona-idx-047","injustice":0.26,"green":0.15,"service":0,"housing":0.64,"detail":"exclusión 26/100 · 3 capas"}},{"type":"Feature","geometry":{"type":"Polygon","coordinates":[[[2.148,41.388000000000005],[2.16,41.388000000000005],[2.16,41.400000000000006],[2.148,41.400000000000006],[2.148,41.388000000000005]]]},"properties":{"id":"barcelona-idx-048","injustice":0.32,"green":0.44,"service":0,"housing":0.52,"detail":"exclusión 32/100 · 3 capas"}},{"type":"Feature","geometry":{"type":"Polygon","coordinates":[[[2.16,41.388000000000005],[2.172,41.388000000000005],[2.172,41.400000000000006],[2.16,41.400000000000006],[2.16,41.388000000000005]]]},"properties":{"id":"barcelona-idx-049","injustice":0.37,"green":0.51,"service":0,"housing":0.6,"detail":"exclusión 37/100 · 3 capas"}},{"type":"Feature","geometry":{"type":"Polygon","coordinates":[[[2.172,41.388000000000005],[2.184,41.388000000000005],[2.184,41.400000000000006],[2.172,41.400000000000006],[2.172,41.388000000000005]]]},"properties":{"id":"barcelona-idx-050","injustice":0.25,"green":0.31,"service":0,"housing":0.45,"detail":"exclusión 25/100 · 3 capas"}},{"type":"Feature","geometry":{"type":"Polygon","coordinates":[[[2.184,41.388000000000005],[2.196,41.388000000000005],[2.196,41.400000000000006],[2.184,41.400000000000006],[2.184,41.388000000000005]]]},"properties":{"id":"barcelona-idx-051","injustice":0.23,"green":0.3,"service":0,"housing":0.39,"detail":"exclusión 23/100 · 3 capas"}},{"type":"Feature","geometry":{"type":"Polygon","coordinates":[[[2.196,41.388000000000005],[2.208,41.388000000000005],[2.208,41.400000000000006],[2.196,41.400000000000006],[2.196,41.388000000000005]]]},"properties":{"id":"barcelona-idx-052","injustice":0.35,"green":0.28,"service":0,"housing":0.77,"detail":"exclusión 35/100 · 3 capas"}},{"type":"Feature","geometry":{"type":"Polygon","coordinates":[[[2.1,41.400000000000006],[2.112,41.400000000000006],[2.112,41.412000000000006],[2.1,41.412000000000006],[2.1,41.400000000000006]]]},"properties":{"id":"barcelona-idx-055","injustice":0.43,"green":0.56,"service":0.25,"housing":0.47,"detail":"exclusión 43/100 · 3 capas"}},{"type":"Feature","geometry":{"type":"Polygon","coordinates":[[[2.112,41.400000000000006],[2.124,41.400000000000006],[2.124,41.412000000000006],[2.112,41.412000000000006],[2.112,41.400000000000006]]]},"properties":{"id":"barcelona-idx-056","injustice":0.24,"green":0.38,"service":0,"housing":0.35,"detail":"exclusión 24/100 · 3 capas"}},{"type":"Feature","geometry":{"type":"Polygon","coordinates":[[[2.124,41.400000000000006],[2.136,41.400000000000006],[2.136,41.412000000000006],[2.124,41.412000000000006],[2.124,41.400000000000006]]]},"properties":{"id":"barcelona-idx-057","injustice":0.35,"green":0.35,"service":0,"housing":0.71,"detail":"exclusión 35/100 · 3 capas"}},{"type":"Feature","geometry":{"type":"Polygon","coordinates":[[[2.136,41.400000000000006],[2.148,41.400000000000006],[2.148,41.412000000000006],[2.136,41.412000000000006],[2.136,41.400000000000006]]]},"properties":{"id":"barcelona-idx-058","injustice":0.26,"green":0.33,"service":0,"housing":0.44,"detail":"exclusión 26/100 · 3 capas"}},{"type":"Feature","geometry":{"type":"Polygon","coordinates":[[[2.148,41.400000000000006],[2.16,41.400000000000006],[2.16,41.412000000000006],[2.148,41.412000000000006],[2.148,41.400000000000006]]]},"properties":{"id":"barcelona-idx-059","injustice":0.3,"green":0.46,"service":0,"housing":0.45,"detail":"exclusión 30/100 · 3 capas"}},{"type":"Feature","geometry":{"type":"Polygon","coordinates":[[[2.16,41.400000000000006],[2.172,41.400000000000006],[2.172,41.412000000000006],[2.16,41.412000000000006],[2.16,41.400000000000006]]]},"properties":{"id":"barcelona-idx-060","injustice":0.26,"green":0.34,"service":0,"housing":0.45,"detail":"exclusión 26/100 · 3 capas"}},{"type":"Feature","geometry":{"type":"Polygon","coordinates":[[[2.172,41.400000000000006],[2.184,41.400000000000006],[2.184,41.412000000000006],[2.172,41.412000000000006],[2.172,41.400000000000006]]]},"properties":{"id":"barcelona-idx-061","injustice":0.27,"green":0.36,"service":0,"housing":0.46,"detail":"exclusión 27/100 · 3 capas"}},{"type":"Feature","geometry":{"type":"Polygon","coordinates":[[[2.184,41.400000000000006],[2.196,41.400000000000006],[2.196,41.412000000000006],[2.184,41.412000000000006],[2.184,41.400000000000006]]]},"properties":{"id":"barcelona-idx-062","injustice":0.24,"green":0.35,"service":0,"housing":0.36,"detail":"exclusión 24/100 · 3 capas"}},{"type":"Feature","geometry":{"type":"Polygon","coordinates":[[[2.196,41.400000000000006],[2.208,41.400000000000006],[2.208,41.412000000000006],[2.196,41.412000000000006],[2.196,41.400000000000006]]]},"properties":{"id":"barcelona-idx-063","injustice":0.31,"green":0.29,"service":0,"housing":0.65,"detail":"exclusión 31/100 · 3 capas"}},{"type":"Feature","geometry":{"type":"Polygon","coordinates":[[[2.208,41.400000000000006],[2.22,41.400000000000006],[2.22,41.412000000000006],[2.208,41.412000000000006],[2.208,41.400000000000006]]]},"properties":{"id":"barcelona-idx-064","injustice":0.36,"green":0.21,"service":0,"housing":0.88,"detail":"exclusión 36/100 · 3 capas"}},{"type":"Feature","geometry":{"type":"Polygon","coordinates":[[[2.22,41.400000000000006],[2.232,41.400000000000006],[2.232,41.412000000000006],[2.22,41.412000000000006],[2.22,41.400000000000006]]]},"properties":{"id":"barcelona-idx-065","injustice":0.52,"green":0.4,"service":0.75,"housing":0.41,"detail":"exclusión 52/100 · 3 capas"}},{"type":"Feature","geometry":{"type":"Polygon","coordinates":[[[2.1,41.412000000000006],[2.112,41.412000000000006],[2.112,41.42400000000001],[2.1,41.42400000000001],[2.1,41.412000000000006]]]},"properties":{"id":"barcelona-idx-066","injustice":0.33,"green":0.67,"service":0,"housing":0.32,"detail":"exclusión 33/100 · 3 capas"}},{"type":"Feature","geometry":{"type":"Polygon","coordinates":[[[2.112,41.412000000000006],[2.124,41.412000000000006],[2.124,41.42400000000001],[2.112,41.42400000000001],[2.112,41.412000000000006]]]},"properties":{"id":"barcelona-idx-067","injustice":0.54,"green":0.55,"service":0.75,"housing":0.32,"detail":"exclusión 54/100 · 3 capas"}},{"type":"Feature","geometry":{"type":"Polygon","coordinates":[[[2.124,41.412000000000006],[2.136,41.412000000000006],[2.136,41.42400000000001],[2.124,41.42400000000001],[2.124,41.412000000000006]]]},"properties":{"id":"barcelona-idx-068","injustice":0.34,"green":0.28,"service":0.25,"housing":0.49,"detail":"exclusión 34/100 · 3 capas"}},{"type":"Feature","geometry":{"type":"Polygon","coordinates":[[[2.136,41.412000000000006],[2.148,41.412000000000006],[2.148,41.42400000000001],[2.136,41.42400000000001],[2.136,41.412000000000006]]]},"properties":{"id":"barcelona-idx-069","injustice":0.25,"green":0.29,"service":0,"housing":0.46,"detail":"exclusión 25/100 · 3 capas"}},{"type":"Feature","geometry":{"type":"Polygon","coordinates":[[[2.148,41.412000000000006],[2.16,41.412000000000006],[2.16,41.42400000000001],[2.148,41.42400000000001],[2.148,41.412000000000006]]]},"properties":{"id":"barcelona-idx-070","injustice":0.24,"green":0.4,"service":0,"housing":0.32,"detail":"exclusión 24/100 · 3 capas"}},{"type":"Feature","geometry":{"type":"Polygon","coordinates":[[[2.16,41.412000000000006],[2.172,41.412000000000006],[2.172,41.42400000000001],[2.16,41.42400000000001],[2.16,41.412000000000006]]]},"properties":{"id":"barcelona-idx-071","injustice":0.3,"green":0.49,"service":0,"housing":0.42,"detail":"exclusión 30/100 · 3 capas"}},{"type":"Feature","geometry":{"type":"Polygon","coordinates":[[[2.172,41.412000000000006],[2.184,41.412000000000006],[2.184,41.42400000000001],[2.172,41.42400000000001],[2.172,41.412000000000006]]]},"properties":{"id":"barcelona-idx-072","injustice":0.3,"green":0.44,"service":0,"housing":0.45,"detail":"exclusión 30/100 · 3 capas"}},{"type":"Feature","geometry":{"type":"Polygon","coordinates":[[[2.184,41.412000000000006],[2.196,41.412000000000006],[2.196,41.42400000000001],[2.184,41.42400000000001],[2.184,41.412000000000006]]]},"properties":{"id":"barcelona-idx-073","injustice":0.2,"green":0.26,"service":0,"housing":0.35,"detail":"exclusión 20/100 · 3 capas"}},{"type":"Feature","geometry":{"type":"Polygon","coordinates":[[[2.196,41.412000000000006],[2.208,41.412000000000006],[2.208,41.42400000000001],[2.196,41.42400000000001],[2.196,41.412000000000006]]]},"properties":{"id":"barcelona-idx-074","injustice":0.18,"green":0.33,"service":0,"housing":0.21,"detail":"exclusión 18/100 · 3 capas"}},{"type":"Feature","geometry":{"type":"Polygon","coordinates":[[[2.208,41.412000000000006],[2.22,41.412000000000006],[2.22,41.42400000000001],[2.208,41.42400000000001],[2.208,41.412000000000006]]]},"properties":{"id":"barcelona-idx-075","injustice":0.22,"green":0.34,"service":0,"housing":0.32,"detail":"exclusión 22/100 · 3 capas"}},{"type":"Feature","geometry":{"type":"Polygon","coordinates":[[[2.124,41.42400000000001],[2.136,41.42400000000001],[2.136,41.43600000000001],[2.124,41.43600000000001],[2.124,41.42400000000001]]]},"properties":{"id":"barcelona-idx-079","injustice":0.29,"green":0.59,"service":0,"housing":0.27,"detail":"exclusión 29/100 · 3 capas"}},{"type":"Feature","geometry":{"type":"Polygon","coordinates":[[[2.136,41.42400000000001],[2.148,41.42400000000001],[2.148,41.43600000000001],[2.136,41.43600000000001],[2.136,41.42400000000001]]]},"properties":{"id":"barcelona-idx-080","injustice":0.26,"green":0.4,"service":0,"housing":0.37,"detail":"exclusión 26/100 · 3 capas"}},{"type":"Feature","geometry":{"type":"Polygon","coordinates":[[[2.16,41.42400000000001],[2.172,41.42400000000001],[2.172,41.43600000000001],[2.16,41.43600000000001],[2.16,41.42400000000001]]]},"properties":{"id":"barcelona-idx-082","injustice":0.25,"green":0.41,"service":0,"housing":0.33,"detail":"exclusión 25/100 · 3 capas"}},{"type":"Feature","geometry":{"type":"Polygon","coordinates":[[[2.172,41.42400000000001],[2.184,41.42400000000001],[2.184,41.43600000000001],[2.172,41.43600000000001],[2.172,41.42400000000001]]]},"properties":{"id":"barcelona-idx-083","injustice":0.13,"green":0.09,"service":0,"housing":0.31,"detail":"exclusión 13/100 · 3 capas"}},{"type":"Feature","geometry":{"type":"Polygon","coordinates":[[[2.184,41.42400000000001],[2.196,41.42400000000001],[2.196,41.43600000000001],[2.184,41.43600000000001],[2.184,41.42400000000001]]]},"properties":{"id":"barcelona-idx-084","injustice":0.26,"green":0.48,"service":0,"housing":0.3,"detail":"exclusión 26/100 · 3 capas"}},{"type":"Feature","geometry":{"type":"Polygon","coordinates":[[[2.196,41.42400000000001],[2.208,41.42400000000001],[2.208,41.43600000000001],[2.196,41.43600000000001],[2.196,41.42400000000001]]]},"properties":{"id":"barcelona-idx-085","injustice":0.26,"green":0.43,"service":0,"housing":0.34,"detail":"exclusión 26/100 · 3 capas"}},{"type":"Feature","geometry":{"type":"Polygon","coordinates":[[[2.124,41.43600000000001],[2.136,41.43600000000001],[2.136,41.44800000000001],[2.124,41.44800000000001],[2.124,41.43600000000001]]]},"properties":{"id":"barcelona-idx-090","injustice":0.78,"green":0.93,"service":1,"housing":0.4,"detail":"exclusión 78/100 · 3 capas"}},{"type":"Feature","geometry":{"type":"Polygon","coordinates":[[[2.136,41.43600000000001],[2.148,41.43600000000001],[2.148,41.44800000000001],[2.136,41.44800000000001],[2.136,41.43600000000001]]]},"properties":{"id":"barcelona-idx-091","injustice":0.42,"green":0.66,"service":0.25,"housing":0.35,"detail":"exclusión 42/100 · 3 capas"}},{"type":"Feature","geometry":{"type":"Polygon","coordinates":[[[2.148,41.43600000000001],[2.16,41.43600000000001],[2.16,41.44800000000001],[2.148,41.44800000000001],[2.148,41.43600000000001]]]},"properties":{"id":"barcelona-idx-092","injustice":0.28,"green":0.5,"service":0,"housing":0.35,"detail":"exclusión 28/100 · 3 capas"}},{"type":"Feature","geometry":{"type":"Polygon","coordinates":[[[2.16,41.43600000000001],[2.172,41.43600000000001],[2.172,41.44800000000001],[2.16,41.44800000000001],[2.16,41.43600000000001]]]},"properties":{"id":"barcelona-idx-093","injustice":0.25,"green":0.5,"service":0,"housing":0.24,"detail":"exclusión 25/100 · 3 capas"}},{"type":"Feature","geometry":{"type":"Polygon","coordinates":[[[2.172,41.43600000000001],[2.184,41.43600000000001],[2.184,41.44800000000001],[2.172,41.44800000000001],[2.172,41.43600000000001]]]},"properties":{"id":"barcelona-idx-094","injustice":0.3,"green":0.5,"service":0,"housing":0.39,"detail":"exclusión 30/100 · 3 capas"}},{"type":"Feature","geometry":{"type":"Polygon","coordinates":[[[2.184,41.43600000000001],[2.196,41.43600000000001],[2.196,41.44800000000001],[2.184,41.44800000000001],[2.184,41.43600000000001]]]},"properties":{"id":"barcelona-idx-095","injustice":0.3,"green":0.5,"service":0,"housing":0.39,"detail":"exclusión 30/100 · 3 capas"}},{"type":"Feature","geometry":{"type":"Polygon","coordinates":[[[2.196,41.43600000000001],[2.208,41.43600000000001],[2.208,41.44800000000001],[2.196,41.44800000000001],[2.196,41.43600000000001]]]},"properties":{"id":"barcelona-idx-096","injustice":0.28,"green":0.52,"service":0,"housing":0.31,"detail":"exclusión 28/100 · 3 capas"}},{"type":"Feature","geometry":{"type":"Polygon","coordinates":[[[2.16,41.44800000000001],[2.172,41.44800000000001],[2.172,41.46000000000001],[2.16,41.46000000000001],[2.16,41.44800000000001]]]},"properties":{"id":"barcelona-idx-104","injustice":0.52,"green":0.79,"service":0.75,"housing":0.03,"detail":"exclusión 52/100 · 3 capas"}},{"type":"Feature","geometry":{"type":"Polygon","coordinates":[[[2.184,41.44800000000001],[2.196,41.44800000000001],[2.196,41.46000000000001],[2.184,41.46000000000001],[2.184,41.44800000000001]]]},"properties":{"id":"barcelona-idx-106","injustice":0.31,"green":0.7,"service":0,"housing":0.23,"detail":"exclusión 31/100 · 3 capas"}}]}
