{
  "type": "FeatureCollection",
  "name": "Barcelona · déficit de servicios a 15 min (MUESTRA ilustrativa)",
  "_comment": "service_deficit 0..1 (0 = todo a 15 min a pie; 1 = desierto de servicios) inventado para maquetar la capa de servicios. Sustituir por cálculo real (POIs OSM: salud/educación/comercio/transporte) en el pipeline. NO usar como dato.",
  "features": [
    { "type": "Feature", "properties": { "barrio": "Zona A", "service_deficit": 0.66, "detail": "lejos de salud y transporte" }, "geometry": { "type": "Polygon", "coordinates": [[[2.155,41.378],[2.175,41.378],[2.175,41.398],[2.155,41.398],[2.155,41.378]]] } },
    { "type": "Feature", "properties": { "barrio": "Zona B", "service_deficit": 0.18, "detail": "bien servida" }, "geometry": { "type": "Polygon", "coordinates": [[[2.175,41.378],[2.195,41.378],[2.195,41.398],[2.175,41.398],[2.175,41.378]]] } },
    { "type": "Feature", "properties": { "barrio": "Zona C", "service_deficit": 0.41, "detail": "comercio sí, salud lejos" }, "geometry": { "type": "Polygon", "coordinates": [[[2.155,41.398],[2.175,41.398],[2.175,41.418],[2.155,41.418],[2.155,41.398]]] } },
    { "type": "Feature", "properties": { "barrio": "Zona D", "service_deficit": 0.29, "detail": "transporte cercano" }, "geometry": { "type": "Polygon", "coordinates": [[[2.175,41.398],[2.195,41.398],[2.195,41.418],[2.175,41.418],[2.175,41.398]]] } },
    { "type": "Feature", "properties": { "barrio": "Zona E", "service_deficit": 0.78, "detail": "periferia mal conectada" }, "geometry": { "type": "Polygon", "coordinates": [[[2.195,41.378],[2.215,41.378],[2.215,41.398],[2.195,41.398],[2.195,41.378]]] } },
    { "type": "Feature", "properties": { "barrio": "Zona F", "service_deficit": 0.52, "detail": "déficit de salud" }, "geometry": { "type": "Polygon", "coordinates": [[[2.195,41.398],[2.215,41.398],[2.215,41.418],[2.195,41.418],[2.195,41.398]]] } }
  ]
}
