{"type":"FeatureCollection","name":"Córdoba · índice combinado de exclusión (verde + servicios + vivienda)","_generated":{"source":"ingest-index.mjs","city":"cordoba","layers":["green","service","rent"],"note":"objetivas; sin capa hostil (review C2)"},"features":[{"type":"Feature","geometry":{"type":"Polygon","coordinates":[[[-4.8100000000000005,37.855],[-4.800000000000001,37.855],[-4.800000000000001,37.864999999999995],[-4.8100000000000005,37.864999999999995],[-4.8100000000000005,37.855]]]},"properties":{"id":"cordoba-idx-002","injustice":0.7,"green":0.97,"service":0.75,"housing":0.37,"detail":"exclusión 70/100 · 3 capas"}},{"type":"Feature","geometry":{"type":"Polygon","coordinates":[[[-4.800000000000001,37.855],[-4.790000000000001,37.855],[-4.790000000000001,37.864999999999995],[-4.800000000000001,37.864999999999995],[-4.800000000000001,37.855]]]},"properties":{"id":"cordoba-idx-003","injustice":0.44,"green":0.71,"service":0.25,"housing":0.37,"detail":"exclusión 44/100 · 3 capas"}},{"type":"Feature","geometry":{"type":"Polygon","coordinates":[[[-4.790000000000001,37.855],[-4.780000000000001,37.855],[-4.780000000000001,37.864999999999995],[-4.790000000000001,37.864999999999995],[-4.790000000000001,37.855]]]},"properties":{"id":"cordoba-idx-004","injustice":0.31,"green":0.43,"service":0.25,"housing":0.25,"detail":"exclusión 31/100 · 3 capas"}},{"type":"Feature","geometry":{"type":"Polygon","coordinates":[[[-4.750000000000002,37.855],[-4.740000000000002,37.855],[-4.740000000000002,37.864999999999995],[-4.750000000000002,37.864999999999995],[-4.750000000000002,37.855]]]},"properties":{"id":"cordoba-idx-008","injustice":0.84,"green":1,"service":1,"housing":0.53,"detail":"exclusión 84/100 · 3 capas"}},{"type":"Feature","geometry":{"type":"Polygon","coordinates":[[[-4.82,37.864999999999995],[-4.8100000000000005,37.864999999999995],[-4.8100000000000005,37.87499999999999],[-4.82,37.87499999999999],[-4.82,37.864999999999995]]]},"properties":{"id":"cordoba-idx-010","injustice":0.71,"green":1,"service":0.75,"housing":0.37,"detail":"exclusión 71/100 · 3 capas"}},{"type":"Feature","geometry":{"type":"Polygon","coordinates":[[[-4.8100000000000005,37.864999999999995],[-4.800000000000001,37.864999999999995],[-4.800000000000001,37.87499999999999],[-4.8100000000000005,37.87499999999999],[-4.8100000000000005,37.864999999999995]]]},"properties":{"id":"cordoba-idx-011","injustice":0.44,"green":0.69,"service":0.25,"housing":0.37,"detail":"exclusión 44/100 · 3 capas"}},{"type":"Feature","geometry":{"type":"Polygon","coordinates":[[[-4.800000000000001,37.864999999999995],[-4.790000000000001,37.864999999999995],[-4.790000000000001,37.87499999999999],[-4.800000000000001,37.87499999999999],[-4.800000000000001,37.864999999999995]]]},"properties":{"id":"cordoba-idx-012","injustice":0.33,"green":0.37,"service":0.25,"housing":0.37,"detail":"exclusión 33/100 · 3 capas"}},{"type":"Feature","geometry":{"type":"Polygon","coordinates":[[[-4.790000000000001,37.864999999999995],[-4.780000000000001,37.864999999999995],[-4.780000000000001,37.87499999999999],[-4.790000000000001,37.87499999999999],[-4.790000000000001,37.864999999999995]]]},"properties":{"id":"cordoba-idx-013","injustice":0.18,"green":0.02,"service":0,"housing":0.53,"detail":"exclusión 18/100 · 3 capas"}},{"type":"Feature","geometry":{"type":"Polygon","coordinates":[[[-4.770000000000001,37.864999999999995],[-4.760000000000002,37.864999999999995],[-4.760000000000002,37.87499999999999],[-4.770000000000001,37.87499999999999],[-4.770000000000001,37.864999999999995]]]},"properties":{"id":"cordoba-idx-015","injustice":0.39,"green":0.65,"service":0,"housing":0.53,"detail":"exclusión 39/100 · 3 capas"}},{"type":"Feature","geometry":{"type":"Polygon","coordinates":[[[-4.760000000000002,37.864999999999995],[-4.750000000000002,37.864999999999995],[-4.750000000000002,37.87499999999999],[-4.760000000000002,37.87499999999999],[-4.760000000000002,37.864999999999995]]]},"properties":{"id":"cordoba-idx-016","injustice":0.84,"green":0.98,"service":1,"housing":0.53,"detail":"exclusión 84/100 · 3 capas"}},{"type":"Feature","geometry":{"type":"Polygon","coordinates":[[[-4.750000000000002,37.864999999999995],[-4.740000000000002,37.864999999999995],[-4.740000000000002,37.87499999999999],[-4.750000000000002,37.87499999999999],[-4.750000000000002,37.864999999999995]]]},"properties":{"id":"cordoba-idx-017","injustice":0.84,"green":1,"service":1,"housing":0.53,"detail":"exclusión 84/100 · 3 capas"}},{"type":"Feature","geometry":{"type":"Polygon","coordinates":[[[-4.83,37.87499999999999],[-4.82,37.87499999999999],[-4.82,37.88499999999999],[-4.83,37.88499999999999],[-4.83,37.87499999999999]]]},"properties":{"id":"cordoba-idx-018","injustice":0.41,"green":0.78,"service":0.25,"housing":0.21,"detail":"exclusión 41/100 · 3 capas"}},{"type":"Feature","geometry":{"type":"Polygon","coordinates":[[[-4.82,37.87499999999999],[-4.8100000000000005,37.87499999999999],[-4.8100000000000005,37.88499999999999],[-4.82,37.88499999999999],[-4.82,37.87499999999999]]]},"properties":{"id":"cordoba-idx-019","injustice":0.31,"green":0.53,"service":0,"housing":0.39,"detail":"exclusión 31/100 · 3 capas"}},{"type":"Feature","geometry":{"type":"Polygon","coordinates":[[[-4.8100000000000005,37.87499999999999],[-4.800000000000001,37.87499999999999],[-4.800000000000001,37.88499999999999],[-4.8100000000000005,37.88499999999999],[-4.8100000000000005,37.87499999999999]]]},"properties":{"id":"cordoba-idx-020","injustice":0.27,"green":0.45,"service":0,"housing":0.37,"detail":"exclusión 27/100 · 3 capas"}},{"type":"Feature","geometry":{"type":"Polygon","coordinates":[[[-4.800000000000001,37.87499999999999],[-4.790000000000001,37.87499999999999],[-4.790000000000001,37.88499999999999],[-4.800000000000001,37.88499999999999],[-4.800000000000001,37.87499999999999]]]},"properties":{"id":"cordoba-idx-021","injustice":0.3,"green":0.41,"service":0,"housing":0.49,"detail":"exclusión 30/100 · 3 capas"}},{"type":"Feature","geometry":{"type":"Polygon","coordinates":[[[-4.790000000000001,37.87499999999999],[-4.780000000000001,37.87499999999999],[-4.780000000000001,37.88499999999999],[-4.790000000000001,37.88499999999999],[-4.790000000000001,37.87499999999999]]]},"properties":{"id":"cordoba-idx-022","injustice":0.23,"green":0.33,"service":0,"housing":0.35,"detail":"exclusión 23/100 · 3 capas"}},{"type":"Feature","geometry":{"type":"Polygon","coordinates":[[[-4.780000000000001,37.87499999999999],[-4.770000000000001,37.87499999999999],[-4.770000000000001,37.88499999999999],[-4.780000000000001,37.88499999999999],[-4.780000000000001,37.87499999999999]]]},"properties":{"id":"cordoba-idx-023","injustice":0.36,"green":0.44,"service":0,"housing":0.65,"detail":"exclusión 36/100 · 3 capas"}},{"type":"Feature","geometry":{"type":"Polygon","coordinates":[[[-4.770000000000001,37.87499999999999],[-4.760000000000002,37.87499999999999],[-4.760000000000002,37.88499999999999],[-4.770000000000001,37.88499999999999],[-4.770000000000001,37.87499999999999]]]},"properties":{"id":"cordoba-idx-024","injustice":0.25,"green":0.41,"service":0,"housing":0.34,"detail":"exclusión 25/100 · 3 capas"}},{"type":"Feature","geometry":{"type":"Polygon","coordinates":[[[-4.760000000000002,37.87499999999999],[-4.750000000000002,37.87499999999999],[-4.750000000000002,37.88499999999999],[-4.760000000000002,37.88499999999999],[-4.760000000000002,37.87499999999999]]]},"properties":{"id":"cordoba-idx-025","injustice":0.36,"green":0.56,"service":0,"housing":0.53,"detail":"exclusión 36/100 · 3 capas"}},{"type":"Feature","geometry":{"type":"Polygon","coordinates":[[[-4.750000000000002,37.87499999999999],[-4.740000000000002,37.87499999999999],[-4.740000000000002,37.88499999999999],[-4.750000000000002,37.88499999999999],[-4.750000000000002,37.87499999999999]]]},"properties":{"id":"cordoba-idx-026","injustice":0.78,"green":0.81,"service":1,"housing":0.53,"detail":"exclusión 78/100 · 3 capas"}},{"type":"Feature","geometry":{"type":"Polygon","coordinates":[[[-4.83,37.88499999999999],[-4.82,37.88499999999999],[-4.82,37.89499999999999],[-4.83,37.89499999999999],[-4.83,37.88499999999999]]]},"properties":{"id":"cordoba-idx-027","injustice":0.83,"green":0.92,"service":0.75,"housing":0.81,"detail":"exclusión 83/100 · 3 capas"}},{"type":"Feature","geometry":{"type":"Polygon","coordinates":[[[-4.82,37.88499999999999],[-4.8100000000000005,37.88499999999999],[-4.8100000000000005,37.89499999999999],[-4.82,37.89499999999999],[-4.82,37.88499999999999]]]},"properties":{"id":"cordoba-idx-028","injustice":0.44,"green":0.51,"service":0,"housing":0.81,"detail":"exclusión 44/100 · 3 capas"}},{"type":"Feature","geometry":{"type":"Polygon","coordinates":[[[-4.8100000000000005,37.88499999999999],[-4.800000000000001,37.88499999999999],[-4.800000000000001,37.89499999999999],[-4.8100000000000005,37.89499999999999],[-4.8100000000000005,37.88499999999999]]]},"properties":{"id":"cordoba-idx-029","injustice":0.34,"green":0.44,"service":0,"housing":0.58,"detail":"exclusión 34/100 · 3 capas"}},{"type":"Feature","geometry":{"type":"Polygon","coordinates":[[[-4.800000000000001,37.88499999999999],[-4.790000000000001,37.88499999999999],[-4.790000000000001,37.89499999999999],[-4.800000000000001,37.89499999999999],[-4.800000000000001,37.88499999999999]]]},"properties":{"id":"cordoba-idx-030","injustice":0.31,"green":0.43,"service":0,"housing":0.5,"detail":"exclusión 31/100 · 3 capas"}},{"type":"Feature","geometry":{"type":"Polygon","coordinates":[[[-4.790000000000001,37.88499999999999],[-4.780000000000001,37.88499999999999],[-4.780000000000001,37.89499999999999],[-4.790000000000001,37.89499999999999],[-4.790000000000001,37.88499999999999]]]},"properties":{"id":"cordoba-idx-031","injustice":0.33,"green":0.4,"service":0,"housing":0.6,"detail":"exclusión 33/100 · 3 capas"}},{"type":"Feature","geometry":{"type":"Polygon","coordinates":[[[-4.780000000000001,37.88499999999999],[-4.770000000000001,37.88499999999999],[-4.770000000000001,37.89499999999999],[-4.780000000000001,37.89499999999999],[-4.780000000000001,37.88499999999999]]]},"properties":{"id":"cordoba-idx-032","injustice":0.29,"green":0.46,"service":0,"housing":0.42,"detail":"exclusión 29/100 · 3 capas"}},{"type":"Feature","geometry":{"type":"Polygon","coordinates":[[[-4.770000000000001,37.88499999999999],[-4.760000000000002,37.88499999999999],[-4.760000000000002,37.89499999999999],[-4.770000000000001,37.89499999999999],[-4.770000000000001,37.88499999999999]]]},"properties":{"id":"cordoba-idx-033","injustice":0.29,"green":0.45,"service":0,"housing":0.43,"detail":"exclusión 29/100 · 3 capas"}},{"type":"Feature","geometry":{"type":"Polygon","coordinates":[[[-4.760000000000002,37.88499999999999],[-4.750000000000002,37.88499999999999],[-4.750000000000002,37.89499999999999],[-4.760000000000002,37.89499999999999],[-4.760000000000002,37.88499999999999]]]},"properties":{"id":"cordoba-idx-034","injustice":0.19,"green":0.42,"service":0,"housing":0.14,"detail":"exclusión 19/100 · 3 capas"}},{"type":"Feature","geometry":{"type":"Polygon","coordinates":[[[-4.750000000000002,37.88499999999999],[-4.740000000000002,37.88499999999999],[-4.740000000000002,37.89499999999999],[-4.750000000000002,37.89499999999999],[-4.750000000000002,37.88499999999999]]]},"properties":{"id":"cordoba-idx-035","injustice":0.37,"green":0.58,"service":0,"housing":0.53,"detail":"exclusión 37/100 · 3 capas"}},{"type":"Feature","geometry":{"type":"Polygon","coordinates":[[[-4.83,37.89499999999999],[-4.82,37.89499999999999],[-4.82,37.90499999999999],[-4.83,37.90499999999999],[-4.83,37.89499999999999]]]},"properties":{"id":"cordoba-idx-036","injustice":0.93,"green":0.98,"service":1,"housing":0.81,"detail":"exclusión 93/100 · 3 capas"}},{"type":"Feature","geometry":{"type":"Polygon","coordinates":[[[-4.8100000000000005,37.89499999999999],[-4.800000000000001,37.89499999999999],[-4.800000000000001,37.90499999999999],[-4.8100000000000005,37.90499999999999],[-4.8100000000000005,37.89499999999999]]]},"properties":{"id":"cordoba-idx-038","injustice":0.58,"green":0.49,"service":0.25,"housing":1,"detail":"exclusión 58/100 · 3 capas"}},{"type":"Feature","geometry":{"type":"Polygon","coordinates":[[[-4.790000000000001,37.89499999999999],[-4.780000000000001,37.89499999999999],[-4.780000000000001,37.90499999999999],[-4.790000000000001,37.90499999999999],[-4.790000000000001,37.89499999999999]]]},"properties":{"id":"cordoba-idx-040","injustice":0.27,"green":0.38,"service":0,"housing":0.43,"detail":"exclusión 27/100 · 3 capas"}},{"type":"Feature","geometry":{"type":"Polygon","coordinates":[[[-4.780000000000001,37.89499999999999],[-4.770000000000001,37.89499999999999],[-4.770000000000001,37.90499999999999],[-4.780000000000001,37.90499999999999],[-4.780000000000001,37.89499999999999]]]},"properties":{"id":"cordoba-idx-041","injustice":0.38,"green":0.47,"service":0,"housing":0.66,"detail":"exclusión 38/100 · 3 capas"}},{"type":"Feature","geometry":{"type":"Polygon","coordinates":[[[-4.770000000000001,37.89499999999999],[-4.760000000000002,37.89499999999999],[-4.760000000000002,37.90499999999999],[-4.770000000000001,37.90499999999999],[-4.770000000000001,37.89499999999999]]]},"properties":{"id":"cordoba-idx-042","injustice":0.37,"green":0.46,"service":0,"housing":0.66,"detail":"exclusión 37/100 · 3 capas"}},{"type":"Feature","geometry":{"type":"Polygon","coordinates":[[[-4.760000000000002,37.89499999999999],[-4.750000000000002,37.89499999999999],[-4.750000000000002,37.90499999999999],[-4.760000000000002,37.90499999999999],[-4.760000000000002,37.89499999999999]]]},"properties":{"id":"cordoba-idx-043","injustice":0.25,"green":0.45,"service":0,"housing":0.31,"detail":"exclusión 25/100 · 3 capas"}}]}
