{"type":"FeatureCollection","name":"Córdoba · déficit de verde (OSM real)","_generated":{"source":"ingest-osm.mjs","city":"cordoba","rule":"3-30-300","greens":1152,"real":true,"canopy":"proxy OSM (pendiente NDVI/Urban Atlas)"},"features":[{"type":"Feature","geometry":{"type":"Polygon","coordinates":[[[-4.83,37.855],[-4.82,37.855],[-4.82,37.864999999999995],[-4.83,37.864999999999995],[-4.83,37.855]]]},"properties":{"id":"cordoba-000","green_cover_pct":0,"green_within_300m":0,"green_deficit_score":1,"detail":"0% verde · 0% a <300 m","canopy_proxy":true}},{"type":"Feature","geometry":{"type":"Polygon","coordinates":[[[-4.82,37.855],[-4.8100000000000005,37.855],[-4.8100000000000005,37.864999999999995],[-4.82,37.864999999999995],[-4.82,37.855]]]},"properties":{"id":"cordoba-001","green_cover_pct":0,"green_within_300m":0,"green_deficit_score":1,"detail":"0% verde · 0% a <300 m","canopy_proxy":true}},{"type":"Feature","geometry":{"type":"Polygon","coordinates":[[[-4.8100000000000005,37.855],[-4.800000000000001,37.855],[-4.800000000000001,37.864999999999995],[-4.8100000000000005,37.864999999999995],[-4.8100000000000005,37.855]]]},"properties":{"id":"cordoba-002","green_cover_pct":0,"green_within_300m":0,"green_deficit_score":1,"detail":"0% verde · 0% a <300 m","canopy_proxy":true}},{"type":"Feature","geometry":{"type":"Polygon","coordinates":[[[-4.800000000000001,37.855],[-4.790000000000001,37.855],[-4.790000000000001,37.864999999999995],[-4.800000000000001,37.864999999999995],[-4.800000000000001,37.855]]]},"properties":{"id":"cordoba-003","green_cover_pct":0.7,"green_within_300m":0.53,"green_deficit_score":0.72,"detail":"1% verde · 53% a <300 m","canopy_proxy":true}},{"type":"Feature","geometry":{"type":"Polygon","coordinates":[[[-4.790000000000001,37.855],[-4.780000000000001,37.855],[-4.780000000000001,37.864999999999995],[-4.790000000000001,37.864999999999995],[-4.790000000000001,37.855]]]},"properties":{"id":"cordoba-004","green_cover_pct":6.6,"green_within_300m":1,"green_deficit_score":0.39,"detail":"7% verde · 100% a <300 m","canopy_proxy":true}},{"type":"Feature","geometry":{"type":"Polygon","coordinates":[[[-4.780000000000001,37.855],[-4.770000000000001,37.855],[-4.770000000000001,37.864999999999995],[-4.780000000000001,37.864999999999995],[-4.780000000000001,37.855]]]},"properties":{"id":"cordoba-005","green_cover_pct":4,"green_within_300m":0.77,"green_deficit_score":0.55,"detail":"4% verde · 77% a <300 m","canopy_proxy":true}},{"type":"Feature","geometry":{"type":"Polygon","coordinates":[[[-4.770000000000001,37.855],[-4.760000000000002,37.855],[-4.760000000000002,37.864999999999995],[-4.770000000000001,37.864999999999995],[-4.770000000000001,37.855]]]},"properties":{"id":"cordoba-006","green_cover_pct":0,"green_within_300m":0,"green_deficit_score":1,"detail":"0% verde · 0% a <300 m","canopy_proxy":true}},{"type":"Feature","geometry":{"type":"Polygon","coordinates":[[[-4.760000000000002,37.855],[-4.750000000000002,37.855],[-4.750000000000002,37.864999999999995],[-4.760000000000002,37.864999999999995],[-4.760000000000002,37.855]]]},"properties":{"id":"cordoba-007","green_cover_pct":0,"green_within_300m":0,"green_deficit_score":1,"detail":"0% verde · 0% a <300 m","canopy_proxy":true}},{"type":"Feature","geometry":{"type":"Polygon","coordinates":[[[-4.750000000000002,37.855],[-4.740000000000002,37.855],[-4.740000000000002,37.864999999999995],[-4.750000000000002,37.864999999999995],[-4.750000000000002,37.855]]]},"properties":{"id":"cordoba-008","green_cover_pct":0,"green_within_300m":0,"green_deficit_score":1,"detail":"0% verde · 0% a <300 m","canopy_proxy":true}},{"type":"Feature","geometry":{"type":"Polygon","coordinates":[[[-4.83,37.864999999999995],[-4.82,37.864999999999995],[-4.82,37.87499999999999],[-4.83,37.87499999999999],[-4.83,37.864999999999995]]]},"properties":{"id":"cordoba-009","green_cover_pct":0,"green_within_300m":0,"green_deficit_score":1,"detail":"0% verde · 0% a <300 m","canopy_proxy":true}},{"type":"Feature","geometry":{"type":"Polygon","coordinates":[[[-4.82,37.864999999999995],[-4.8100000000000005,37.864999999999995],[-4.8100000000000005,37.87499999999999],[-4.82,37.87499999999999],[-4.82,37.864999999999995]]]},"properties":{"id":"cordoba-010","green_cover_pct":0,"green_within_300m":0,"green_deficit_score":1,"detail":"0% verde · 0% a <300 m","canopy_proxy":true}},{"type":"Feature","geometry":{"type":"Polygon","coordinates":[[[-4.8100000000000005,37.864999999999995],[-4.800000000000001,37.864999999999995],[-4.800000000000001,37.87499999999999],[-4.8100000000000005,37.87499999999999],[-4.8100000000000005,37.864999999999995]]]},"properties":{"id":"cordoba-011","green_cover_pct":4,"green_within_300m":0.6,"green_deficit_score":0.63,"detail":"4% verde · 60% a <300 m","canopy_proxy":true}},{"type":"Feature","geometry":{"type":"Polygon","coordinates":[[[-4.800000000000001,37.864999999999995],[-4.790000000000001,37.864999999999995],[-4.790000000000001,37.87499999999999],[-4.800000000000001,37.87499999999999],[-4.800000000000001,37.864999999999995]]]},"properties":{"id":"cordoba-012","green_cover_pct":12.5,"green_within_300m":1,"green_deficit_score":0.29,"detail":"12% verde · 100% a <300 m","canopy_proxy":true}},{"type":"Feature","geometry":{"type":"Polygon","coordinates":[[[-4.790000000000001,37.864999999999995],[-4.780000000000001,37.864999999999995],[-4.780000000000001,37.87499999999999],[-4.790000000000001,37.87499999999999],[-4.790000000000001,37.864999999999995]]]},"properties":{"id":"cordoba-013","green_cover_pct":37.2,"green_within_300m":0.98,"green_deficit_score":0.01,"detail":"37% verde · 98% a <300 m","canopy_proxy":true}},{"type":"Feature","geometry":{"type":"Polygon","coordinates":[[[-4.780000000000001,37.864999999999995],[-4.770000000000001,37.864999999999995],[-4.770000000000001,37.87499999999999],[-4.780000000000001,37.87499999999999],[-4.780000000000001,37.864999999999995]]]},"properties":{"id":"cordoba-014","green_cover_pct":10.8,"green_within_300m":0.98,"green_deficit_score":0.33,"detail":"11% verde · 98% a <300 m","canopy_proxy":true}},{"type":"Feature","geometry":{"type":"Polygon","coordinates":[[[-4.770000000000001,37.864999999999995],[-4.760000000000002,37.864999999999995],[-4.760000000000002,37.87499999999999],[-4.770000000000001,37.87499999999999],[-4.770000000000001,37.864999999999995]]]},"properties":{"id":"cordoba-015","green_cover_pct":1,"green_within_300m":0.61,"green_deficit_score":0.68,"detail":"1% verde · 61% a <300 m","canopy_proxy":true}},{"type":"Feature","geometry":{"type":"Polygon","coordinates":[[[-4.760000000000002,37.864999999999995],[-4.750000000000002,37.864999999999995],[-4.750000000000002,37.87499999999999],[-4.760000000000002,37.87499999999999],[-4.760000000000002,37.864999999999995]]]},"properties":{"id":"cordoba-016","green_cover_pct":0,"green_within_300m":0.01,"green_deficit_score":1,"detail":"0% verde · 1% a <300 m","canopy_proxy":true}},{"type":"Feature","geometry":{"type":"Polygon","coordinates":[[[-4.750000000000002,37.864999999999995],[-4.740000000000002,37.864999999999995],[-4.740000000000002,37.87499999999999],[-4.750000000000002,37.87499999999999],[-4.750000000000002,37.864999999999995]]]},"properties":{"id":"cordoba-017","green_cover_pct":0,"green_within_300m":0,"green_deficit_score":1,"detail":"0% verde · 0% a <300 m","canopy_proxy":true}},{"type":"Feature","geometry":{"type":"Polygon","coordinates":[[[-4.83,37.87499999999999],[-4.82,37.87499999999999],[-4.82,37.88499999999999],[-4.83,37.88499999999999],[-4.83,37.87499999999999]]]},"properties":{"id":"cordoba-018","green_cover_pct":2.2,"green_within_300m":0.43,"green_deficit_score":0.75,"detail":"2% verde · 43% a <300 m","canopy_proxy":true}},{"type":"Feature","geometry":{"type":"Polygon","coordinates":[[[-4.82,37.87499999999999],[-4.8100000000000005,37.87499999999999],[-4.8100000000000005,37.88499999999999],[-4.82,37.88499999999999],[-4.82,37.87499999999999]]]},"properties":{"id":"cordoba-019","green_cover_pct":12.2,"green_within_300m":0.87,"green_deficit_score":0.36,"detail":"12% verde · 87% a <300 m","canopy_proxy":true}},{"type":"Feature","geometry":{"type":"Polygon","coordinates":[[[-4.8100000000000005,37.87499999999999],[-4.800000000000001,37.87499999999999],[-4.800000000000001,37.88499999999999],[-4.8100000000000005,37.88499999999999],[-4.8100000000000005,37.87499999999999]]]},"properties":{"id":"cordoba-020","green_cover_pct":7.9,"green_within_300m":0.89,"green_deficit_score":0.42,"detail":"8% verde · 89% a <300 m","canopy_proxy":true}},{"type":"Feature","geometry":{"type":"Polygon","coordinates":[[[-4.800000000000001,37.87499999999999],[-4.790000000000001,37.87499999999999],[-4.790000000000001,37.88499999999999],[-4.800000000000001,37.88499999999999],[-4.800000000000001,37.87499999999999]]]},"properties":{"id":"cordoba-021","green_cover_pct":11.1,"green_within_300m":1,"green_deficit_score":0.32,"detail":"11% verde · 100% a <300 m","canopy_proxy":true}},{"type":"Feature","geometry":{"type":"Polygon","coordinates":[[[-4.790000000000001,37.87499999999999],[-4.780000000000001,37.87499999999999],[-4.780000000000001,37.88499999999999],[-4.790000000000001,37.88499999999999],[-4.790000000000001,37.87499999999999]]]},"properties":{"id":"cordoba-022","green_cover_pct":19.2,"green_within_300m":1,"green_deficit_score":0.18,"detail":"19% verde · 100% a <300 m","canopy_proxy":true}},{"type":"Feature","geometry":{"type":"Polygon","coordinates":[[[-4.780000000000001,37.87499999999999],[-4.770000000000001,37.87499999999999],[-4.770000000000001,37.88499999999999],[-4.780000000000001,37.88499999999999],[-4.780000000000001,37.87499999999999]]]},"properties":{"id":"cordoba-023","green_cover_pct":16.9,"green_within_300m":1,"green_deficit_score":0.22,"detail":"17% verde · 100% a <300 m","canopy_proxy":true}},{"type":"Feature","geometry":{"type":"Polygon","coordinates":[[[-4.770000000000001,37.87499999999999],[-4.760000000000002,37.87499999999999],[-4.760000000000002,37.88499999999999],[-4.770000000000001,37.88499999999999],[-4.770000000000001,37.87499999999999]]]},"properties":{"id":"cordoba-024","green_cover_pct":8.7,"green_within_300m":1,"green_deficit_score":0.35,"detail":"9% verde · 100% a <300 m","canopy_proxy":true}},{"type":"Feature","geometry":{"type":"Polygon","coordinates":[[[-4.760000000000002,37.87499999999999],[-4.750000000000002,37.87499999999999],[-4.750000000000002,37.88499999999999],[-4.760000000000002,37.88499999999999],[-4.760000000000002,37.87499999999999]]]},"properties":{"id":"cordoba-025","green_cover_pct":6.6,"green_within_300m":0.71,"green_deficit_score":0.53,"detail":"7% verde · 71% a <300 m","canopy_proxy":true}},{"type":"Feature","geometry":{"type":"Polygon","coordinates":[[[-4.750000000000002,37.87499999999999],[-4.740000000000002,37.87499999999999],[-4.740000000000002,37.88499999999999],[-4.750000000000002,37.88499999999999],[-4.750000000000002,37.87499999999999]]]},"properties":{"id":"cordoba-026","green_cover_pct":1.6,"green_within_300m":0.28,"green_deficit_score":0.83,"detail":"2% verde · 28% a <300 m","canopy_proxy":true}},{"type":"Feature","geometry":{"type":"Polygon","coordinates":[[[-4.83,37.88499999999999],[-4.82,37.88499999999999],[-4.82,37.89499999999999],[-4.83,37.89499999999999],[-4.83,37.88499999999999]]]},"properties":{"id":"cordoba-027","green_cover_pct":0,"green_within_300m":0.16,"green_deficit_score":0.92,"detail":"0% verde · 16% a <300 m","canopy_proxy":true}},{"type":"Feature","geometry":{"type":"Polygon","coordinates":[[[-4.82,37.88499999999999],[-4.8100000000000005,37.88499999999999],[-4.8100000000000005,37.89499999999999],[-4.82,37.89499999999999],[-4.82,37.88499999999999]]]},"properties":{"id":"cordoba-028","green_cover_pct":7.3,"green_within_300m":0.95,"green_deficit_score":0.4,"detail":"7% verde · 95% a <300 m","canopy_proxy":true}},{"type":"Feature","geometry":{"type":"Polygon","coordinates":[[[-4.8100000000000005,37.88499999999999],[-4.800000000000001,37.88499999999999],[-4.800000000000001,37.89499999999999],[-4.8100000000000005,37.89499999999999],[-4.8100000000000005,37.88499999999999]]]},"properties":{"id":"cordoba-029","green_cover_pct":11.5,"green_within_300m":1,"green_deficit_score":0.31,"detail":"11% verde · 100% a <300 m","canopy_proxy":true}},{"type":"Feature","geometry":{"type":"Polygon","coordinates":[[[-4.800000000000001,37.88499999999999],[-4.790000000000001,37.88499999999999],[-4.790000000000001,37.89499999999999],[-4.800000000000001,37.89499999999999],[-4.800000000000001,37.88499999999999]]]},"properties":{"id":"cordoba-030","green_cover_pct":8.1,"green_within_300m":1,"green_deficit_score":0.36,"detail":"8% verde · 100% a <300 m","canopy_proxy":true}},{"type":"Feature","geometry":{"type":"Polygon","coordinates":[[[-4.790000000000001,37.88499999999999],[-4.780000000000001,37.88499999999999],[-4.780000000000001,37.89499999999999],[-4.790000000000001,37.89499999999999],[-4.790000000000001,37.88499999999999]]]},"properties":{"id":"cordoba-031","green_cover_pct":14.8,"green_within_300m":1,"green_deficit_score":0.25,"detail":"15% verde · 100% a <300 m","canopy_proxy":true}},{"type":"Feature","geometry":{"type":"Polygon","coordinates":[[[-4.780000000000001,37.88499999999999],[-4.770000000000001,37.88499999999999],[-4.770000000000001,37.89499999999999],[-4.780000000000001,37.89499999999999],[-4.780000000000001,37.88499999999999]]]},"properties":{"id":"cordoba-032","green_cover_pct":7.5,"green_within_300m":1,"green_deficit_score":0.37,"detail":"8% verde · 100% a <300 m","canopy_proxy":true}},{"type":"Feature","geometry":{"type":"Polygon","coordinates":[[[-4.770000000000001,37.88499999999999],[-4.760000000000002,37.88499999999999],[-4.760000000000002,37.89499999999999],[-4.770000000000001,37.89499999999999],[-4.770000000000001,37.88499999999999]]]},"properties":{"id":"cordoba-033","green_cover_pct":11.8,"green_within_300m":1,"green_deficit_score":0.3,"detail":"12% verde · 100% a <300 m","canopy_proxy":true}},{"type":"Feature","geometry":{"type":"Polygon","coordinates":[[[-4.760000000000002,37.88499999999999],[-4.750000000000002,37.88499999999999],[-4.750000000000002,37.89499999999999],[-4.760000000000002,37.89499999999999],[-4.760000000000002,37.88499999999999]]]},"properties":{"id":"cordoba-034","green_cover_pct":7.6,"green_within_300m":1,"green_deficit_score":0.38,"detail":"8% verde · 100% a <300 m","canopy_proxy":true}},{"type":"Feature","geometry":{"type":"Polygon","coordinates":[[[-4.750000000000002,37.88499999999999],[-4.740000000000002,37.88499999999999],[-4.740000000000002,37.89499999999999],[-4.750000000000002,37.89499999999999],[-4.750000000000002,37.88499999999999]]]},"properties":{"id":"cordoba-035","green_cover_pct":2.2,"green_within_300m":0.63,"green_deficit_score":0.65,"detail":"2% verde · 63% a <300 m","canopy_proxy":true}},{"type":"Feature","geometry":{"type":"Polygon","coordinates":[[[-4.83,37.89499999999999],[-4.82,37.89499999999999],[-4.82,37.90499999999999],[-4.83,37.90499999999999],[-4.83,37.89499999999999]]]},"properties":{"id":"cordoba-036","green_cover_pct":0,"green_within_300m":0,"green_deficit_score":1,"detail":"0% verde · 0% a <300 m","canopy_proxy":true}},{"type":"Feature","geometry":{"type":"Polygon","coordinates":[[[-4.82,37.89499999999999],[-4.8100000000000005,37.89499999999999],[-4.8100000000000005,37.90499999999999],[-4.82,37.90499999999999],[-4.82,37.89499999999999]]]},"properties":{"id":"cordoba-037","green_cover_pct":1,"green_within_300m":0.51,"green_deficit_score":0.73,"detail":"1% verde · 51% a <300 m","canopy_proxy":true}},{"type":"Feature","geometry":{"type":"Polygon","coordinates":[[[-4.8100000000000005,37.89499999999999],[-4.800000000000001,37.89499999999999],[-4.800000000000001,37.90499999999999],[-4.8100000000000005,37.90499999999999],[-4.8100000000000005,37.89499999999999]]]},"properties":{"id":"cordoba-038","green_cover_pct":18.2,"green_within_300m":1,"green_deficit_score":0.2,"detail":"18% verde · 100% a <300 m","canopy_proxy":true}},{"type":"Feature","geometry":{"type":"Polygon","coordinates":[[[-4.800000000000001,37.89499999999999],[-4.790000000000001,37.89499999999999],[-4.790000000000001,37.90499999999999],[-4.800000000000001,37.90499999999999],[-4.800000000000001,37.89499999999999]]]},"properties":{"id":"cordoba-039","green_cover_pct":7.4,"green_within_300m":1,"green_deficit_score":0.38,"detail":"7% verde · 100% a <300 m","canopy_proxy":true}},{"type":"Feature","geometry":{"type":"Polygon","coordinates":[[[-4.790000000000001,37.89499999999999],[-4.780000000000001,37.89499999999999],[-4.780000000000001,37.90499999999999],[-4.790000000000001,37.90499999999999],[-4.790000000000001,37.89499999999999]]]},"properties":{"id":"cordoba-040","green_cover_pct":5.7,"green_within_300m":0.79,"green_deficit_score":0.51,"detail":"6% verde · 79% a <300 m","canopy_proxy":true}},{"type":"Feature","geometry":{"type":"Polygon","coordinates":[[[-4.780000000000001,37.89499999999999],[-4.770000000000001,37.89499999999999],[-4.770000000000001,37.90499999999999],[-4.780000000000001,37.90499999999999],[-4.780000000000001,37.89499999999999]]]},"properties":{"id":"cordoba-041","green_cover_pct":17.5,"green_within_300m":1,"green_deficit_score":0.21,"detail":"18% verde · 100% a <300 m","canopy_proxy":true}},{"type":"Feature","geometry":{"type":"Polygon","coordinates":[[[-4.770000000000001,37.89499999999999],[-4.760000000000002,37.89499999999999],[-4.760000000000002,37.90499999999999],[-4.770000000000001,37.90499999999999],[-4.770000000000001,37.89499999999999]]]},"properties":{"id":"cordoba-042","green_cover_pct":6.4,"green_within_300m":0.86,"green_deficit_score":0.46,"detail":"6% verde · 86% a <300 m","canopy_proxy":true}},{"type":"Feature","geometry":{"type":"Polygon","coordinates":[[[-4.760000000000002,37.89499999999999],[-4.750000000000002,37.89499999999999],[-4.750000000000002,37.90499999999999],[-4.760000000000002,37.90499999999999],[-4.760000000000002,37.89499999999999]]]},"properties":{"id":"cordoba-043","green_cover_pct":16.2,"green_within_300m":1,"green_deficit_score":0.23,"detail":"16% verde · 100% a <300 m","canopy_proxy":true}},{"type":"Feature","geometry":{"type":"Polygon","coordinates":[[[-4.750000000000002,37.89499999999999],[-4.740000000000002,37.89499999999999],[-4.740000000000002,37.90499999999999],[-4.750000000000002,37.90499999999999],[-4.750000000000002,37.89499999999999]]]},"properties":{"id":"cordoba-044","green_cover_pct":0.2,"green_within_300m":0.37,"green_deficit_score":0.81,"detail":"0% verde · 37% a <300 m","canopy_proxy":true}}]}
