{"type":"FeatureCollection","name":"Córdoba · déficit de servicios 15-min (OSM real)","_generated":{"source":"ingest-osm.mjs","city":"cordoba","pois":849,"cats":["salud","educacion","comercio","transporte"],"threshold_m":800,"real":true},"features":[{"type":"Feature","geometry":{"type":"Polygon","coordinates":[[[-4.83,37.855],[-4.82,37.855],[-4.82,37.864999999999995],[-4.83,37.864999999999995],[-4.83,37.855]]]},"properties":{"id":"cordoba-svc-000","service_deficit":0.75,"detail":"falta: salud, educacion, comercio"}},{"type":"Feature","geometry":{"type":"Polygon","coordinates":[[[-4.82,37.855],[-4.8100000000000005,37.855],[-4.8100000000000005,37.864999999999995],[-4.82,37.864999999999995],[-4.82,37.855]]]},"properties":{"id":"cordoba-svc-001","service_deficit":1,"detail":"falta: salud, educacion, comercio, transporte"}},{"type":"Feature","geometry":{"type":"Polygon","coordinates":[[[-4.8100000000000005,37.855],[-4.800000000000001,37.855],[-4.800000000000001,37.864999999999995],[-4.8100000000000005,37.864999999999995],[-4.8100000000000005,37.855]]]},"properties":{"id":"cordoba-svc-002","service_deficit":0.75,"detail":"falta: salud, comercio, transporte"}},{"type":"Feature","geometry":{"type":"Polygon","coordinates":[[[-4.800000000000001,37.855],[-4.790000000000001,37.855],[-4.790000000000001,37.864999999999995],[-4.800000000000001,37.864999999999995],[-4.800000000000001,37.855]]]},"properties":{"id":"cordoba-svc-003","service_deficit":0.25,"detail":"falta: salud"}},{"type":"Feature","geometry":{"type":"Polygon","coordinates":[[[-4.790000000000001,37.855],[-4.780000000000001,37.855],[-4.780000000000001,37.864999999999995],[-4.790000000000001,37.864999999999995],[-4.790000000000001,37.855]]]},"properties":{"id":"cordoba-svc-004","service_deficit":0.25,"detail":"falta: salud"}},{"type":"Feature","geometry":{"type":"Polygon","coordinates":[[[-4.780000000000001,37.855],[-4.770000000000001,37.855],[-4.770000000000001,37.864999999999995],[-4.780000000000001,37.864999999999995],[-4.780000000000001,37.855]]]},"properties":{"id":"cordoba-svc-005","service_deficit":0.25,"detail":"falta: salud"}},{"type":"Feature","geometry":{"type":"Polygon","coordinates":[[[-4.770000000000001,37.855],[-4.760000000000002,37.855],[-4.760000000000002,37.864999999999995],[-4.770000000000001,37.864999999999995],[-4.770000000000001,37.855]]]},"properties":{"id":"cordoba-svc-006","service_deficit":0.75,"detail":"falta: salud, comercio, transporte"}},{"type":"Feature","geometry":{"type":"Polygon","coordinates":[[[-4.760000000000002,37.855],[-4.750000000000002,37.855],[-4.750000000000002,37.864999999999995],[-4.760000000000002,37.864999999999995],[-4.760000000000002,37.855]]]},"properties":{"id":"cordoba-svc-007","service_deficit":1,"detail":"falta: salud, educacion, comercio, transporte"}},{"type":"Feature","geometry":{"type":"Polygon","coordinates":[[[-4.750000000000002,37.855],[-4.740000000000002,37.855],[-4.740000000000002,37.864999999999995],[-4.750000000000002,37.864999999999995],[-4.750000000000002,37.855]]]},"properties":{"id":"cordoba-svc-008","service_deficit":1,"detail":"falta: salud, educacion, comercio, transporte"}},{"type":"Feature","geometry":{"type":"Polygon","coordinates":[[[-4.83,37.864999999999995],[-4.82,37.864999999999995],[-4.82,37.87499999999999],[-4.83,37.87499999999999],[-4.83,37.864999999999995]]]},"properties":{"id":"cordoba-svc-009","service_deficit":0.75,"detail":"falta: salud, educacion, comercio"}},{"type":"Feature","geometry":{"type":"Polygon","coordinates":[[[-4.82,37.864999999999995],[-4.8100000000000005,37.864999999999995],[-4.8100000000000005,37.87499999999999],[-4.82,37.87499999999999],[-4.82,37.864999999999995]]]},"properties":{"id":"cordoba-svc-010","service_deficit":0.75,"detail":"falta: salud, educacion, comercio"}},{"type":"Feature","geometry":{"type":"Polygon","coordinates":[[[-4.8100000000000005,37.864999999999995],[-4.800000000000001,37.864999999999995],[-4.800000000000001,37.87499999999999],[-4.8100000000000005,37.87499999999999],[-4.8100000000000005,37.864999999999995]]]},"properties":{"id":"cordoba-svc-011","service_deficit":0.25,"detail":"falta: comercio"}},{"type":"Feature","geometry":{"type":"Polygon","coordinates":[[[-4.800000000000001,37.864999999999995],[-4.790000000000001,37.864999999999995],[-4.790000000000001,37.87499999999999],[-4.800000000000001,37.87499999999999],[-4.800000000000001,37.864999999999995]]]},"properties":{"id":"cordoba-svc-012","service_deficit":0.25,"detail":"falta: comercio"}},{"type":"Feature","geometry":{"type":"Polygon","coordinates":[[[-4.790000000000001,37.864999999999995],[-4.780000000000001,37.864999999999995],[-4.780000000000001,37.87499999999999],[-4.790000000000001,37.87499999999999],[-4.790000000000001,37.864999999999995]]]},"properties":{"id":"cordoba-svc-013","service_deficit":0,"detail":"todo a <800 m"}},{"type":"Feature","geometry":{"type":"Polygon","coordinates":[[[-4.780000000000001,37.864999999999995],[-4.770000000000001,37.864999999999995],[-4.770000000000001,37.87499999999999],[-4.780000000000001,37.87499999999999],[-4.780000000000001,37.864999999999995]]]},"properties":{"id":"cordoba-svc-014","service_deficit":0,"detail":"todo a <800 m"}},{"type":"Feature","geometry":{"type":"Polygon","coordinates":[[[-4.770000000000001,37.864999999999995],[-4.760000000000002,37.864999999999995],[-4.760000000000002,37.87499999999999],[-4.770000000000001,37.87499999999999],[-4.770000000000001,37.864999999999995]]]},"properties":{"id":"cordoba-svc-015","service_deficit":0,"detail":"todo a <800 m"}},{"type":"Feature","geometry":{"type":"Polygon","coordinates":[[[-4.760000000000002,37.864999999999995],[-4.750000000000002,37.864999999999995],[-4.750000000000002,37.87499999999999],[-4.760000000000002,37.87499999999999],[-4.760000000000002,37.864999999999995]]]},"properties":{"id":"cordoba-svc-016","service_deficit":1,"detail":"falta: salud, educacion, comercio, transporte"}},{"type":"Feature","geometry":{"type":"Polygon","coordinates":[[[-4.750000000000002,37.864999999999995],[-4.740000000000002,37.864999999999995],[-4.740000000000002,37.87499999999999],[-4.750000000000002,37.87499999999999],[-4.750000000000002,37.864999999999995]]]},"properties":{"id":"cordoba-svc-017","service_deficit":1,"detail":"falta: salud, educacion, comercio, transporte"}},{"type":"Feature","geometry":{"type":"Polygon","coordinates":[[[-4.83,37.87499999999999],[-4.82,37.87499999999999],[-4.82,37.88499999999999],[-4.83,37.88499999999999],[-4.83,37.87499999999999]]]},"properties":{"id":"cordoba-svc-018","service_deficit":0.25,"detail":"falta: salud"}},{"type":"Feature","geometry":{"type":"Polygon","coordinates":[[[-4.82,37.87499999999999],[-4.8100000000000005,37.87499999999999],[-4.8100000000000005,37.88499999999999],[-4.82,37.88499999999999],[-4.82,37.87499999999999]]]},"properties":{"id":"cordoba-svc-019","service_deficit":0,"detail":"todo a <800 m"}},{"type":"Feature","geometry":{"type":"Polygon","coordinates":[[[-4.8100000000000005,37.87499999999999],[-4.800000000000001,37.87499999999999],[-4.800000000000001,37.88499999999999],[-4.8100000000000005,37.88499999999999],[-4.8100000000000005,37.87499999999999]]]},"properties":{"id":"cordoba-svc-020","service_deficit":0,"detail":"todo a <800 m"}},{"type":"Feature","geometry":{"type":"Polygon","coordinates":[[[-4.800000000000001,37.87499999999999],[-4.790000000000001,37.87499999999999],[-4.790000000000001,37.88499999999999],[-4.800000000000001,37.88499999999999],[-4.800000000000001,37.87499999999999]]]},"properties":{"id":"cordoba-svc-021","service_deficit":0,"detail":"todo a <800 m"}},{"type":"Feature","geometry":{"type":"Polygon","coordinates":[[[-4.790000000000001,37.87499999999999],[-4.780000000000001,37.87499999999999],[-4.780000000000001,37.88499999999999],[-4.790000000000001,37.88499999999999],[-4.790000000000001,37.87499999999999]]]},"properties":{"id":"cordoba-svc-022","service_deficit":0,"detail":"todo a <800 m"}},{"type":"Feature","geometry":{"type":"Polygon","coordinates":[[[-4.780000000000001,37.87499999999999],[-4.770000000000001,37.87499999999999],[-4.770000000000001,37.88499999999999],[-4.780000000000001,37.88499999999999],[-4.780000000000001,37.87499999999999]]]},"properties":{"id":"cordoba-svc-023","service_deficit":0,"detail":"todo a <800 m"}},{"type":"Feature","geometry":{"type":"Polygon","coordinates":[[[-4.770000000000001,37.87499999999999],[-4.760000000000002,37.87499999999999],[-4.760000000000002,37.88499999999999],[-4.770000000000001,37.88499999999999],[-4.770000000000001,37.87499999999999]]]},"properties":{"id":"cordoba-svc-024","service_deficit":0,"detail":"todo a <800 m"}},{"type":"Feature","geometry":{"type":"Polygon","coordinates":[[[-4.760000000000002,37.87499999999999],[-4.750000000000002,37.87499999999999],[-4.750000000000002,37.88499999999999],[-4.760000000000002,37.88499999999999],[-4.760000000000002,37.87499999999999]]]},"properties":{"id":"cordoba-svc-025","service_deficit":0,"detail":"todo a <800 m"}},{"type":"Feature","geometry":{"type":"Polygon","coordinates":[[[-4.750000000000002,37.87499999999999],[-4.740000000000002,37.87499999999999],[-4.740000000000002,37.88499999999999],[-4.750000000000002,37.88499999999999],[-4.750000000000002,37.87499999999999]]]},"properties":{"id":"cordoba-svc-026","service_deficit":1,"detail":"falta: salud, educacion, comercio, transporte"}},{"type":"Feature","geometry":{"type":"Polygon","coordinates":[[[-4.83,37.88499999999999],[-4.82,37.88499999999999],[-4.82,37.89499999999999],[-4.83,37.89499999999999],[-4.83,37.88499999999999]]]},"properties":{"id":"cordoba-svc-027","service_deficit":0.75,"detail":"falta: salud, comercio, transporte"}},{"type":"Feature","geometry":{"type":"Polygon","coordinates":[[[-4.82,37.88499999999999],[-4.8100000000000005,37.88499999999999],[-4.8100000000000005,37.89499999999999],[-4.82,37.89499999999999],[-4.82,37.88499999999999]]]},"properties":{"id":"cordoba-svc-028","service_deficit":0,"detail":"todo a <800 m"}},{"type":"Feature","geometry":{"type":"Polygon","coordinates":[[[-4.8100000000000005,37.88499999999999],[-4.800000000000001,37.88499999999999],[-4.800000000000001,37.89499999999999],[-4.8100000000000005,37.89499999999999],[-4.8100000000000005,37.88499999999999]]]},"properties":{"id":"cordoba-svc-029","service_deficit":0,"detail":"todo a <800 m"}},{"type":"Feature","geometry":{"type":"Polygon","coordinates":[[[-4.800000000000001,37.88499999999999],[-4.790000000000001,37.88499999999999],[-4.790000000000001,37.89499999999999],[-4.800000000000001,37.89499999999999],[-4.800000000000001,37.88499999999999]]]},"properties":{"id":"cordoba-svc-030","service_deficit":0,"detail":"todo a <800 m"}},{"type":"Feature","geometry":{"type":"Polygon","coordinates":[[[-4.790000000000001,37.88499999999999],[-4.780000000000001,37.88499999999999],[-4.780000000000001,37.89499999999999],[-4.790000000000001,37.89499999999999],[-4.790000000000001,37.88499999999999]]]},"properties":{"id":"cordoba-svc-031","service_deficit":0,"detail":"todo a <800 m"}},{"type":"Feature","geometry":{"type":"Polygon","coordinates":[[[-4.780000000000001,37.88499999999999],[-4.770000000000001,37.88499999999999],[-4.770000000000001,37.89499999999999],[-4.780000000000001,37.89499999999999],[-4.780000000000001,37.88499999999999]]]},"properties":{"id":"cordoba-svc-032","service_deficit":0,"detail":"todo a <800 m"}},{"type":"Feature","geometry":{"type":"Polygon","coordinates":[[[-4.770000000000001,37.88499999999999],[-4.760000000000002,37.88499999999999],[-4.760000000000002,37.89499999999999],[-4.770000000000001,37.89499999999999],[-4.770000000000001,37.88499999999999]]]},"properties":{"id":"cordoba-svc-033","service_deficit":0,"detail":"todo a <800 m"}},{"type":"Feature","geometry":{"type":"Polygon","coordinates":[[[-4.760000000000002,37.88499999999999],[-4.750000000000002,37.88499999999999],[-4.750000000000002,37.89499999999999],[-4.760000000000002,37.89499999999999],[-4.760000000000002,37.88499999999999]]]},"properties":{"id":"cordoba-svc-034","service_deficit":0,"detail":"todo a <800 m"}},{"type":"Feature","geometry":{"type":"Polygon","coordinates":[[[-4.750000000000002,37.88499999999999],[-4.740000000000002,37.88499999999999],[-4.740000000000002,37.89499999999999],[-4.750000000000002,37.89499999999999],[-4.750000000000002,37.88499999999999]]]},"properties":{"id":"cordoba-svc-035","service_deficit":0,"detail":"todo a <800 m"}},{"type":"Feature","geometry":{"type":"Polygon","coordinates":[[[-4.83,37.89499999999999],[-4.82,37.89499999999999],[-4.82,37.90499999999999],[-4.83,37.90499999999999],[-4.83,37.89499999999999]]]},"properties":{"id":"cordoba-svc-036","service_deficit":1,"detail":"falta: salud, educacion, comercio, transporte"}},{"type":"Feature","geometry":{"type":"Polygon","coordinates":[[[-4.82,37.89499999999999],[-4.8100000000000005,37.89499999999999],[-4.8100000000000005,37.90499999999999],[-4.82,37.90499999999999],[-4.82,37.89499999999999]]]},"properties":{"id":"cordoba-svc-037","service_deficit":0.5,"detail":"falta: salud, comercio"}},{"type":"Feature","geometry":{"type":"Polygon","coordinates":[[[-4.8100000000000005,37.89499999999999],[-4.800000000000001,37.89499999999999],[-4.800000000000001,37.90499999999999],[-4.8100000000000005,37.90499999999999],[-4.8100000000000005,37.89499999999999]]]},"properties":{"id":"cordoba-svc-038","service_deficit":0.25,"detail":"falta: salud"}},{"type":"Feature","geometry":{"type":"Polygon","coordinates":[[[-4.800000000000001,37.89499999999999],[-4.790000000000001,37.89499999999999],[-4.790000000000001,37.90499999999999],[-4.800000000000001,37.90499999999999],[-4.800000000000001,37.89499999999999]]]},"properties":{"id":"cordoba-svc-039","service_deficit":0,"detail":"todo a <800 m"}},{"type":"Feature","geometry":{"type":"Polygon","coordinates":[[[-4.790000000000001,37.89499999999999],[-4.780000000000001,37.89499999999999],[-4.780000000000001,37.90499999999999],[-4.790000000000001,37.90499999999999],[-4.790000000000001,37.89499999999999]]]},"properties":{"id":"cordoba-svc-040","service_deficit":0,"detail":"todo a <800 m"}},{"type":"Feature","geometry":{"type":"Polygon","coordinates":[[[-4.780000000000001,37.89499999999999],[-4.770000000000001,37.89499999999999],[-4.770000000000001,37.90499999999999],[-4.780000000000001,37.90499999999999],[-4.780000000000001,37.89499999999999]]]},"properties":{"id":"cordoba-svc-041","service_deficit":0,"detail":"todo a <800 m"}},{"type":"Feature","geometry":{"type":"Polygon","coordinates":[[[-4.770000000000001,37.89499999999999],[-4.760000000000002,37.89499999999999],[-4.760000000000002,37.90499999999999],[-4.770000000000001,37.90499999999999],[-4.770000000000001,37.89499999999999]]]},"properties":{"id":"cordoba-svc-042","service_deficit":0,"detail":"todo a <800 m"}},{"type":"Feature","geometry":{"type":"Polygon","coordinates":[[[-4.760000000000002,37.89499999999999],[-4.750000000000002,37.89499999999999],[-4.750000000000002,37.90499999999999],[-4.760000000000002,37.90499999999999],[-4.760000000000002,37.89499999999999]]]},"properties":{"id":"cordoba-svc-043","service_deficit":0,"detail":"todo a <800 m"}},{"type":"Feature","geometry":{"type":"Polygon","coordinates":[[[-4.750000000000002,37.89499999999999],[-4.740000000000002,37.89499999999999],[-4.740000000000002,37.90499999999999],[-4.750000000000002,37.90499999999999],[-4.750000000000002,37.89499999999999]]]},"properties":{"id":"cordoba-svc-044","service_deficit":0,"detail":"todo a <800 m"}}]}
