{"type":"FeatureCollection","name":"Córdoba · déficit de servicios 15-min (OSM real)","_generated":{"source":"ingest-osm.mjs","city":"malaga","pois":1896,"cats":["salud","educacion","comercio","transporte"],"threshold_m":800,"real":true},"features":[{"type":"Feature","geometry":{"type":"Polygon","coordinates":[[[-4.49,36.68],[-4.478000000000001,36.68],[-4.478000000000001,36.692],[-4.49,36.692],[-4.49,36.68]]]},"properties":{"id":"malaga-svc-000","service_deficit":0.5,"detail":"falta: salud, educacion"}},{"type":"Feature","geometry":{"type":"Polygon","coordinates":[[[-4.478000000000001,36.68],[-4.466000000000001,36.68],[-4.466000000000001,36.692],[-4.478000000000001,36.692],[-4.478000000000001,36.68]]]},"properties":{"id":"malaga-svc-001","service_deficit":0.25,"detail":"falta: salud"}},{"type":"Feature","geometry":{"type":"Polygon","coordinates":[[[-4.466000000000001,36.68],[-4.4540000000000015,36.68],[-4.4540000000000015,36.692],[-4.466000000000001,36.692],[-4.466000000000001,36.68]]]},"properties":{"id":"malaga-svc-002","service_deficit":0,"detail":"todo a <800 m"}},{"type":"Feature","geometry":{"type":"Polygon","coordinates":[[[-4.4540000000000015,36.68],[-4.442000000000002,36.68],[-4.442000000000002,36.692],[-4.4540000000000015,36.692],[-4.4540000000000015,36.68]]]},"properties":{"id":"malaga-svc-003","service_deficit":0,"detail":"todo a <800 m"}},{"type":"Feature","geometry":{"type":"Polygon","coordinates":[[[-4.442000000000002,36.68],[-4.430000000000002,36.68],[-4.430000000000002,36.692],[-4.442000000000002,36.692],[-4.442000000000002,36.68]]]},"properties":{"id":"malaga-svc-004","service_deficit":0.75,"detail":"falta: salud, educacion, comercio"}},{"type":"Feature","geometry":{"type":"Polygon","coordinates":[[[-4.430000000000002,36.68],[-4.418000000000003,36.68],[-4.418000000000003,36.692],[-4.430000000000002,36.692],[-4.430000000000002,36.68]]]},"properties":{"id":"malaga-svc-005","service_deficit":1,"detail":"falta: salud, educacion, comercio, transporte"}},{"type":"Feature","geometry":{"type":"Polygon","coordinates":[[[-4.418000000000003,36.68],[-4.406000000000003,36.68],[-4.406000000000003,36.692],[-4.418000000000003,36.692],[-4.418000000000003,36.68]]]},"properties":{"id":"malaga-svc-006","service_deficit":1,"detail":"falta: salud, educacion, comercio, transporte"}},{"type":"Feature","geometry":{"type":"Polygon","coordinates":[[[-4.406000000000003,36.68],[-4.394000000000004,36.68],[-4.394000000000004,36.692],[-4.406000000000003,36.692],[-4.406000000000003,36.68]]]},"properties":{"id":"malaga-svc-007","service_deficit":1,"detail":"falta: salud, educacion, comercio, transporte"}},{"type":"Feature","geometry":{"type":"Polygon","coordinates":[[[-4.394000000000004,36.68],[-4.382000000000004,36.68],[-4.382000000000004,36.692],[-4.394000000000004,36.692],[-4.394000000000004,36.68]]]},"properties":{"id":"malaga-svc-008","service_deficit":1,"detail":"falta: salud, educacion, comercio, transporte"}},{"type":"Feature","geometry":{"type":"Polygon","coordinates":[[[-4.382000000000004,36.68],[-4.3700000000000045,36.68],[-4.3700000000000045,36.692],[-4.382000000000004,36.692],[-4.382000000000004,36.68]]]},"properties":{"id":"malaga-svc-009","service_deficit":1,"detail":"falta: salud, educacion, comercio, transporte"}},{"type":"Feature","geometry":{"type":"Polygon","coordinates":[[[-4.3700000000000045,36.68],[-4.358000000000005,36.68],[-4.358000000000005,36.692],[-4.3700000000000045,36.692],[-4.3700000000000045,36.68]]]},"properties":{"id":"malaga-svc-010","service_deficit":1,"detail":"falta: salud, educacion, comercio, transporte"}},{"type":"Feature","geometry":{"type":"Polygon","coordinates":[[[-4.49,36.692],[-4.478000000000001,36.692],[-4.478000000000001,36.704],[-4.49,36.704],[-4.49,36.692]]]},"properties":{"id":"malaga-svc-011","service_deficit":0.5,"detail":"falta: salud, comercio"}},{"type":"Feature","geometry":{"type":"Polygon","coordinates":[[[-4.478000000000001,36.692],[-4.466000000000001,36.692],[-4.466000000000001,36.704],[-4.478000000000001,36.704],[-4.478000000000001,36.692]]]},"properties":{"id":"malaga-svc-012","service_deficit":0,"detail":"todo a <800 m"}},{"type":"Feature","geometry":{"type":"Polygon","coordinates":[[[-4.466000000000001,36.692],[-4.4540000000000015,36.692],[-4.4540000000000015,36.704],[-4.466000000000001,36.704],[-4.466000000000001,36.692]]]},"properties":{"id":"malaga-svc-013","service_deficit":0,"detail":"todo a <800 m"}},{"type":"Feature","geometry":{"type":"Polygon","coordinates":[[[-4.4540000000000015,36.692],[-4.442000000000002,36.692],[-4.442000000000002,36.704],[-4.4540000000000015,36.704],[-4.4540000000000015,36.692]]]},"properties":{"id":"malaga-svc-014","service_deficit":0,"detail":"todo a <800 m"}},{"type":"Feature","geometry":{"type":"Polygon","coordinates":[[[-4.442000000000002,36.692],[-4.430000000000002,36.692],[-4.430000000000002,36.704],[-4.442000000000002,36.704],[-4.442000000000002,36.692]]]},"properties":{"id":"malaga-svc-015","service_deficit":0,"detail":"todo a <800 m"}},{"type":"Feature","geometry":{"type":"Polygon","coordinates":[[[-4.430000000000002,36.692],[-4.418000000000003,36.692],[-4.418000000000003,36.704],[-4.430000000000002,36.704],[-4.430000000000002,36.692]]]},"properties":{"id":"malaga-svc-016","service_deficit":1,"detail":"falta: salud, educacion, comercio, transporte"}},{"type":"Feature","geometry":{"type":"Polygon","coordinates":[[[-4.418000000000003,36.692],[-4.406000000000003,36.692],[-4.406000000000003,36.704],[-4.418000000000003,36.704],[-4.418000000000003,36.692]]]},"properties":{"id":"malaga-svc-017","service_deficit":1,"detail":"falta: salud, educacion, comercio, transporte"}},{"type":"Feature","geometry":{"type":"Polygon","coordinates":[[[-4.406000000000003,36.692],[-4.394000000000004,36.692],[-4.394000000000004,36.704],[-4.406000000000003,36.704],[-4.406000000000003,36.692]]]},"properties":{"id":"malaga-svc-018","service_deficit":1,"detail":"falta: salud, educacion, comercio, transporte"}},{"type":"Feature","geometry":{"type":"Polygon","coordinates":[[[-4.394000000000004,36.692],[-4.382000000000004,36.692],[-4.382000000000004,36.704],[-4.394000000000004,36.704],[-4.394000000000004,36.692]]]},"properties":{"id":"malaga-svc-019","service_deficit":1,"detail":"falta: salud, educacion, comercio, transporte"}},{"type":"Feature","geometry":{"type":"Polygon","coordinates":[[[-4.382000000000004,36.692],[-4.3700000000000045,36.692],[-4.3700000000000045,36.704],[-4.382000000000004,36.704],[-4.382000000000004,36.692]]]},"properties":{"id":"malaga-svc-020","service_deficit":1,"detail":"falta: salud, educacion, comercio, transporte"}},{"type":"Feature","geometry":{"type":"Polygon","coordinates":[[[-4.3700000000000045,36.692],[-4.358000000000005,36.692],[-4.358000000000005,36.704],[-4.3700000000000045,36.704],[-4.3700000000000045,36.692]]]},"properties":{"id":"malaga-svc-021","service_deficit":1,"detail":"falta: salud, educacion, comercio, transporte"}},{"type":"Feature","geometry":{"type":"Polygon","coordinates":[[[-4.49,36.704],[-4.478000000000001,36.704],[-4.478000000000001,36.716],[-4.49,36.716],[-4.49,36.704]]]},"properties":{"id":"malaga-svc-022","service_deficit":0.25,"detail":"falta: salud"}},{"type":"Feature","geometry":{"type":"Polygon","coordinates":[[[-4.478000000000001,36.704],[-4.466000000000001,36.704],[-4.466000000000001,36.716],[-4.478000000000001,36.716],[-4.478000000000001,36.704]]]},"properties":{"id":"malaga-svc-023","service_deficit":0,"detail":"todo a <800 m"}},{"type":"Feature","geometry":{"type":"Polygon","coordinates":[[[-4.466000000000001,36.704],[-4.4540000000000015,36.704],[-4.4540000000000015,36.716],[-4.466000000000001,36.716],[-4.466000000000001,36.704]]]},"properties":{"id":"malaga-svc-024","service_deficit":0,"detail":"todo a <800 m"}},{"type":"Feature","geometry":{"type":"Polygon","coordinates":[[[-4.4540000000000015,36.704],[-4.442000000000002,36.704],[-4.442000000000002,36.716],[-4.4540000000000015,36.716],[-4.4540000000000015,36.704]]]},"properties":{"id":"malaga-svc-025","service_deficit":0,"detail":"todo a <800 m"}},{"type":"Feature","geometry":{"type":"Polygon","coordinates":[[[-4.442000000000002,36.704],[-4.430000000000002,36.704],[-4.430000000000002,36.716],[-4.442000000000002,36.716],[-4.442000000000002,36.704]]]},"properties":{"id":"malaga-svc-026","service_deficit":0,"detail":"todo a <800 m"}},{"type":"Feature","geometry":{"type":"Polygon","coordinates":[[[-4.430000000000002,36.704],[-4.418000000000003,36.704],[-4.418000000000003,36.716],[-4.430000000000002,36.716],[-4.430000000000002,36.704]]]},"properties":{"id":"malaga-svc-027","service_deficit":0,"detail":"todo a <800 m"}},{"type":"Feature","geometry":{"type":"Polygon","coordinates":[[[-4.418000000000003,36.704],[-4.406000000000003,36.704],[-4.406000000000003,36.716],[-4.418000000000003,36.716],[-4.418000000000003,36.704]]]},"properties":{"id":"malaga-svc-028","service_deficit":0.5,"detail":"falta: educacion, comercio"}},{"type":"Feature","geometry":{"type":"Polygon","coordinates":[[[-4.406000000000003,36.704],[-4.394000000000004,36.704],[-4.394000000000004,36.716],[-4.406000000000003,36.716],[-4.406000000000003,36.704]]]},"properties":{"id":"malaga-svc-029","service_deficit":1,"detail":"falta: salud, educacion, comercio, transporte"}},{"type":"Feature","geometry":{"type":"Polygon","coordinates":[[[-4.394000000000004,36.704],[-4.382000000000004,36.704],[-4.382000000000004,36.716],[-4.394000000000004,36.716],[-4.394000000000004,36.704]]]},"properties":{"id":"malaga-svc-030","service_deficit":1,"detail":"falta: salud, educacion, comercio, transporte"}},{"type":"Feature","geometry":{"type":"Polygon","coordinates":[[[-4.382000000000004,36.704],[-4.3700000000000045,36.704],[-4.3700000000000045,36.716],[-4.382000000000004,36.716],[-4.382000000000004,36.704]]]},"properties":{"id":"malaga-svc-031","service_deficit":1,"detail":"falta: salud, educacion, comercio, transporte"}},{"type":"Feature","geometry":{"type":"Polygon","coordinates":[[[-4.3700000000000045,36.704],[-4.358000000000005,36.704],[-4.358000000000005,36.716],[-4.3700000000000045,36.716],[-4.3700000000000045,36.704]]]},"properties":{"id":"malaga-svc-032","service_deficit":1,"detail":"falta: salud, educacion, comercio, transporte"}},{"type":"Feature","geometry":{"type":"Polygon","coordinates":[[[-4.49,36.716],[-4.478000000000001,36.716],[-4.478000000000001,36.728],[-4.49,36.728],[-4.49,36.716]]]},"properties":{"id":"malaga-svc-033","service_deficit":0,"detail":"todo a <800 m"}},{"type":"Feature","geometry":{"type":"Polygon","coordinates":[[[-4.478000000000001,36.716],[-4.466000000000001,36.716],[-4.466000000000001,36.728],[-4.478000000000001,36.728],[-4.478000000000001,36.716]]]},"properties":{"id":"malaga-svc-034","service_deficit":0,"detail":"todo a <800 m"}},{"type":"Feature","geometry":{"type":"Polygon","coordinates":[[[-4.466000000000001,36.716],[-4.4540000000000015,36.716],[-4.4540000000000015,36.728],[-4.466000000000001,36.728],[-4.466000000000001,36.716]]]},"properties":{"id":"malaga-svc-035","service_deficit":0,"detail":"todo a <800 m"}},{"type":"Feature","geometry":{"type":"Polygon","coordinates":[[[-4.4540000000000015,36.716],[-4.442000000000002,36.716],[-4.442000000000002,36.728],[-4.4540000000000015,36.728],[-4.4540000000000015,36.716]]]},"properties":{"id":"malaga-svc-036","service_deficit":0,"detail":"todo a <800 m"}},{"type":"Feature","geometry":{"type":"Polygon","coordinates":[[[-4.442000000000002,36.716],[-4.430000000000002,36.716],[-4.430000000000002,36.728],[-4.442000000000002,36.728],[-4.442000000000002,36.716]]]},"properties":{"id":"malaga-svc-037","service_deficit":0,"detail":"todo a <800 m"}},{"type":"Feature","geometry":{"type":"Polygon","coordinates":[[[-4.430000000000002,36.716],[-4.418000000000003,36.716],[-4.418000000000003,36.728],[-4.430000000000002,36.728],[-4.430000000000002,36.716]]]},"properties":{"id":"malaga-svc-038","service_deficit":0,"detail":"todo a <800 m"}},{"type":"Feature","geometry":{"type":"Polygon","coordinates":[[[-4.418000000000003,36.716],[-4.406000000000003,36.716],[-4.406000000000003,36.728],[-4.418000000000003,36.728],[-4.418000000000003,36.716]]]},"properties":{"id":"malaga-svc-039","service_deficit":0,"detail":"todo a <800 m"}},{"type":"Feature","geometry":{"type":"Polygon","coordinates":[[[-4.406000000000003,36.716],[-4.394000000000004,36.716],[-4.394000000000004,36.728],[-4.406000000000003,36.728],[-4.406000000000003,36.716]]]},"properties":{"id":"malaga-svc-040","service_deficit":0,"detail":"todo a <800 m"}},{"type":"Feature","geometry":{"type":"Polygon","coordinates":[[[-4.394000000000004,36.716],[-4.382000000000004,36.716],[-4.382000000000004,36.728],[-4.394000000000004,36.728],[-4.394000000000004,36.716]]]},"properties":{"id":"malaga-svc-041","service_deficit":0,"detail":"todo a <800 m"}},{"type":"Feature","geometry":{"type":"Polygon","coordinates":[[[-4.382000000000004,36.716],[-4.3700000000000045,36.716],[-4.3700000000000045,36.728],[-4.382000000000004,36.728],[-4.382000000000004,36.716]]]},"properties":{"id":"malaga-svc-042","service_deficit":0,"detail":"todo a <800 m"}},{"type":"Feature","geometry":{"type":"Polygon","coordinates":[[[-4.3700000000000045,36.716],[-4.358000000000005,36.716],[-4.358000000000005,36.728],[-4.3700000000000045,36.728],[-4.3700000000000045,36.716]]]},"properties":{"id":"malaga-svc-043","service_deficit":0,"detail":"todo a <800 m"}},{"type":"Feature","geometry":{"type":"Polygon","coordinates":[[[-4.49,36.728],[-4.478000000000001,36.728],[-4.478000000000001,36.74],[-4.49,36.74],[-4.49,36.728]]]},"properties":{"id":"malaga-svc-044","service_deficit":0,"detail":"todo a <800 m"}},{"type":"Feature","geometry":{"type":"Polygon","coordinates":[[[-4.478000000000001,36.728],[-4.466000000000001,36.728],[-4.466000000000001,36.74],[-4.478000000000001,36.74],[-4.478000000000001,36.728]]]},"properties":{"id":"malaga-svc-045","service_deficit":0,"detail":"todo a <800 m"}},{"type":"Feature","geometry":{"type":"Polygon","coordinates":[[[-4.466000000000001,36.728],[-4.4540000000000015,36.728],[-4.4540000000000015,36.74],[-4.466000000000001,36.74],[-4.466000000000001,36.728]]]},"properties":{"id":"malaga-svc-046","service_deficit":0.25,"detail":"falta: salud"}},{"type":"Feature","geometry":{"type":"Polygon","coordinates":[[[-4.4540000000000015,36.728],[-4.442000000000002,36.728],[-4.442000000000002,36.74],[-4.4540000000000015,36.74],[-4.4540000000000015,36.728]]]},"properties":{"id":"malaga-svc-047","service_deficit":0,"detail":"todo a <800 m"}},{"type":"Feature","geometry":{"type":"Polygon","coordinates":[[[-4.442000000000002,36.728],[-4.430000000000002,36.728],[-4.430000000000002,36.74],[-4.442000000000002,36.74],[-4.442000000000002,36.728]]]},"properties":{"id":"malaga-svc-048","service_deficit":0,"detail":"todo a <800 m"}},{"type":"Feature","geometry":{"type":"Polygon","coordinates":[[[-4.430000000000002,36.728],[-4.418000000000003,36.728],[-4.418000000000003,36.74],[-4.430000000000002,36.74],[-4.430000000000002,36.728]]]},"properties":{"id":"malaga-svc-049","service_deficit":0,"detail":"todo a <800 m"}},{"type":"Feature","geometry":{"type":"Polygon","coordinates":[[[-4.418000000000003,36.728],[-4.406000000000003,36.728],[-4.406000000000003,36.74],[-4.418000000000003,36.74],[-4.418000000000003,36.728]]]},"properties":{"id":"malaga-svc-050","service_deficit":0,"detail":"todo a <800 m"}},{"type":"Feature","geometry":{"type":"Polygon","coordinates":[[[-4.406000000000003,36.728],[-4.394000000000004,36.728],[-4.394000000000004,36.74],[-4.406000000000003,36.74],[-4.406000000000003,36.728]]]},"properties":{"id":"malaga-svc-051","service_deficit":0,"detail":"todo a <800 m"}},{"type":"Feature","geometry":{"type":"Polygon","coordinates":[[[-4.394000000000004,36.728],[-4.382000000000004,36.728],[-4.382000000000004,36.74],[-4.394000000000004,36.74],[-4.394000000000004,36.728]]]},"properties":{"id":"malaga-svc-052","service_deficit":0,"detail":"todo a <800 m"}},{"type":"Feature","geometry":{"type":"Polygon","coordinates":[[[-4.382000000000004,36.728],[-4.3700000000000045,36.728],[-4.3700000000000045,36.74],[-4.382000000000004,36.74],[-4.382000000000004,36.728]]]},"properties":{"id":"malaga-svc-053","service_deficit":0,"detail":"todo a <800 m"}},{"type":"Feature","geometry":{"type":"Polygon","coordinates":[[[-4.3700000000000045,36.728],[-4.358000000000005,36.728],[-4.358000000000005,36.74],[-4.3700000000000045,36.74],[-4.3700000000000045,36.728]]]},"properties":{"id":"malaga-svc-054","service_deficit":0.5,"detail":"falta: educacion, comercio"}},{"type":"Feature","geometry":{"type":"Polygon","coordinates":[[[-4.49,36.74],[-4.478000000000001,36.74],[-4.478000000000001,36.752],[-4.49,36.752],[-4.49,36.74]]]},"properties":{"id":"malaga-svc-055","service_deficit":0,"detail":"todo a <800 m"}},{"type":"Feature","geometry":{"type":"Polygon","coordinates":[[[-4.478000000000001,36.74],[-4.466000000000001,36.74],[-4.466000000000001,36.752],[-4.478000000000001,36.752],[-4.478000000000001,36.74]]]},"properties":{"id":"malaga-svc-056","service_deficit":0.5,"detail":"falta: salud, comercio"}},{"type":"Feature","geometry":{"type":"Polygon","coordinates":[[[-4.466000000000001,36.74],[-4.4540000000000015,36.74],[-4.4540000000000015,36.752],[-4.466000000000001,36.752],[-4.466000000000001,36.74]]]},"properties":{"id":"malaga-svc-057","service_deficit":1,"detail":"falta: salud, educacion, comercio, transporte"}},{"type":"Feature","geometry":{"type":"Polygon","coordinates":[[[-4.4540000000000015,36.74],[-4.442000000000002,36.74],[-4.442000000000002,36.752],[-4.4540000000000015,36.752],[-4.4540000000000015,36.74]]]},"properties":{"id":"malaga-svc-058","service_deficit":1,"detail":"falta: salud, educacion, comercio, transporte"}},{"type":"Feature","geometry":{"type":"Polygon","coordinates":[[[-4.442000000000002,36.74],[-4.430000000000002,36.74],[-4.430000000000002,36.752],[-4.442000000000002,36.752],[-4.442000000000002,36.74]]]},"properties":{"id":"malaga-svc-059","service_deficit":0,"detail":"todo a <800 m"}},{"type":"Feature","geometry":{"type":"Polygon","coordinates":[[[-4.430000000000002,36.74],[-4.418000000000003,36.74],[-4.418000000000003,36.752],[-4.430000000000002,36.752],[-4.430000000000002,36.74]]]},"properties":{"id":"malaga-svc-060","service_deficit":0,"detail":"todo a <800 m"}},{"type":"Feature","geometry":{"type":"Polygon","coordinates":[[[-4.418000000000003,36.74],[-4.406000000000003,36.74],[-4.406000000000003,36.752],[-4.418000000000003,36.752],[-4.418000000000003,36.74]]]},"properties":{"id":"malaga-svc-061","service_deficit":0,"detail":"todo a <800 m"}},{"type":"Feature","geometry":{"type":"Polygon","coordinates":[[[-4.406000000000003,36.74],[-4.394000000000004,36.74],[-4.394000000000004,36.752],[-4.406000000000003,36.752],[-4.406000000000003,36.74]]]},"properties":{"id":"malaga-svc-062","service_deficit":0.75,"detail":"falta: salud, educacion, comercio"}},{"type":"Feature","geometry":{"type":"Polygon","coordinates":[[[-4.394000000000004,36.74],[-4.382000000000004,36.74],[-4.382000000000004,36.752],[-4.394000000000004,36.752],[-4.394000000000004,36.74]]]},"properties":{"id":"malaga-svc-063","service_deficit":1,"detail":"falta: salud, educacion, comercio, transporte"}},{"type":"Feature","geometry":{"type":"Polygon","coordinates":[[[-4.382000000000004,36.74],[-4.3700000000000045,36.74],[-4.3700000000000045,36.752],[-4.382000000000004,36.752],[-4.382000000000004,36.74]]]},"properties":{"id":"malaga-svc-064","service_deficit":0.75,"detail":"falta: salud, comercio, transporte"}},{"type":"Feature","geometry":{"type":"Polygon","coordinates":[[[-4.3700000000000045,36.74],[-4.358000000000005,36.74],[-4.358000000000005,36.752],[-4.3700000000000045,36.752],[-4.3700000000000045,36.74]]]},"properties":{"id":"malaga-svc-065","service_deficit":1,"detail":"falta: salud, educacion, comercio, transporte"}}]}
