{"type":"FeatureCollection","name":"Málaga · índice combinado de exclusión (verde + servicios + vivienda)","_generated":{"source":"ingest-index.mjs","city":"malaga","layers":["green","service","rent"],"note":"objetivas; sin capa hostil (review C2)"},"features":[{"type":"Feature","geometry":{"type":"Polygon","coordinates":[[[-4.49,36.68],[-4.478000000000001,36.68],[-4.478000000000001,36.692],[-4.49,36.692],[-4.49,36.68]]]},"properties":{"id":"malaga-idx-000","injustice":0.44,"green":0.58,"service":0.5,"housing":0.25,"detail":"exclusión 44/100 · 3 capas"}},{"type":"Feature","geometry":{"type":"Polygon","coordinates":[[[-4.478000000000001,36.68],[-4.466000000000001,36.68],[-4.466000000000001,36.692],[-4.478000000000001,36.692],[-4.478000000000001,36.68]]]},"properties":{"id":"malaga-idx-001","injustice":0.32,"green":0.53,"service":0.25,"housing":0.18,"detail":"exclusión 32/100 · 3 capas"}},{"type":"Feature","geometry":{"type":"Polygon","coordinates":[[[-4.466000000000001,36.68],[-4.4540000000000015,36.68],[-4.4540000000000015,36.692],[-4.466000000000001,36.692],[-4.466000000000001,36.68]]]},"properties":{"id":"malaga-idx-002","injustice":0.26,"green":0.49,"service":0,"housing":0.29,"detail":"exclusión 26/100 · 3 capas"}},{"type":"Feature","geometry":{"type":"Polygon","coordinates":[[[-4.4540000000000015,36.68],[-4.442000000000002,36.68],[-4.442000000000002,36.692],[-4.4540000000000015,36.692],[-4.4540000000000015,36.68]]]},"properties":{"id":"malaga-idx-003","injustice":0.33,"green":0.47,"service":0,"housing":0.52,"detail":"exclusión 33/100 · 3 capas"}},{"type":"Feature","geometry":{"type":"Polygon","coordinates":[[[-4.49,36.692],[-4.478000000000001,36.692],[-4.478000000000001,36.704],[-4.49,36.704],[-4.49,36.692]]]},"properties":{"id":"malaga-idx-011","injustice":0.42,"green":0.58,"service":0.5,"housing":0.18,"detail":"exclusión 42/100 · 3 capas"}},{"type":"Feature","geometry":{"type":"Polygon","coordinates":[[[-4.478000000000001,36.692],[-4.466000000000001,36.692],[-4.466000000000001,36.704],[-4.478000000000001,36.704],[-4.478000000000001,36.692]]]},"properties":{"id":"malaga-idx-012","injustice":0.25,"green":0.47,"service":0,"housing":0.27,"detail":"exclusión 25/100 · 3 capas"}},{"type":"Feature","geometry":{"type":"Polygon","coordinates":[[[-4.466000000000001,36.692],[-4.4540000000000015,36.692],[-4.4540000000000015,36.704],[-4.466000000000001,36.704],[-4.466000000000001,36.692]]]},"properties":{"id":"malaga-idx-013","injustice":0.2,"green":0.42,"service":0,"housing":0.18,"detail":"exclusión 20/100 · 3 capas"}},{"type":"Feature","geometry":{"type":"Polygon","coordinates":[[[-4.4540000000000015,36.692],[-4.442000000000002,36.692],[-4.442000000000002,36.704],[-4.4540000000000015,36.704],[-4.4540000000000015,36.692]]]},"properties":{"id":"malaga-idx-014","injustice":0.27,"green":0.47,"service":0,"housing":0.33,"detail":"exclusión 27/100 · 3 capas"}},{"type":"Feature","geometry":{"type":"Polygon","coordinates":[[[-4.442000000000002,36.692],[-4.430000000000002,36.692],[-4.430000000000002,36.704],[-4.442000000000002,36.704],[-4.442000000000002,36.692]]]},"properties":{"id":"malaga-idx-015","injustice":0.4,"green":0.62,"service":0,"housing":0.59,"detail":"exclusión 40/100 · 3 capas"}},{"type":"Feature","geometry":{"type":"Polygon","coordinates":[[[-4.478000000000001,36.704],[-4.466000000000001,36.704],[-4.466000000000001,36.716],[-4.478000000000001,36.716],[-4.478000000000001,36.704]]]},"properties":{"id":"malaga-idx-023","injustice":0.24,"green":0.48,"service":0,"housing":0.24,"detail":"exclusión 24/100 · 3 capas"}},{"type":"Feature","geometry":{"type":"Polygon","coordinates":[[[-4.466000000000001,36.704],[-4.4540000000000015,36.704],[-4.4540000000000015,36.716],[-4.466000000000001,36.716],[-4.466000000000001,36.704]]]},"properties":{"id":"malaga-idx-024","injustice":0.22,"green":0.44,"service":0,"housing":0.23,"detail":"exclusión 22/100 · 3 capas"}},{"type":"Feature","geometry":{"type":"Polygon","coordinates":[[[-4.4540000000000015,36.704],[-4.442000000000002,36.704],[-4.442000000000002,36.716],[-4.4540000000000015,36.716],[-4.4540000000000015,36.704]]]},"properties":{"id":"malaga-idx-025","injustice":0.23,"green":0.5,"service":0,"housing":0.18,"detail":"exclusión 23/100 · 3 capas"}},{"type":"Feature","geometry":{"type":"Polygon","coordinates":[[[-4.442000000000002,36.704],[-4.430000000000002,36.704],[-4.430000000000002,36.716],[-4.442000000000002,36.716],[-4.442000000000002,36.704]]]},"properties":{"id":"malaga-idx-026","injustice":0.26,"green":0.5,"service":0,"housing":0.27,"detail":"exclusión 26/100 · 3 capas"}},{"type":"Feature","geometry":{"type":"Polygon","coordinates":[[[-4.430000000000002,36.704],[-4.418000000000003,36.704],[-4.418000000000003,36.716],[-4.430000000000002,36.716],[-4.430000000000002,36.704]]]},"properties":{"id":"malaga-idx-027","injustice":0.36,"green":0.69,"service":0,"housing":0.39,"detail":"exclusión 36/100 · 3 capas"}},{"type":"Feature","geometry":{"type":"Polygon","coordinates":[[[-4.49,36.716],[-4.478000000000001,36.716],[-4.478000000000001,36.728],[-4.49,36.728],[-4.49,36.716]]]},"properties":{"id":"malaga-idx-033","injustice":0.23,"green":0.43,"service":0,"housing":0.26,"detail":"exclusión 23/100 · 3 capas"}},{"type":"Feature","geometry":{"type":"Polygon","coordinates":[[[-4.478000000000001,36.716],[-4.466000000000001,36.716],[-4.466000000000001,36.728],[-4.478000000000001,36.728],[-4.478000000000001,36.716]]]},"properties":{"id":"malaga-idx-034","injustice":0.24,"green":0.4,"service":0,"housing":0.31,"detail":"exclusión 24/100 · 3 capas"}},{"type":"Feature","geometry":{"type":"Polygon","coordinates":[[[-4.466000000000001,36.716],[-4.4540000000000015,36.716],[-4.4540000000000015,36.728],[-4.466000000000001,36.728],[-4.466000000000001,36.716]]]},"properties":{"id":"malaga-idx-035","injustice":0.23,"green":0.47,"service":0,"housing":0.22,"detail":"exclusión 23/100 · 3 capas"}},{"type":"Feature","geometry":{"type":"Polygon","coordinates":[[[-4.4540000000000015,36.716],[-4.442000000000002,36.716],[-4.442000000000002,36.728],[-4.4540000000000015,36.728],[-4.4540000000000015,36.716]]]},"properties":{"id":"malaga-idx-036","injustice":0.13,"green":0.07,"service":0,"housing":0.32,"detail":"exclusión 13/100 · 3 capas"}},{"type":"Feature","geometry":{"type":"Polygon","coordinates":[[[-4.442000000000002,36.716],[-4.430000000000002,36.716],[-4.430000000000002,36.728],[-4.442000000000002,36.728],[-4.442000000000002,36.716]]]},"properties":{"id":"malaga-idx-037","injustice":0.21,"green":0.39,"service":0,"housing":0.25,"detail":"exclusión 21/100 · 3 capas"}},{"type":"Feature","geometry":{"type":"Polygon","coordinates":[[[-4.430000000000002,36.716],[-4.418000000000003,36.716],[-4.418000000000003,36.728],[-4.430000000000002,36.728],[-4.430000000000002,36.716]]]},"properties":{"id":"malaga-idx-038","injustice":0.23,"green":0.22,"service":0,"housing":0.47,"detail":"exclusión 23/100 · 3 capas"}},{"type":"Feature","geometry":{"type":"Polygon","coordinates":[[[-4.418000000000003,36.716],[-4.406000000000003,36.716],[-4.406000000000003,36.728],[-4.418000000000003,36.728],[-4.418000000000003,36.716]]]},"properties":{"id":"malaga-idx-039","injustice":0.22,"green":0.39,"service":0,"housing":0.27,"detail":"exclusión 22/100 · 3 capas"}},{"type":"Feature","geometry":{"type":"Polygon","coordinates":[[[-4.406000000000003,36.716],[-4.394000000000004,36.716],[-4.394000000000004,36.728],[-4.406000000000003,36.728],[-4.406000000000003,36.716]]]},"properties":{"id":"malaga-idx-040","injustice":0.32,"green":0.56,"service":0,"housing":0.41,"detail":"exclusión 32/100 · 3 capas"}},{"type":"Feature","geometry":{"type":"Polygon","coordinates":[[[-4.394000000000004,36.716],[-4.382000000000004,36.716],[-4.382000000000004,36.728],[-4.394000000000004,36.728],[-4.394000000000004,36.716]]]},"properties":{"id":"malaga-idx-041","injustice":0.31,"green":0.54,"service":0,"housing":0.4,"detail":"exclusión 31/100 · 3 capas"}},{"type":"Feature","geometry":{"type":"Polygon","coordinates":[[[-4.382000000000004,36.716],[-4.3700000000000045,36.716],[-4.3700000000000045,36.728],[-4.382000000000004,36.728],[-4.382000000000004,36.716]]]},"properties":{"id":"malaga-idx-042","injustice":0.39,"green":0.57,"service":0,"housing":0.59,"detail":"exclusión 39/100 · 3 capas"}},{"type":"Feature","geometry":{"type":"Polygon","coordinates":[[[-4.3700000000000045,36.716],[-4.358000000000005,36.716],[-4.358000000000005,36.728],[-4.3700000000000045,36.728],[-4.3700000000000045,36.716]]]},"properties":{"id":"malaga-idx-043","injustice":0.23,"green":0.49,"service":0,"housing":0.21,"detail":"exclusión 23/100 · 3 capas"}},{"type":"Feature","geometry":{"type":"Polygon","coordinates":[[[-4.49,36.728],[-4.478000000000001,36.728],[-4.478000000000001,36.74],[-4.49,36.74],[-4.49,36.728]]]},"properties":{"id":"malaga-idx-044","injustice":0.25,"green":0.41,"service":0,"housing":0.33,"detail":"exclusión 25/100 · 3 capas"}},{"type":"Feature","geometry":{"type":"Polygon","coordinates":[[[-4.466000000000001,36.728],[-4.4540000000000015,36.728],[-4.4540000000000015,36.74],[-4.466000000000001,36.74],[-4.466000000000001,36.728]]]},"properties":{"id":"malaga-idx-046","injustice":0.42,"green":0.44,"service":0.25,"housing":0.58,"detail":"exclusión 42/100 · 3 capas"}},{"type":"Feature","geometry":{"type":"Polygon","coordinates":[[[-4.4540000000000015,36.728],[-4.442000000000002,36.728],[-4.442000000000002,36.74],[-4.4540000000000015,36.74],[-4.4540000000000015,36.728]]]},"properties":{"id":"malaga-idx-047","injustice":0.2,"green":0.43,"service":0,"housing":0.17,"detail":"exclusión 20/100 · 3 capas"}},{"type":"Feature","geometry":{"type":"Polygon","coordinates":[[[-4.442000000000002,36.728],[-4.430000000000002,36.728],[-4.430000000000002,36.74],[-4.442000000000002,36.74],[-4.442000000000002,36.728]]]},"properties":{"id":"malaga-idx-048","injustice":0.18,"green":0.33,"service":0,"housing":0.2,"detail":"exclusión 18/100 · 3 capas"}},{"type":"Feature","geometry":{"type":"Polygon","coordinates":[[[-4.430000000000002,36.728],[-4.418000000000003,36.728],[-4.418000000000003,36.74],[-4.430000000000002,36.74],[-4.430000000000002,36.728]]]},"properties":{"id":"malaga-idx-049","injustice":0.25,"green":0.43,"service":0,"housing":0.31,"detail":"exclusión 25/100 · 3 capas"}},{"type":"Feature","geometry":{"type":"Polygon","coordinates":[[[-4.418000000000003,36.728],[-4.406000000000003,36.728],[-4.406000000000003,36.74],[-4.418000000000003,36.74],[-4.418000000000003,36.728]]]},"properties":{"id":"malaga-idx-050","injustice":0.28,"green":0.5,"service":0,"housing":0.33,"detail":"exclusión 28/100 · 3 capas"}},{"type":"Feature","geometry":{"type":"Polygon","coordinates":[[[-4.406000000000003,36.728],[-4.394000000000004,36.728],[-4.394000000000004,36.74],[-4.406000000000003,36.74],[-4.406000000000003,36.728]]]},"properties":{"id":"malaga-idx-051","injustice":0.38,"green":0.5,"service":0,"housing":0.64,"detail":"exclusión 38/100 · 3 capas"}},{"type":"Feature","geometry":{"type":"Polygon","coordinates":[[[-4.394000000000004,36.728],[-4.382000000000004,36.728],[-4.382000000000004,36.74],[-4.394000000000004,36.74],[-4.394000000000004,36.728]]]},"properties":{"id":"malaga-idx-052","injustice":0.38,"green":0.5,"service":0,"housing":0.64,"detail":"exclusión 38/100 · 3 capas"}},{"type":"Feature","geometry":{"type":"Polygon","coordinates":[[[-4.382000000000004,36.728],[-4.3700000000000045,36.728],[-4.3700000000000045,36.74],[-4.382000000000004,36.74],[-4.382000000000004,36.728]]]},"properties":{"id":"malaga-idx-053","injustice":0.29,"green":0.5,"service":0,"housing":0.36,"detail":"exclusión 29/100 · 3 capas"}},{"type":"Feature","geometry":{"type":"Polygon","coordinates":[[[-4.3700000000000045,36.728],[-4.358000000000005,36.728],[-4.358000000000005,36.74],[-4.3700000000000045,36.74],[-4.3700000000000045,36.728]]]},"properties":{"id":"malaga-idx-054","injustice":0.45,"green":0.5,"service":0.5,"housing":0.36,"detail":"exclusión 45/100 · 3 capas"}},{"type":"Feature","geometry":{"type":"Polygon","coordinates":[[[-4.49,36.74],[-4.478000000000001,36.74],[-4.478000000000001,36.752],[-4.49,36.752],[-4.49,36.74]]]},"properties":{"id":"malaga-idx-055","injustice":0.27,"green":0.5,"service":0,"housing":0.3,"detail":"exclusión 27/100 · 3 capas"}},{"type":"Feature","geometry":{"type":"Polygon","coordinates":[[[-4.466000000000001,36.74],[-4.4540000000000015,36.74],[-4.4540000000000015,36.752],[-4.466000000000001,36.752],[-4.466000000000001,36.74]]]},"properties":{"id":"malaga-idx-057","injustice":0.63,"green":0.5,"service":1,"housing":0.38,"detail":"exclusión 63/100 · 3 capas"}},{"type":"Feature","geometry":{"type":"Polygon","coordinates":[[[-4.4540000000000015,36.74],[-4.442000000000002,36.74],[-4.442000000000002,36.752],[-4.4540000000000015,36.752],[-4.4540000000000015,36.74]]]},"properties":{"id":"malaga-idx-058","injustice":0.63,"green":0.5,"service":1,"housing":0.38,"detail":"exclusión 63/100 · 3 capas"}},{"type":"Feature","geometry":{"type":"Polygon","coordinates":[[[-4.430000000000002,36.74],[-4.418000000000003,36.74],[-4.418000000000003,36.752],[-4.430000000000002,36.752],[-4.430000000000002,36.74]]]},"properties":{"id":"malaga-idx-060","injustice":0.23,"green":0.5,"service":0,"housing":0.18,"detail":"exclusión 23/100 · 3 capas"}},{"type":"Feature","geometry":{"type":"Polygon","coordinates":[[[-4.418000000000003,36.74],[-4.406000000000003,36.74],[-4.406000000000003,36.752],[-4.418000000000003,36.752],[-4.418000000000003,36.74]]]},"properties":{"id":"malaga-idx-061","injustice":0.22,"green":0.5,"service":0,"housing":0.16,"detail":"exclusión 22/100 · 3 capas"}},{"type":"Feature","geometry":{"type":"Polygon","coordinates":[[[-4.406000000000003,36.74],[-4.394000000000004,36.74],[-4.394000000000004,36.752],[-4.406000000000003,36.752],[-4.406000000000003,36.74]]]},"properties":{"id":"malaga-idx-062","injustice":0.53,"green":0.5,"service":0.75,"housing":0.33,"detail":"exclusión 53/100 · 3 capas"}},{"type":"Feature","geometry":{"type":"Polygon","coordinates":[[[-4.394000000000004,36.74],[-4.382000000000004,36.74],[-4.382000000000004,36.752],[-4.394000000000004,36.752],[-4.394000000000004,36.74]]]},"properties":{"id":"malaga-idx-063","injustice":0.73,"green":0.55,"service":1,"housing":0.64,"detail":"exclusión 73/100 · 3 capas"}},{"type":"Feature","geometry":{"type":"Polygon","coordinates":[[[-4.382000000000004,36.74],[-4.3700000000000045,36.74],[-4.3700000000000045,36.752],[-4.382000000000004,36.752],[-4.382000000000004,36.74]]]},"properties":{"id":"malaga-idx-064","injustice":0.65,"green":0.55,"service":0.75,"housing":0.64,"detail":"exclusión 65/100 · 3 capas"}},{"type":"Feature","geometry":{"type":"Polygon","coordinates":[[[-4.3700000000000045,36.74],[-4.358000000000005,36.74],[-4.358000000000005,36.752],[-4.3700000000000045,36.752],[-4.3700000000000045,36.74]]]},"properties":{"id":"malaga-idx-065","injustice":0.62,"green":0.5,"service":1,"housing":0.36,"detail":"exclusión 62/100 · 3 capas"}}]}
