{"type":"FeatureCollection","name":"Córdoba · déficit de verde (OSM real)","_generated":{"source":"ingest-osm.mjs","city":"malaga","rule":"3-30-300","greens":3139,"real":true,"canopy":"Urban Atlas Street Tree Layer 2021 (real)","canopy_proxy":false},"features":[{"type":"Feature","geometry":{"type":"Polygon","coordinates":[[[-4.49,36.68],[-4.478000000000001,36.68],[-4.478000000000001,36.692],[-4.49,36.692],[-4.49,36.68]]]},"properties":{"id":"malaga-000","green_cover_pct":8.4,"green_within_300m":0.82,"green_deficit_score":0.58,"detail":"0% copa · 82% a <300 m","canopy_proxy":false,"tree_canopy_pct":0.5}},{"type":"Feature","geometry":{"type":"Polygon","coordinates":[[[-4.478000000000001,36.68],[-4.466000000000001,36.68],[-4.466000000000001,36.692],[-4.478000000000001,36.692],[-4.478000000000001,36.68]]]},"properties":{"id":"malaga-001","green_cover_pct":16.3,"green_within_300m":0.92,"green_deficit_score":0.53,"detail":"1% copa · 92% a <300 m","canopy_proxy":false,"tree_canopy_pct":0.8}},{"type":"Feature","geometry":{"type":"Polygon","coordinates":[[[-4.466000000000001,36.68],[-4.4540000000000015,36.68],[-4.4540000000000015,36.692],[-4.466000000000001,36.692],[-4.466000000000001,36.68]]]},"properties":{"id":"malaga-002","green_cover_pct":19.6,"green_within_300m":1,"green_deficit_score":0.49,"detail":"0% copa · 100% a <300 m","canopy_proxy":false,"tree_canopy_pct":0.4}},{"type":"Feature","geometry":{"type":"Polygon","coordinates":[[[-4.4540000000000015,36.68],[-4.442000000000002,36.68],[-4.442000000000002,36.692],[-4.4540000000000015,36.692],[-4.4540000000000015,36.68]]]},"properties":{"id":"malaga-003","green_cover_pct":14.1,"green_within_300m":0.96,"green_deficit_score":0.47,"detail":"3% copa · 96% a <300 m","canopy_proxy":false,"tree_canopy_pct":2.9}},{"type":"Feature","geometry":{"type":"Polygon","coordinates":[[[-4.442000000000002,36.68],[-4.430000000000002,36.68],[-4.430000000000002,36.692],[-4.442000000000002,36.692],[-4.442000000000002,36.68]]]},"properties":{"id":"malaga-004","green_cover_pct":0.2,"green_within_300m":0.16,"green_deficit_score":0.92,"detail":"0% copa · 16% a <300 m","canopy_proxy":false,"tree_canopy_pct":0}},{"type":"Feature","geometry":{"type":"Polygon","coordinates":[[[-4.430000000000002,36.68],[-4.418000000000003,36.68],[-4.418000000000003,36.692],[-4.430000000000002,36.692],[-4.430000000000002,36.68]]]},"properties":{"id":"malaga-005","green_cover_pct":0,"green_within_300m":0,"green_deficit_score":1,"detail":"0% copa · 0% a <300 m","canopy_proxy":false,"tree_canopy_pct":0}},{"type":"Feature","geometry":{"type":"Polygon","coordinates":[[[-4.418000000000003,36.68],[-4.406000000000003,36.68],[-4.406000000000003,36.692],[-4.418000000000003,36.692],[-4.418000000000003,36.68]]]},"properties":{"id":"malaga-006","green_cover_pct":0,"green_within_300m":0,"green_deficit_score":1,"detail":"0% copa · 0% a <300 m","canopy_proxy":false,"tree_canopy_pct":0}},{"type":"Feature","geometry":{"type":"Polygon","coordinates":[[[-4.406000000000003,36.68],[-4.394000000000004,36.68],[-4.394000000000004,36.692],[-4.406000000000003,36.692],[-4.406000000000003,36.68]]]},"properties":{"id":"malaga-007","green_cover_pct":0,"green_within_300m":0,"green_deficit_score":1,"detail":"0% copa · 0% a <300 m","canopy_proxy":false,"tree_canopy_pct":0}},{"type":"Feature","geometry":{"type":"Polygon","coordinates":[[[-4.394000000000004,36.68],[-4.382000000000004,36.68],[-4.382000000000004,36.692],[-4.394000000000004,36.692],[-4.394000000000004,36.68]]]},"properties":{"id":"malaga-008","green_cover_pct":0,"green_within_300m":0,"green_deficit_score":1,"detail":"0% copa · 0% a <300 m","canopy_proxy":false,"tree_canopy_pct":0}},{"type":"Feature","geometry":{"type":"Polygon","coordinates":[[[-4.382000000000004,36.68],[-4.3700000000000045,36.68],[-4.3700000000000045,36.692],[-4.382000000000004,36.692],[-4.382000000000004,36.68]]]},"properties":{"id":"malaga-009","green_cover_pct":0,"green_within_300m":0,"green_deficit_score":1,"detail":"0% copa · 0% a <300 m","canopy_proxy":false,"tree_canopy_pct":0}},{"type":"Feature","geometry":{"type":"Polygon","coordinates":[[[-4.3700000000000045,36.68],[-4.358000000000005,36.68],[-4.358000000000005,36.692],[-4.3700000000000045,36.692],[-4.3700000000000045,36.68]]]},"properties":{"id":"malaga-010","green_cover_pct":0,"green_within_300m":0,"green_deficit_score":0.98,"detail":"1% copa · 0% a <300 m","canopy_proxy":false,"tree_canopy_pct":1.3}},{"type":"Feature","geometry":{"type":"Polygon","coordinates":[[[-4.49,36.692],[-4.478000000000001,36.692],[-4.478000000000001,36.704],[-4.49,36.704],[-4.49,36.692]]]},"properties":{"id":"malaga-011","green_cover_pct":4.1,"green_within_300m":0.82,"green_deficit_score":0.58,"detail":"1% copa · 82% a <300 m","canopy_proxy":false,"tree_canopy_pct":0.8}},{"type":"Feature","geometry":{"type":"Polygon","coordinates":[[[-4.478000000000001,36.692],[-4.466000000000001,36.692],[-4.466000000000001,36.704],[-4.478000000000001,36.704],[-4.478000000000001,36.692]]]},"properties":{"id":"malaga-012","green_cover_pct":6.2,"green_within_300m":1,"green_deficit_score":0.47,"detail":"2% copa · 100% a <300 m","canopy_proxy":false,"tree_canopy_pct":1.6}},{"type":"Feature","geometry":{"type":"Polygon","coordinates":[[[-4.466000000000001,36.692],[-4.4540000000000015,36.692],[-4.4540000000000015,36.704],[-4.466000000000001,36.704],[-4.466000000000001,36.692]]]},"properties":{"id":"malaga-013","green_cover_pct":13.1,"green_within_300m":1,"green_deficit_score":0.42,"detail":"5% copa · 100% a <300 m","canopy_proxy":false,"tree_canopy_pct":4.9}},{"type":"Feature","geometry":{"type":"Polygon","coordinates":[[[-4.4540000000000015,36.692],[-4.442000000000002,36.692],[-4.442000000000002,36.704],[-4.4540000000000015,36.704],[-4.4540000000000015,36.692]]]},"properties":{"id":"malaga-014","green_cover_pct":11.7,"green_within_300m":1,"green_deficit_score":0.47,"detail":"2% copa · 100% a <300 m","canopy_proxy":false,"tree_canopy_pct":1.5}},{"type":"Feature","geometry":{"type":"Polygon","coordinates":[[[-4.442000000000002,36.692],[-4.430000000000002,36.692],[-4.430000000000002,36.704],[-4.442000000000002,36.704],[-4.442000000000002,36.692]]]},"properties":{"id":"malaga-015","green_cover_pct":3.1,"green_within_300m":0.76,"green_deficit_score":0.62,"detail":"0% copa · 76% a <300 m","canopy_proxy":false,"tree_canopy_pct":0}},{"type":"Feature","geometry":{"type":"Polygon","coordinates":[[[-4.430000000000002,36.692],[-4.418000000000003,36.692],[-4.418000000000003,36.704],[-4.430000000000002,36.704],[-4.430000000000002,36.692]]]},"properties":{"id":"malaga-016","green_cover_pct":0,"green_within_300m":0.02,"green_deficit_score":0.99,"detail":"0% copa · 2% a <300 m","canopy_proxy":false,"tree_canopy_pct":0}},{"type":"Feature","geometry":{"type":"Polygon","coordinates":[[[-4.418000000000003,36.692],[-4.406000000000003,36.692],[-4.406000000000003,36.704],[-4.418000000000003,36.704],[-4.418000000000003,36.692]]]},"properties":{"id":"malaga-017","green_cover_pct":0,"green_within_300m":0.04,"green_deficit_score":0.98,"detail":"0% copa · 4% a <300 m","canopy_proxy":false,"tree_canopy_pct":0}},{"type":"Feature","geometry":{"type":"Polygon","coordinates":[[[-4.406000000000003,36.692],[-4.394000000000004,36.692],[-4.394000000000004,36.704],[-4.406000000000003,36.704],[-4.406000000000003,36.692]]]},"properties":{"id":"malaga-018","green_cover_pct":0,"green_within_300m":0,"green_deficit_score":1,"detail":"0% copa · 0% a <300 m","canopy_proxy":false,"tree_canopy_pct":0}},{"type":"Feature","geometry":{"type":"Polygon","coordinates":[[[-4.394000000000004,36.692],[-4.382000000000004,36.692],[-4.382000000000004,36.704],[-4.394000000000004,36.704],[-4.394000000000004,36.692]]]},"properties":{"id":"malaga-019","green_cover_pct":0,"green_within_300m":0,"green_deficit_score":1,"detail":"0% copa · 0% a <300 m","canopy_proxy":false,"tree_canopy_pct":0}},{"type":"Feature","geometry":{"type":"Polygon","coordinates":[[[-4.382000000000004,36.692],[-4.3700000000000045,36.692],[-4.3700000000000045,36.704],[-4.382000000000004,36.704],[-4.382000000000004,36.692]]]},"properties":{"id":"malaga-020","green_cover_pct":0,"green_within_300m":0,"green_deficit_score":0.97,"detail":"2% copa · 0% a <300 m","canopy_proxy":false,"tree_canopy_pct":1.6}},{"type":"Feature","geometry":{"type":"Polygon","coordinates":[[[-4.3700000000000045,36.692],[-4.358000000000005,36.692],[-4.358000000000005,36.704],[-4.3700000000000045,36.704],[-4.3700000000000045,36.692]]]},"properties":{"id":"malaga-021","green_cover_pct":0,"green_within_300m":0,"green_deficit_score":0.95,"detail":"3% copa · 0% a <300 m","canopy_proxy":false,"tree_canopy_pct":2.9}},{"type":"Feature","geometry":{"type":"Polygon","coordinates":[[[-4.49,36.704],[-4.478000000000001,36.704],[-4.478000000000001,36.716],[-4.49,36.716],[-4.49,36.704]]]},"properties":{"id":"malaga-022","green_cover_pct":5.1,"green_within_300m":0.99,"green_deficit_score":0.48,"detail":"1% copa · 99% a <300 m","canopy_proxy":false,"tree_canopy_pct":1.4}},{"type":"Feature","geometry":{"type":"Polygon","coordinates":[[[-4.478000000000001,36.704],[-4.466000000000001,36.704],[-4.466000000000001,36.716],[-4.478000000000001,36.716],[-4.478000000000001,36.704]]]},"properties":{"id":"malaga-023","green_cover_pct":14.3,"green_within_300m":0.99,"green_deficit_score":0.48,"detail":"2% copa · 99% a <300 m","canopy_proxy":false,"tree_canopy_pct":1.8}},{"type":"Feature","geometry":{"type":"Polygon","coordinates":[[[-4.466000000000001,36.704],[-4.4540000000000015,36.704],[-4.4540000000000015,36.716],[-4.466000000000001,36.716],[-4.466000000000001,36.704]]]},"properties":{"id":"malaga-024","green_cover_pct":20.6,"green_within_300m":1,"green_deficit_score":0.44,"detail":"3% copa · 100% a <300 m","canopy_proxy":false,"tree_canopy_pct":3.4}},{"type":"Feature","geometry":{"type":"Polygon","coordinates":[[[-4.4540000000000015,36.704],[-4.442000000000002,36.704],[-4.442000000000002,36.716],[-4.4540000000000015,36.716],[-4.4540000000000015,36.704]]]},"properties":{"id":"malaga-025","green_cover_pct":10.5,"green_within_300m":1,"green_deficit_score":0.5,"detail":"0% copa · 100% a <300 m","canopy_proxy":false,"tree_canopy_pct":0.2}},{"type":"Feature","geometry":{"type":"Polygon","coordinates":[[[-4.442000000000002,36.704],[-4.430000000000002,36.704],[-4.430000000000002,36.716],[-4.442000000000002,36.716],[-4.442000000000002,36.704]]]},"properties":{"id":"malaga-026","green_cover_pct":10.3,"green_within_300m":1,"green_deficit_score":0.5,"detail":"0% copa · 100% a <300 m","canopy_proxy":false,"tree_canopy_pct":0.1}},{"type":"Feature","geometry":{"type":"Polygon","coordinates":[[[-4.430000000000002,36.704],[-4.418000000000003,36.704],[-4.418000000000003,36.716],[-4.430000000000002,36.716],[-4.430000000000002,36.704]]]},"properties":{"id":"malaga-027","green_cover_pct":0.4,"green_within_300m":0.62,"green_deficit_score":0.69,"detail":"0% copa · 62% a <300 m","canopy_proxy":false,"tree_canopy_pct":0}},{"type":"Feature","geometry":{"type":"Polygon","coordinates":[[[-4.418000000000003,36.704],[-4.406000000000003,36.704],[-4.406000000000003,36.716],[-4.418000000000003,36.716],[-4.418000000000003,36.704]]]},"properties":{"id":"malaga-028","green_cover_pct":0.2,"green_within_300m":0.6,"green_deficit_score":0.7,"detail":"0% copa · 60% a <300 m","canopy_proxy":false,"tree_canopy_pct":0}},{"type":"Feature","geometry":{"type":"Polygon","coordinates":[[[-4.406000000000003,36.704],[-4.394000000000004,36.704],[-4.394000000000004,36.716],[-4.406000000000003,36.716],[-4.406000000000003,36.704]]]},"properties":{"id":"malaga-029","green_cover_pct":0,"green_within_300m":0,"green_deficit_score":1,"detail":"0% copa · 0% a <300 m","canopy_proxy":false,"tree_canopy_pct":0}},{"type":"Feature","geometry":{"type":"Polygon","coordinates":[[[-4.394000000000004,36.704],[-4.382000000000004,36.704],[-4.382000000000004,36.716],[-4.394000000000004,36.716],[-4.394000000000004,36.704]]]},"properties":{"id":"malaga-030","green_cover_pct":0,"green_within_300m":0,"green_deficit_score":0.94,"detail":"4% copa · 0% a <300 m","canopy_proxy":false,"tree_canopy_pct":3.8}},{"type":"Feature","geometry":{"type":"Polygon","coordinates":[[[-4.382000000000004,36.704],[-4.3700000000000045,36.704],[-4.3700000000000045,36.716],[-4.382000000000004,36.716],[-4.382000000000004,36.704]]]},"properties":{"id":"malaga-031","green_cover_pct":0,"green_within_300m":0,"green_deficit_score":0.94,"detail":"4% copa · 0% a <300 m","canopy_proxy":false,"tree_canopy_pct":3.5}},{"type":"Feature","geometry":{"type":"Polygon","coordinates":[[[-4.3700000000000045,36.704],[-4.358000000000005,36.704],[-4.358000000000005,36.716],[-4.3700000000000045,36.716],[-4.3700000000000045,36.704]]]},"properties":{"id":"malaga-032","green_cover_pct":0,"green_within_300m":0,"green_deficit_score":0.95,"detail":"3% copa · 0% a <300 m","canopy_proxy":false,"tree_canopy_pct":3}},{"type":"Feature","geometry":{"type":"Polygon","coordinates":[[[-4.49,36.716],[-4.478000000000001,36.716],[-4.478000000000001,36.728],[-4.49,36.728],[-4.49,36.716]]]},"properties":{"id":"malaga-033","green_cover_pct":22.5,"green_within_300m":1,"green_deficit_score":0.43,"detail":"4% copa · 100% a <300 m","canopy_proxy":false,"tree_canopy_pct":3.9}},{"type":"Feature","geometry":{"type":"Polygon","coordinates":[[[-4.478000000000001,36.716],[-4.466000000000001,36.716],[-4.466000000000001,36.728],[-4.478000000000001,36.728],[-4.478000000000001,36.716]]]},"properties":{"id":"malaga-034","green_cover_pct":26.7,"green_within_300m":1,"green_deficit_score":0.4,"detail":"6% copa · 100% a <300 m","canopy_proxy":false,"tree_canopy_pct":6.2}},{"type":"Feature","geometry":{"type":"Polygon","coordinates":[[[-4.466000000000001,36.716],[-4.4540000000000015,36.716],[-4.4540000000000015,36.728],[-4.466000000000001,36.728],[-4.466000000000001,36.716]]]},"properties":{"id":"malaga-035","green_cover_pct":17.4,"green_within_300m":1,"green_deficit_score":0.47,"detail":"2% copa · 100% a <300 m","canopy_proxy":false,"tree_canopy_pct":1.6}},{"type":"Feature","geometry":{"type":"Polygon","coordinates":[[[-4.4540000000000015,36.716],[-4.442000000000002,36.716],[-4.442000000000002,36.728],[-4.4540000000000015,36.728],[-4.4540000000000015,36.716]]]},"properties":{"id":"malaga-036","green_cover_pct":10.9,"green_within_300m":1,"green_deficit_score":0.07,"detail":"26% copa · 100% a <300 m","canopy_proxy":false,"tree_canopy_pct":25.7}},{"type":"Feature","geometry":{"type":"Polygon","coordinates":[[[-4.442000000000002,36.716],[-4.430000000000002,36.716],[-4.430000000000002,36.728],[-4.442000000000002,36.728],[-4.442000000000002,36.716]]]},"properties":{"id":"malaga-037","green_cover_pct":4.8,"green_within_300m":1,"green_deficit_score":0.39,"detail":"7% copa · 100% a <300 m","canopy_proxy":false,"tree_canopy_pct":6.8}},{"type":"Feature","geometry":{"type":"Polygon","coordinates":[[[-4.430000000000002,36.716],[-4.418000000000003,36.716],[-4.418000000000003,36.728],[-4.430000000000002,36.728],[-4.430000000000002,36.716]]]},"properties":{"id":"malaga-038","green_cover_pct":2.3,"green_within_300m":0.99,"green_deficit_score":0.22,"detail":"17% copa · 99% a <300 m","canopy_proxy":false,"tree_canopy_pct":17.2}},{"type":"Feature","geometry":{"type":"Polygon","coordinates":[[[-4.418000000000003,36.716],[-4.406000000000003,36.716],[-4.406000000000003,36.728],[-4.418000000000003,36.728],[-4.418000000000003,36.716]]]},"properties":{"id":"malaga-039","green_cover_pct":27.2,"green_within_300m":1,"green_deficit_score":0.39,"detail":"7% copa · 100% a <300 m","canopy_proxy":false,"tree_canopy_pct":6.7}},{"type":"Feature","geometry":{"type":"Polygon","coordinates":[[[-4.406000000000003,36.716],[-4.394000000000004,36.716],[-4.394000000000004,36.728],[-4.406000000000003,36.728],[-4.406000000000003,36.716]]]},"properties":{"id":"malaga-040","green_cover_pct":7.8,"green_within_300m":0.8,"green_deficit_score":0.56,"detail":"2% copa · 80% a <300 m","canopy_proxy":false,"tree_canopy_pct":2.1}},{"type":"Feature","geometry":{"type":"Polygon","coordinates":[[[-4.394000000000004,36.716],[-4.382000000000004,36.716],[-4.382000000000004,36.728],[-4.394000000000004,36.728],[-4.394000000000004,36.716]]]},"properties":{"id":"malaga-041","green_cover_pct":29.9,"green_within_300m":0.73,"green_deficit_score":0.54,"detail":"5% copa · 73% a <300 m","canopy_proxy":false,"tree_canopy_pct":5.4}},{"type":"Feature","geometry":{"type":"Polygon","coordinates":[[[-4.382000000000004,36.716],[-4.3700000000000045,36.716],[-4.3700000000000045,36.728],[-4.382000000000004,36.728],[-4.382000000000004,36.716]]]},"properties":{"id":"malaga-042","green_cover_pct":6.4,"green_within_300m":0.82,"green_deficit_score":0.57,"detail":"1% copa · 82% a <300 m","canopy_proxy":false,"tree_canopy_pct":1.4}},{"type":"Feature","geometry":{"type":"Polygon","coordinates":[[[-4.3700000000000045,36.716],[-4.358000000000005,36.716],[-4.358000000000005,36.728],[-4.3700000000000045,36.728],[-4.3700000000000045,36.716]]]},"properties":{"id":"malaga-043","green_cover_pct":3.5,"green_within_300m":0.93,"green_deficit_score":0.49,"detail":"3% copa · 93% a <300 m","canopy_proxy":false,"tree_canopy_pct":2.7}},{"type":"Feature","geometry":{"type":"Polygon","coordinates":[[[-4.49,36.728],[-4.478000000000001,36.728],[-4.478000000000001,36.74],[-4.49,36.74],[-4.49,36.728]]]},"properties":{"id":"malaga-044","green_cover_pct":31.6,"green_within_300m":1,"green_deficit_score":0.41,"detail":"6% copa · 100% a <300 m","canopy_proxy":false,"tree_canopy_pct":5.6}},{"type":"Feature","geometry":{"type":"Polygon","coordinates":[[[-4.478000000000001,36.728],[-4.466000000000001,36.728],[-4.466000000000001,36.74],[-4.478000000000001,36.74],[-4.478000000000001,36.728]]]},"properties":{"id":"malaga-045","green_cover_pct":32.6,"green_within_300m":1,"green_deficit_score":0.43,"detail":"4% copa · 100% a <300 m","canopy_proxy":false,"tree_canopy_pct":4.2}},{"type":"Feature","geometry":{"type":"Polygon","coordinates":[[[-4.466000000000001,36.728],[-4.4540000000000015,36.728],[-4.4540000000000015,36.74],[-4.466000000000001,36.74],[-4.466000000000001,36.728]]]},"properties":{"id":"malaga-046","green_cover_pct":54.1,"green_within_300m":1,"green_deficit_score":0.44,"detail":"4% copa · 100% a <300 m","canopy_proxy":false,"tree_canopy_pct":3.9}},{"type":"Feature","geometry":{"type":"Polygon","coordinates":[[[-4.4540000000000015,36.728],[-4.442000000000002,36.728],[-4.442000000000002,36.74],[-4.4540000000000015,36.74],[-4.4540000000000015,36.728]]]},"properties":{"id":"malaga-047","green_cover_pct":45.2,"green_within_300m":1,"green_deficit_score":0.43,"detail":"4% copa · 100% a <300 m","canopy_proxy":false,"tree_canopy_pct":4.5}},{"type":"Feature","geometry":{"type":"Polygon","coordinates":[[[-4.442000000000002,36.728],[-4.430000000000002,36.728],[-4.430000000000002,36.74],[-4.442000000000002,36.74],[-4.442000000000002,36.728]]]},"properties":{"id":"malaga-048","green_cover_pct":38.2,"green_within_300m":1,"green_deficit_score":0.33,"detail":"10% copa · 100% a <300 m","canopy_proxy":false,"tree_canopy_pct":10.1}},{"type":"Feature","geometry":{"type":"Polygon","coordinates":[[[-4.430000000000002,36.728],[-4.418000000000003,36.728],[-4.418000000000003,36.74],[-4.430000000000002,36.74],[-4.430000000000002,36.728]]]},"properties":{"id":"malaga-049","green_cover_pct":11.5,"green_within_300m":1,"green_deficit_score":0.43,"detail":"4% copa · 100% a <300 m","canopy_proxy":false,"tree_canopy_pct":4.2}},{"type":"Feature","geometry":{"type":"Polygon","coordinates":[[[-4.418000000000003,36.728],[-4.406000000000003,36.728],[-4.406000000000003,36.74],[-4.418000000000003,36.74],[-4.418000000000003,36.728]]]},"properties":{"id":"malaga-050","green_cover_pct":54.2,"green_within_300m":1,"green_deficit_score":0.5,"detail":"0% copa · 100% a <300 m","canopy_proxy":false,"tree_canopy_pct":0}},{"type":"Feature","geometry":{"type":"Polygon","coordinates":[[[-4.406000000000003,36.728],[-4.394000000000004,36.728],[-4.394000000000004,36.74],[-4.406000000000003,36.74],[-4.406000000000003,36.728]]]},"properties":{"id":"malaga-051","green_cover_pct":40.4,"green_within_300m":1,"green_deficit_score":0.5,"detail":"0% copa · 100% a <300 m","canopy_proxy":false,"tree_canopy_pct":0}},{"type":"Feature","geometry":{"type":"Polygon","coordinates":[[[-4.394000000000004,36.728],[-4.382000000000004,36.728],[-4.382000000000004,36.74],[-4.394000000000004,36.74],[-4.394000000000004,36.728]]]},"properties":{"id":"malaga-052","green_cover_pct":51.1,"green_within_300m":1,"green_deficit_score":0.5,"detail":"0% copa · 100% a <300 m","canopy_proxy":false,"tree_canopy_pct":0}},{"type":"Feature","geometry":{"type":"Polygon","coordinates":[[[-4.382000000000004,36.728],[-4.3700000000000045,36.728],[-4.3700000000000045,36.74],[-4.382000000000004,36.74],[-4.382000000000004,36.728]]]},"properties":{"id":"malaga-053","green_cover_pct":47.6,"green_within_300m":1,"green_deficit_score":0.5,"detail":"0% copa · 100% a <300 m","canopy_proxy":false,"tree_canopy_pct":0}},{"type":"Feature","geometry":{"type":"Polygon","coordinates":[[[-4.3700000000000045,36.728],[-4.358000000000005,36.728],[-4.358000000000005,36.74],[-4.3700000000000045,36.74],[-4.3700000000000045,36.728]]]},"properties":{"id":"malaga-054","green_cover_pct":60.8,"green_within_300m":1,"green_deficit_score":0.5,"detail":"0% copa · 100% a <300 m","canopy_proxy":false,"tree_canopy_pct":0}},{"type":"Feature","geometry":{"type":"Polygon","coordinates":[[[-4.49,36.74],[-4.478000000000001,36.74],[-4.478000000000001,36.752],[-4.49,36.752],[-4.49,36.74]]]},"properties":{"id":"malaga-055","green_cover_pct":18.7,"green_within_300m":1,"green_deficit_score":0.5,"detail":"0% copa · 100% a <300 m","canopy_proxy":false,"tree_canopy_pct":0}},{"type":"Feature","geometry":{"type":"Polygon","coordinates":[[[-4.478000000000001,36.74],[-4.466000000000001,36.74],[-4.466000000000001,36.752],[-4.478000000000001,36.752],[-4.478000000000001,36.74]]]},"properties":{"id":"malaga-056","green_cover_pct":66.9,"green_within_300m":1,"green_deficit_score":0.5,"detail":"0% copa · 100% a <300 m","canopy_proxy":false,"tree_canopy_pct":0}},{"type":"Feature","geometry":{"type":"Polygon","coordinates":[[[-4.466000000000001,36.74],[-4.4540000000000015,36.74],[-4.4540000000000015,36.752],[-4.466000000000001,36.752],[-4.466000000000001,36.74]]]},"properties":{"id":"malaga-057","green_cover_pct":80.9,"green_within_300m":1,"green_deficit_score":0.5,"detail":"0% copa · 100% a <300 m","canopy_proxy":false,"tree_canopy_pct":0}},{"type":"Feature","geometry":{"type":"Polygon","coordinates":[[[-4.4540000000000015,36.74],[-4.442000000000002,36.74],[-4.442000000000002,36.752],[-4.4540000000000015,36.752],[-4.4540000000000015,36.74]]]},"properties":{"id":"malaga-058","green_cover_pct":100,"green_within_300m":1,"green_deficit_score":0.5,"detail":"0% copa · 100% a <300 m","canopy_proxy":false,"tree_canopy_pct":0}},{"type":"Feature","geometry":{"type":"Polygon","coordinates":[[[-4.442000000000002,36.74],[-4.430000000000002,36.74],[-4.430000000000002,36.752],[-4.442000000000002,36.752],[-4.442000000000002,36.74]]]},"properties":{"id":"malaga-059","green_cover_pct":96.4,"green_within_300m":1,"green_deficit_score":0.5,"detail":"0% copa · 100% a <300 m","canopy_proxy":false,"tree_canopy_pct":0}},{"type":"Feature","geometry":{"type":"Polygon","coordinates":[[[-4.430000000000002,36.74],[-4.418000000000003,36.74],[-4.418000000000003,36.752],[-4.430000000000002,36.752],[-4.430000000000002,36.74]]]},"properties":{"id":"malaga-060","green_cover_pct":27.3,"green_within_300m":1,"green_deficit_score":0.5,"detail":"0% copa · 100% a <300 m","canopy_proxy":false,"tree_canopy_pct":0}},{"type":"Feature","geometry":{"type":"Polygon","coordinates":[[[-4.418000000000003,36.74],[-4.406000000000003,36.74],[-4.406000000000003,36.752],[-4.418000000000003,36.752],[-4.418000000000003,36.74]]]},"properties":{"id":"malaga-061","green_cover_pct":52.4,"green_within_300m":1,"green_deficit_score":0.5,"detail":"0% copa · 100% a <300 m","canopy_proxy":false,"tree_canopy_pct":0}},{"type":"Feature","geometry":{"type":"Polygon","coordinates":[[[-4.406000000000003,36.74],[-4.394000000000004,36.74],[-4.394000000000004,36.752],[-4.406000000000003,36.752],[-4.406000000000003,36.74]]]},"properties":{"id":"malaga-062","green_cover_pct":78,"green_within_300m":1,"green_deficit_score":0.5,"detail":"0% copa · 100% a <300 m","canopy_proxy":false,"tree_canopy_pct":0}},{"type":"Feature","geometry":{"type":"Polygon","coordinates":[[[-4.394000000000004,36.74],[-4.382000000000004,36.74],[-4.382000000000004,36.752],[-4.394000000000004,36.752],[-4.394000000000004,36.74]]]},"properties":{"id":"malaga-063","green_cover_pct":28.9,"green_within_300m":0.9,"green_deficit_score":0.55,"detail":"0% copa · 90% a <300 m","canopy_proxy":false,"tree_canopy_pct":0}},{"type":"Feature","geometry":{"type":"Polygon","coordinates":[[[-4.382000000000004,36.74],[-4.3700000000000045,36.74],[-4.3700000000000045,36.752],[-4.382000000000004,36.752],[-4.382000000000004,36.74]]]},"properties":{"id":"malaga-064","green_cover_pct":42.8,"green_within_300m":0.89,"green_deficit_score":0.55,"detail":"0% copa · 89% a <300 m","canopy_proxy":false,"tree_canopy_pct":0}},{"type":"Feature","geometry":{"type":"Polygon","coordinates":[[[-4.3700000000000045,36.74],[-4.358000000000005,36.74],[-4.358000000000005,36.752],[-4.3700000000000045,36.752],[-4.3700000000000045,36.74]]]},"properties":{"id":"malaga-065","green_cover_pct":79.5,"green_within_300m":1,"green_deficit_score":0.5,"detail":"0% copa · 100% a <300 m","canopy_proxy":false,"tree_canopy_pct":0}}]}
